,place_id,place_name,lat,lng,place_address,category,facility_id,facility_available_name,facility_is_available
408,10001,BBC씨어터,37.5239298,127.0251432,서울특별시 강남구 신사동  568-2,영화관/공연장,100006,장애인용 관람석,이용가능
417,10002,BREAK OUT 전용극장,37.5688354,126.988123,서울특별시 종로구 관철동 33-1,영화관/공연장,100011,장애인용 관람석,이용가능
422,10005,CGV 강남,37.501621,127.0263906,서울특별시 강남구 역삼동 814-6 스타플렉스 4-11층,영화관/공연장,100016,장애인용 관람석,이용가능
423,10006,CGV 명동,37.5634244,126.9829197,서울특별시 중구 명동2가 83-5 눈스퀘어 8층,영화관/공연장,100018,장애인용 관람석,이용가능
432,10008,CGV 송파,37.4787378,127.1211166,서울특별시 송파구 문정동 294 가든파이브 라이프 YOUNG관 10층,영화관/공연장,100026,장애인용 관람석,이용가능
467,10016,CGV신한카드아트홀(구 CGV팝아트홀),37.5170517,126.90333319999999,서울특별시 영등포구 영등포동 4가 442번지 타임스퀘어내 CGV팝아트홀 7층,영화관/공연장,100065,장애인용 관람석,이용가능
475,10017,CGV압구정,37.5243665,127.0294163,서울특별시 강남구 압구정로30길  45,영화관/공연장,100069,장애인용 관람석,이용가능
494,10023,LG아트센터,37.5019921,127.03735220000002,서울특별시 강남구 논현로  508,영화관/공연장,100088,장애인용 관람석,이용가능
500,10030,건국대학교 국제회의장,37.5438883,127.07595459999999,서울특별시 광진구 능동로 120 (화양동),영화관/공연장,100096,장애인용 관람석,이용가능
507,10038,국립중앙박물관 극장 용,37.5202471,126.9824662,서울특별시 용산구 용산동 6가 168-6번지,영화관/공연장,100125,장애인용 관람석,이용불편
518,10039,그랜드 앰배서더 서울 그랜드 볼룸,37.5601325,127.00231000000001,서울특별시 중구 장충동 2가 186-54,영화관/공연장,100131,장애인용 관람석,이용가능
533,10044,나루아트센터,37.5374246,127.070453,서울특별시 광진구 능동로 76 (자양동),영화관/공연장,100146,장애인용 관람석,이용불편
536,10046,난타전용관(명동),37.5634602,126.98375190000002,서울특별시 중구 명동 2가 50-14 유네스코빌딩 3층,영화관/공연장,100149,장애인용 관람석,이용가능
539,10047,난타전용관(홍대),37.553188,126.92118020000001,"서울특별시 마포구 양화로16길 29 옐로우다이아몬드 지하 2,3층",영화관/공연장,100154,장애인용 관람석,이용가능
543,10048,남산예술센터,37.5587774,126.98824840000002,서울특별시 중구 소파로 138 (예장동 8-19),영화관/공연장,100156,장애인용 관람석,이용가능
555,10062,대한극장,37.559878499999996,126.9671041,서울특별시 중구 청파로 463,영화관/공연장,100171,장애인용 관람석,이용가능
561,10065,동영아트홀 (구 계몽아트홀),37.497800399999996,127.0441092,서울특별시 강남구 역삼동 772,영화관/공연장,100181,장애인용 관람석,이용가능
576,10069,레진코믹스 브이홀,37.55441500000001,126.92196609999999,서울특별시 마포구 홍익로 25 서교호텔별관 지하,영화관/공연장,100192,장애인용 관람석,이용가능
592,10074,롯데시네마 강동관,37.536654999999996,127.125348,서울특별시 강동구 성내동 44-1,영화관/공연장,100212,장애인용 관람석,이용가능
600,10075,롯데시네마 건대입구관,37.537510499999996,127.0725939,서울특별시 광진구 아차산로 262 (자양동),영화관/공연장,100216,장애인용 관람석,이용가능
614,10079,롯데시네마 씨티(강남),37.5003768,127.0269314,서울특별시 강남구 역삼동 816,영화관/공연장,100230,장애인용 관람석,이용가능
618,10082,롯데시네마 피카디리관,37.571043700000004,126.9912115,서울특별시 종로구 돈의동 137,영화관/공연장,100242,장애인용 관람석,이용가능
630,10086,롯데시네마 황학,37.571029100000004,127.0212194,서울특별시 중구 황학동 2545 롯데캐슬 베네치아 1층 1222~4호,영화관/공연장,100258,장애인용 관람석,이용가능
653,10094,메가박스 동대문,37.5658032,127.0074043,서울특별시 중구 을지로6가 21,영화관/공연장,100281,장애인용 관람석,이용가능
682,10101,메가박스 코엑스,37.512487799999995,127.058853,서울특별시 강남구 삼성동 159,영화관/공연장,100313,장애인용 관람석,이용가능
686,10103,명동예술극장,37.564057,126.9841854,서울특별시 중구 명동길 35 명동예술극장,영화관/공연장,100320,장애인용 관람석,이용가능
687,10104,명보아트홀,37.5647012,126.99321509999999,서울특별시 중구 초동 18-5,영화관/공연장,100324,장애인용 관람석,이용가능
696,10107,목동아이스링크,37.530525399999995,126.88169690000001,서울특별시 양천구 목1동 914,영화관/공연장,100330,장애인용 관람석,이용불편
699,10108,문예회관소극장,37.5799333,127.00289699999999,서울특별시 종로구 동숭동 1-130,영화관/공연장,100333,장애인용 관람석,이용가능
703,10112,뮤지컬 전용관 팝콘하우스,37.5658696,126.972876,서울특별시 중구 정동 8-11 (구 정동이벤트홀),영화관/공연장,100338,장애인용 관람석,이용가능
707,10113,민속극장 풍류,37.510234999999994,127.0446673,서울특별시 강남구 삼성동 112-2 한국문화재보호재단,영화관/공연장,100341,장애인용 관람석,이용가능
711,10115,백암아트홀,37.5105408,127.065929,서울특별시 강남구 삼성동 170-5 백암아트홀,영화관/공연장,100345,장애인용 관람석,이용가능
725,10123,샤롯데씨어터,37.5119444,127.1009753,서울특별시 송파구 잠실동 41-1번지,영화관/공연장,100359,장애인용 관람석,이용가능
727,10125,서울 신라호텔 다이너스티홀,37.5568322,127.0063426,서울특별시 중구 장충동2가 202,영화관/공연장,100364,장애인용 관람석,이용가능
735,10126,서울 잠실 학생체육관,37.5121532,127.0754598,서울특별시 송파구 잠실1동 10-3 종합운동장 내,영화관/공연장,100369,장애인용 관람석,이용불편
741,10128,서울극장,37.572185,126.97686609999998,서울특별시 종로구 세종대로 175,영화관/공연장,100378,장애인용 관람석,이용가능
749,10129,서울놀이마당,37.5077131,127.10058300000001,서울특별시 송파구 잠실동 47번지,영화관/공연장,100383,장애인용 관람석,이용불편
754,10131,서울애니시네마,37.5584252,126.9879469,서울특별시 중구 예장동8-145,영화관/공연장,100388,장애인용 관람석,이용가능
758,10133,서울패션아트홀,37.567161,127.01213200000001,서울특별시 중구 신당동 251-7번지 서울패션센터 5층 서울패션아트홀,영화관/공연장,100392,장애인용 관람석,이용가능
760,10135,세라믹팔레스홀,37.4857831,127.08235330000001,서울특별시 강남구 일원동 713,영화관/공연장,100396,장애인용 관람석,이용가능
765,10138,세종대학교 대양홀,37.5514706,127.073884,서울특별시 광진구 능동로 209 (군자동),영화관/공연장,100399,장애인용 관람석,이용가능
773,10141,소공동 롯데호텔 크리스탈볼룸,37.5646602,126.98095330000001,서울특별시 중구 소공동 1번지 롯데호텔 2층,영화관/공연장,100407,장애인용 관람석,이용가능
784,10147,쉐라톤그랜드워커힐호텔 워커힐씨어터,37.5586439,127.1117098,서울특별시 광진구 워커힐로 177 (광장동),영화관/공연장,100418,장애인용 관람석,이용불편
804,10158,압구정 예홀,37.5278631,127.0362481,서울특별시 강남구 신사동 640-2 로빈명풍관 지하1층,영화관/공연장,100450,장애인용 관람석,이용가능
818,10162,역삼1문화센터,37.4952786,127.03324099999999,서울특별시 강남구 역삼동 829-20,영화관/공연장,100461,장애인용 관람석,이용가능
819,10163,연세대학교 노천극장,37.564936700000004,126.9383335,서울특별시 서대문구 연세로 50 연세대학교 노천극장,영화관/공연장,100465,장애인용 관람석,이용가능
827,10166,영산아트홀,37.5172195,126.90392949999999,서울특별시 영등포구 영중로  15,영화관/공연장,100479,장애인용 관람석,이용가능
839,10174,올림픽 예술극장 (K-아트홀 태권도공연장),37.52098270000001,127.11609140000002,서울특별시 송파구 방이동 88 올림픽공원 올림픽문화센터 내,영화관/공연장,100503,장애인용 관람석,이용가능
844,10175,용산아트홀,37.532505799999996,126.99011329999999,서울특별시 용산구 이태원동 34-87,영화관/공연장,100509,장애인용 관람석,이용불편
850,10178,유니버설아트센터,37.5500833,127.0877013,서울특별시 광진구 천호대로 664 (능동),영화관/공연장,100514,장애인용 관람석,이용가능
853,10179,유니클로 악스(구 악스코리아),37.5457324,127.1080051,서울특별시 광진구 구천면로 20 (광장동),영화관/공연장,100515,장애인용 관람석,이용가능
856,10184,이해랑 예술극장,37.55921770000001,126.9985031,서울특별시 중구 필동 3가 26번지,영화관/공연장,100518,장애인용 관람석,이용가능
859,10185,이화여고 100주년 기념관,37.564605799999995,126.9713913,서울특별시 중구 정동 32번지,영화관/공연장,100521,장애인용 관람석,이용가능
861,10186,이화여대 대강당,37.561777299999996,126.9466193,서울특별시 서대문구 이화여대길 52,영화관/공연장,100525,장애인용 관람석,이용불편
865,10189,일지아트홀(구 우림 청담 씨어터),37.5230089,127.04024960000001,서울특별시 강남구 청담2동 86-1번지 I 지하2층,영화관/공연장,100531,장애인용 관람석,이용가능
873,10193,잠실실내체육관,37.5164915,127.0735976,서울특별시 송파구 잠실1동 10번지,영화관/공연장,100542,장애인용 관람석,이용불편
875,10195,장충체육관,37.5581292,127.00690290000001,서울특별시 중구 장충동2가 200-102,영화관/공연장,100554,장애인용 관람석,이용가능
885,10198,점프 서울전용극장,37.5696849,126.99167479999998,서울특별시 종로구 돈화문로 13 서울극장 5층,영화관/공연장,100560,장애인용 관람석,이용불편
888,10200,정동극장,37.56109050000001,126.99536359999999,서울특별시 중구 퇴계로 212,영화관/공연장,100568,장애인용 관람석,이용가능
891,10201,중앙대학교 아트센터 대극장,37.5048875,126.95737790000001,서울특별시 동작구 흑석로84 중앙대학교 내,영화관/공연장,100573,장애인용 관람석,이용불편
896,10202,진선여고 대강당,37.5017085,127.04757859999998,서울특별시 강남구 역삼2동 713,영화관/공연장,100576,장애인용 관람석,이용가능
910,10212,한국문화의 집 코우스,37.5068447,127.06049329999999,서울특별시 강남구 대치동 944-22,영화관/공연장,100596,장애인용 관람석,이용가능
915,10213,한국불교역사문화기념관,37.573899,126.9823254,서울특별시 종로구 견지동 45,영화관/공연장,100601,장애인용 관람석,이용가능
918,10215,해치홀,37.5625106,126.98516869999999,서울특별시 중구 명동2가 31-1 M플라자 5층 서울 글로벌 문화관광센터 內,영화관/공연장,100608,장애인용 관람석,이용가능
930,10219,호암아트홀,37.5615747,126.97106720000001,서울특별시 중구 순화동 7 중앙일보사 건물 호암 아트홀,영화관/공연장,100620,장애인용 관람석,이용가능
931,10221,홍대 비보이 전용극장,37.5535113,126.92675190000001,서울특별시 마포구 와우산로 121 삼진제약BD 지하1층,영화관/공연장,100626,장애인용 관람석,이용가능
13915,14864,갈비세상,37.4985185,126.85183049999999,서울특별시 구로구 경인로 281,일반음식점,117286,장애인용 관람석,이용가능
13992,14892,근린생활시설(천하뼈다귀감자탕),37.67086550000001,127.0557297,서울특별시 노원구 동일로 1595,일반음식점,117224,장애인용 관람석,이용가능
14072,14922,명가설렁탕,37.4860585,126.98499140000001,서울특별시 서초구 서초대로  23,일반음식점,116774,장애인용 관람석,이용가능
14076,14923,명문의집,37.569156400000004,127.0484733,서울특별시 성동구 마장로 360,일반음식점,116778,장애인용 관람석,이용가능
14274,15006,이하정 간장게장 서울본점,37.5118003,127.12612040000002,서울특별시 송파구 위례성대로18길  4,일반음식점,116979,장애인용 관람석,이용가능
14335,15033,코다리냉면,37.4864798,127.1262024,서울특별시 송파구 문정로 31,일반음식점,117042,장애인용 관람석,이용가능
14368,15048,한국의집,37.568838299999996,126.9782419,서울특별시 중구 청계천로 8,일반음식점,117082,장애인용 관람석,이용가능
14575,20073,CGV,37.5284437241851,127.12535988866115,서울특별시 강동구 성내로 48,영화관/공연장,200513,장애인용 관람석,
14588,20074,CGV구로14,37.50115888382457,126.88277403171672,서울특별시 구로구 구로중앙로 152,영화관/공연장,200532,장애인용 관람석,
14601,20075,CGV상암14,37.5635262478331,126.89843632998341,서울특별시 마포구 월드컵로 244,영화관/공연장,200551,장애인용 관람석,
14612,20076,CGV용산 11,37.5297699998206,126.96474274881271,서울특별시 용산구 한강대로23길 55,영화관/공연장,200570,장애인용 관람석,
14644,20092,Ditto HOTEL,37.55829388925655,126.94204851146051,서울특별시 서대문구 연세로2마길  24,일반숙박시설,200682,장애인용 관람석,
14696,20114,FIRASER SUITES,37.57312329979733,126.98633448373072,서울특별시 종로구 인사동4길 1,일반숙박시설,200851,장애인용 관람석,
14788,20155,IMI호텔,37.501033796350825,127.03964976707266,서울특별시 강남구 테헤란로28길 3-12,일반숙박시설,201148,장애인용 관람석,
14790,20156,IMT호텔,37.48679662027596,127.01295778934912,서울특별시 서초구 효령로53길 49,일반숙박시설,201153,장애인용 관람석,
14814,20171,JJ호텔,37.56177185763962,127.05770517993437,서울특별시 성동구 자동차시장1길 2,일반숙박시설,201257,장애인용 관람석,
14835,20185,K.S텔,37.479633212144506,126.95112236887444,서울특별시 관악구 관악로15길 23-15,일반숙박시설,201359,장애인용 관람석,
14858,20194,KBS방송국 서울별관,37.518711488257054,126.92941898842821,서울특별시 영등포구 여의대방로 359,영화관/공연장,201420,장애인용 관람석,
14882,20201,KH바텍사옥,37.48223033295346,127.01273992010954,서울특별시 서초구 반포대로 18,영화관/공연장,201491,장애인용 관람석,
14962,20281,M.BIZ호텔,37.49989046188445,127.03038939829682,서울특별시 강남구 테헤란로7길 11,일반숙박시설,202060,장애인용 관람석,
15000,20295,Moon 호텔,37.518555516832365,126.90713949511914,서울특별시 영등포구 영중로8길 13,일반숙박시설,202163,장애인용 관람석,
15008,20296,M모텔,37.48485991473142,126.93113327989236,서울특별시 관악구 남부순환로181길 6,일반숙박시설,202168,장애인용 관람석,
15029,20303,NINETH 호텔,37.48628477285406,127.01362254632951,서울특별시 서초구 반포대로14길 51,일반숙박시설,202213,장애인용 관람석,
15033,20304,NYX  HOTEL,37.53092259844149,126.83847310770923,서울특별시 강서구 월정로24길 1,일반숙박시설,202218,장애인용 관람석,
15071,20319,R호텔,37.58892005819255,127.00775358099222,서울특별시 성북구 동소문로  14-14,일반숙박시설,202324,장애인용 관람석,
15094,20336,SHOW모텔,37.48548736520558,126.93173422422815,서울특별시 관악구 신림로66길 34,일반숙박시설,202441,장애인용 관람석,
15116,20351,SM호텔,37.4826252381686,127.06270949701906,서울특별시 강남구 선릉로2길 37-5,일반숙박시설,202553,장애인용 관람석,
15147,20371,The View ,37.516200316290785,127.11157569392452,서울특별시 송파구 올림픽로34길 5-16,일반숙박시설,202670,장애인용 관람석,
15166,20378,VERTIGO빌딩,37.55634170573935,126.93730121307377,서울특별시 서대문구 연세로 8-1,영화관/공연장,202715,장애인용 관람석,
15194,20388,W호텔,37.61835772036083,127.07677348271562,서울특별시 노원구 화랑로 445,일반숙박시설,202788,장애인용 관람석,
15217,20396,Y모텔 ,37.54521205881573,126.92996885322214,서울특별시 마포구 서강로24길 24,일반숙박시설,202851,장애인용 관람석,
15228,20402,cs모텔,37.60862039307808,126.92991397440537,서울특별시 은평구 진흥로 183,일반숙박시설,202879,장애인용 관람석,
15293,20429,㈜에니웍스,37.5836476795585,127.00231413577556,서울특별시 종로구 동숭길 144,영화관/공연장,203050,장애인용 관람석,
15367,20450,가나안의집,37.54459718097464,127.13799260844502,서울특별시 강동구 천중로35길 73-7,복지시설,203198,장애인용 관람석,
15392,20465,가락관광호텔,37.493852016172646,127.1187388692868,서울특별시 송파구 송파대로28길 5,일반숙박시설,203355,장애인용 관람석,
15415,20478,가브리엘의집,37.550762417383105,126.97550629168234,서울특별시 용산구 후암로35길 22-23,복지시설,203480,장애인용 관람석,
15435,20487,가야호텔,37.54083991216595,126.97232319812241,서울특별시 용산구 한강대로 253,일반숙박시설,203564,장애인용 관람석,
15510,20531,갈월동 종합사회복지관,37.5457743450545,126.97482444506555,서울특별시 용산구 두텁바위로 25,복지시설,203965,장애인용 관람석,
15539,20541,갑을복지재단 재활센터,37.477704626550576,126.91785350660135,서울특별시 관악구 난우16길 13-7,복지시설,204085,장애인용 관람석,
15560,20556,강남구 직업재활센터,37.48284587857757,127.07937075395105,서울특별시 강남구 광평로64길 22,복지시설,204242,장애인용 관람석,
15617,20582,강남장애인복지관,37.49471831292079,127.0834994877244,서울특별시 강남구 개포로 645,복지시설,204568,장애인용 관람석,
15637,20585,강남종합사회복지관,37.49198231160321,127.07346872881212,서울특별시 강남구 개포로 605,복지시설,204607,장애인용 관람석,
15698,20611,강동미르사랑 데이케어센터,37.5351413199334,127.1461259743747,서울특별시 강동구 천호대로 1214,복지시설,204941,장애인용 관람석,
15763,20647,강북구립보호작업장,37.61633878840478,127.03098946337694,서울특별시 강북구 오현로 1-,복지시설,205290,장애인용 관람석,
15789,20656,강북문화예술화관,37.64098942633013,127.01387735123377,서울특별시 강북구 삼각산로 85,영화관/공연장,205404,장애인용 관람석,
15824,20670,강북장애인복지관,37.61636736511229,127.03194543709392,서울특별시 강북구 오현로 18,복지시설,205545,장애인용 관람석,
15839,20671,강북제일교회사회복지시설,37.62800238404007,127.02595546516173,서울특별시 강북구 도봉로 214,복지시설,205568,장애인용 관람석,
15858,20677,강북청소년수련관,37.64583830000001,127.00623440000004,서울특별시 강북구 수유동 산 20-9번지 4.19길 224,수련시설,205635,장애인용 관람석,
15963,20775,갤러리모텔,37.51853410945677,126.90741552846356,서울특별시 영등포구 영등포로46길 8-3,일반숙박시설,206641,장애인용 관람석,
15976,20780,갤러리아호텔,37.495973318986884,126.84568623757664,서울특별시 구로구 경인로22길 36,일반숙박시설,206670,장애인용 관람석,
15987,20782,갤러리 호텔,37.5158147899758,127.11146653105864,서울특별시 송파구 올림픽로34길 -12,일반숙박시설,206685,장애인용 관람석,
16078,20833,경남관광호텔,37.57057635236377,127.07099668143776,서울특별시 동대문구 장한로 114,일반숙박시설,207138,장애인용 관람석,
16168,20909,고궁호텔,37.57572251653142,126.99681217433556,서울특별시 종로구 율곡로 164,일반숙박시설,207804,장애인용 관람석,
16241,20960,골든시네마,37.47744337707189,126.98128703356329,서울특별시 동작구 동작대로 8,영화관/공연장,208303,장애인용 관람석,
16284,20991,공릉종합사회복지관,37.62958831565961,127.06985648241071,서울특별시 노원구 동일로 1127,복지시설,208581,장애인용 관람석,
16331,21027,관광숙박시설,37.55466853656621,126.93559597865871,서울특별시 마포구 서강로  137,일반숙박시설,208886,장애인용 관람석,
16344,21029,관광숙박시설(더엠호텔),37.56414716134401,126.91328555305857,서울특별시 마포구 월드컵북로 124,일반숙박시설,208912,장애인용 관람석,
16396,21067,관훈동 관광숙박시설,37.57258243790213,126.9842109640222,서울특별시 종로구 인사동5길 38,일반숙박시설,209266,장애인용 관람석,
16434,21089,광야홈리스센터,37.5162599,126.90519010000004,서울특별시 영등포구 영등포4가 423-37,복지시설,209449,장애인용 관람석,
16484,21115,광진구 공연장,37.546422028385436,127.10928510725678,서울특별시 광진구 구천면로 24,영화관/공연장,209699,장애인용 관람석,
16512,21129,광진종합문화센터,37.53651137862957,127.09648076709179,서울특별시 광진구 광나루로56길 67,영화관/공연장,209881,장애인용 관람석,
16539,21147,교남소망의집,37.54796965087783,126.85235072276943,서울특별시 강서구 까치산로22길 38,복지시설,210082,장애인용 관람석,
16570,21155,교육관,37.54296419099017,127.09443419719764,서울특별시 광진구 워커힐로 3,복지시설,210170,장애인용 관람석,
16658,21222,구로종합사회복지관,37.48682257702298,126.89082890797512,서울특별시 구로구 디지털로31길 93,복지시설,210881,장애인용 관람석,
16667,21225,구로호텔,37.4831824420615,126.8988572415558,서울특별시 구로구 디지털로32길 72,일반숙박시설,210929,장애인용 관람석,
16746,21254,구립용산장애인복지관,37.53368613841085,126.95072053962977,서울특별시 용산구 효창원로3길 51,복지시설,211166,장애인용 관람석,
16776,21261,구립장애인보호작업시설,37.489727219184644,126.82478039574607,서울특별시 구로구 경인로 21,복지시설,211236,장애인용 관람석,
16791,21262,구립장애인보호작업장,37.51198095762709,126.93244303956894,서울특별시 동작구 등용로12길 57,복지시설,211258,장애인용 관람석,
16823,21281,구세군144주년기념빌딩,37.5651938759843,126.96544140920116,서울특별시 서대문구 충정로 71-5,영화관/공연장,211442,장애인용 관람석,
16838,21282,구세군강북사회종합복지관,37.6256799328332,127.0133941983791,서울특별시 강북구 인수봉로20가길 24,복지시설,211462,장애인용 관람석,
16854,21283,구세군자활주거복지센터,37.59336500510857,127.09551239550972,서울특별시 중랑구 봉우재로58길 24,복지시설,211484,장애인용 관람석,
16963,21368,군자동극장,37.53408430699921,127.0676312012205,서울특별시 광진구 능동로  28,영화관/공연장,212414,장애인용 관람석,
16983,21377,굿타임호텔,37.55681628993303,126.94212208803258,서울특별시 서대문구 신촌로 145,일반숙박시설,212509,장애인용 관람석,
16999,21379,궁동종합사회복지관,37.49913350853486,126.82956240498748,서울특별시 구로구 오리로22길 5,복지시설,212528,장애인용 관람석,
17027,21395,그랜드힐튼호텔,37.589410771952274,126.93535772074858,서울특별시 서대문구 연희로 353,일반숙박시설,212642,장애인용 관람석,
17043,21401,그리스(구 스카이),37.515379536471336,127.11436609504804,서울특별시 송파구 오금로11길 63-11,일반숙박시설,212687,장애인용 관람석,
17057,21409,그린월드호텔,37.55140668214402,126.86334831728522,서울특별시 강서구 공항대로  516,일반숙박시설,212752,장애인용 관람석,
17243,21551,기쁜우리복지관,37.56930782505573,126.8486954521885,서울특별시 강서구 허준로  65,복지시설,213829,장애인용 관람석,
17330,21590,길음종합사회복지관,37.608815196546814,127.02478001302087,서울특별시 성북구 삼양로8가길  32,복지시설,214174,장애인용 관람석,
17361,21609,까사,37.51600967506188,127.11118177434786,서울특별시 송파구 올림픽로34길 7,일반숙박시설,214361,장애인용 관람석,
17384,21617,까펠레호텔,37.53528554168322,127.13705672944307,서울특별시 강동구 천호대로175길 14,일반숙박시설,214411,장애인용 관람석,
17397,21629,꾸띠호텔,37.57208210673918,126.9898800517909,서울특별시 종로구 수표로26길  14,일반숙박시설,214501,장애인용 관람석,
17422,21657,꿈자람터?장애인주간보호센터,37.56024040629791,126.85169270104666,서울특별시 강서구 공항대로43길 104,복지시설,214712,장애인용 관람석,
17449,21667,나눔아트센터,37.63642373050545,127.07764405340069,서울특별시 노원구 공릉로58마길 27,복지시설,214807,장애인용 관람석,
17475,21683,나이아가라관광호텔,37.549185294961816,126.87862496135864,서울특별시 강서구 양천로 743,일반숙박시설,214939,장애인용 관람석,
17483,21685,나인트리호텔,37.56857825020632,126.98302554431255,서울특별시 중구 명동14길 55,일반숙박시설,214959,장애인용 관람석,
17509,21691,낙산제빌딩,37.58081491141709,127.00398052499972,서울특별시 종로구 대학로12길 73,영화관/공연장,215015,장애인용 관람석,
17531,21712,남경모텔,37.49744001001498,127.09680592263823,서울특별시 송파구 삼학사로 4,일반숙박시설,215242,장애인용 관람석,
17628,21767,내발산동 사회복지시설,37.557281236580884,126.84309718791616,서울특별시 강서구 강서로52길  88,복지시설,215693,장애인용 관람석,
17687,21808,노보텔 엠베스더 강남,37.506280656206656,127.02935147679716,서울특별시 강남구 봉은사로 134,일반숙박시설,216054,장애인용 관람석,
17695,21809,노블레스,37.561712605595865,127.06749771162872,서울특별시 동대문구 장한로2길 48,일반숙박시설,216064,장애인용 관람석,
17700,21810,노블레스관광호텔,37.6551928314844,127.05935034488756,서울특별시 노원구 노해로77길 22,일반숙박시설,216071,장애인용 관람석,
17708,21811,노블레스모텔,37.60917557132228,126.93019885529215,서울특별시 은평구 통일로65길 6,일반숙박시설,216082,장애인용 관람석,
17729,21818,노블레스 호텔(구 베니스모텔),37.50139543076221,127.03579126882856,서울특별시 강남구 테헤란로25길  6-13,일반숙박시설,216131,장애인용 관람석,
17750,21827,노블호텔,37.57667716184426,126.9896711318745,서울특별시 종로구 율곡로6길 13-3,일반숙박시설,216206,장애인용 관람석,
17759,21829,노스탈자호텔,37.55486445119392,126.85264494964252,서울특별시 강서구 화곡로 354-3,일반숙박시설,216221,장애인용 관람석,
17803,21842,노원문화예술회관,37.65023585990375,127.08026925498872,서울특별시 노원구 중계로 181,영화관/공연장,216371,장애인용 관람석,
17828,21855,노원제1장애인주간보호소,37.62924793057825,127.0596650314527,서울특별시 노원구 월계로 372,복지시설,216547,장애인용 관람석,
17899,21889,녹번종합사회복지관,37.60271099417693,126.9317812647442,서울특별시 은평구 은평로21길  14-26,복지시설,216856,장애인용 관람석,
17908,21891,녹스호텔,37.502698824341415,127.03974112249331,서울특별시 강남구 테헤란로37길 13-13,일반숙박시설,216891,장애인용 관람석,
17989,21924,뇌성마비복지관,37.574541425246814,126.81613246163393,서울특별시 강서구 방화대로45길  6,복지시설,217150,장애인용 관람석,
18008,21928,누모텔,37.510981484893996,127.08087544132972,서울특별시 송파구 올림픽로10길 8,일반숙박시설,217200,장애인용 관람석,
18023,21929,누야하우스,37.60564519156108,126.90634278387111,서울특별시 은평구 갈현로11길  34,복지시설,217207,장애인용 관람석,
18043,21935,뉴리젠트호텔,37.55412810039832,126.85173650252209,서울특별시 강서구 화곡로  342,일반숙박시설,217276,장애인용 관람석,
18062,21937,뉴비젼빌딩,37.58315289082178,127.0731914133896,서울특별시 동대문구 장안벚꽃로7길 5,복지시설,217294,장애인용 관람석,
18070,21939,뉴서울호텔,37.56799000258231,126.9781674629412,서울특별시 중구 세종대로22길 16,일반숙박시설,217325,장애인용 관람석,
18085,21945,뉴캐슬 모텔,37.637899392963284,127.02316270552664,서울특별시 강북구 노해로8길 1,일반숙박시설,217388,장애인용 관람석,
18093,21949,뉴티파니관광호텔,37.55977770045081,126.80818731137579,서울특별시 강서구 남부순환로  16,일반숙박시설,217416,장애인용 관람석,
18102,21951,뉴힐탑관광호텔,37.51111311580585,127.0314119051569,서울특별시 강남구 논현로 645,일반숙박시설,217435,장애인용 관람석,
18135,21959,늘편한집,37.649839127725855,127.08070849567379,서울특별시 노원구 중계로 163,복지시설,217501,장애인용 관람석,
18153,21964,늘푸른나무복지관,37.568536051157714,126.851119344796,서울특별시 강서구 허준로5길 37,복지시설,217548,장애인용 관람석,
18188,21977,능인종합사회복지관,37.47167750229508,127.0525939550434,서울특별시 강남구 양재대로 344,복지시설,217657,장애인용 관람석,
18234,22001,"다운복지관(1층,2층)",37.61894280874471,127.08031262372484,서울특별시 노원구 화랑로 478,복지시설,217847,장애인용 관람석,
18239,22004,다이나모텔,37.475205204561405,126.98088512561226,서울특별시 관악구 승방2길  31,일반숙박시설,217881,장애인용 관람석,
18275,22025,닷컴,37.5152374951721,127.1082939963578,서울특별시 송파구 오금로11길 11-15,일반숙박시설,218059,장애인용 관람석,
18393,22137,대방종합사회복지관,37.50992549768564,126.93042710651699,서울특별시 동작구 여의대방로44길 47,복지시설,218989,장애인용 관람석,
18546,22255,대청사회복지관(증축),37.48393815160635,127.07899653234749,서울특별시 강남구 광평로7길 17,복지시설,219921,장애인용 관람석,
18564,22260,대치동 KT&G,37.50658339307788,127.0653262973692,서울특별시 강남구 영동대로 416,영화관/공연장,219971,장애인용 관람석,
18581,22268,대학로CGV,37.583456691546466,126.99984149795456,서울특별시 종로구 대명길 28,영화관/공연장,220052,장애인용 관람석,
18594,22270,대학로스타시티빌딩,37.582058349057284,127.00041662615543,서울특별시 종로구 대학로11길 23,영화관/공연장,220076,장애인용 관람석,
18676,22320,더리버사이드호텔,37.51856901180078,127.01808524804515,서울특별시 서초구 강남대로107길 6,일반숙박시설,220481,장애인용 관람석,
18686,22324,더블유모텔,37.53785656498583,127.13896682512336,서울특별시 강동구 천중로44길 77,일반숙박시설,220512,장애인용 관람석,
18696,22338,더캘리포니아호텔,37.48545212733843,127.01457668643101,서울특별시 서초구 효령로55길  14,일반숙박시설,220645,장애인용 관람석,
18711,22342,더클래식544 노유자시설동,37.532340459462816,127.06676977458929,서울특별시 광진구 능동로 4,일반숙박시설,220670,장애인용 관람석,
18724,22345,더홀릭호텔,37.59593255394121,127.08894806991199,서울특별시 중랑구 망우로50길 22 (상봉동),일반숙박시설,220694,장애인용 관람석,
18887,22466,돌봄의 집,37.54526029862822,127.13800740968418,서울특별시 강동구 상암로28길 3-14,복지시설,221830,장애인용 관람석,
18929,22507,동대문종합사회복지관,37.58402116625186,127.03419594182556,서울특별시 동대문구 약령시로5길 22,복지시설,222253,장애인용 관람석,
18971,22532,동방사회복지회관(별관),37.571258848183824,126.91984274888206,서울특별시 서대문구 모래내로 173,복지시설,222473,장애인용 관람석,
19150,22686,동작이수종합사회복지관,37.49312014186384,126.97687755566365,서울특별시 동작구 동작대로35차길 7,복지시설,223816,장애인용 관람석,
19164,22687,동작종합사회복지관,37.505714122452034,126.93341680787148,서울특별시 동작구 등용로 47,복지시설,223839,장애인용 관람석,
19196,22702,동천의집,37.64451397788511,127.07292525022612,서울특별시 노원구 노원로18길 41,복지시설,223963,장애인용 관람석,
19218,22706,동해문화예술관,37.61982824130036,127.05759144242985,서울특별시 노원구 광운로 21,영화관/공연장,224003,장애인용 관람석,
19293,22777,드림텔호텔,37.553183425256,126.85139433767156,서울특별시 강서구 공항대로46길  66,일반숙박시설,224566,장애인용 관람석,
19325,22789,"등촌1,2단지 복지관",37.565385474725474,126.84225618100642,서울특별시 강서구 강서로68길  36,복지시설,224659,장애인용 관람석,
19340,22795,등촌4종합사회복지관,37.56188161033503,126.80991135278586,서울특별시 강서구 공항대로3길 5,복지시설,224745,장애인용 관람석,
19383,22814,디아망호텔,37.55976671198128,126.80807868700708,서울특별시 강서구 남부순환로 14,일반숙박시설,224929,장애인용 관람석,
19432,22838,라누이 아모르 모텔,37.49765595023511,127.03045182098198,서울특별시 강남구 테헤란로6길 14,일반숙박시설,225105,장애인용 관람석,
19440,22839,라마다 서울 호텔,37.51108686132628,127.04561352618065,서울특별시 강남구 봉은사로 414,일반숙박시설,225112,장애인용 관람석,
19449,22840,라마다호텔,37.56590167759849,127.00280256392492,서울특별시 중구 동호로 354,일반숙박시설,225125,장애인용 관람석,
19460,22853,라이프스타일,37.51710963554429,126.91094648881716,서울특별시 영등포구 경인로108길 6,일반숙박시설,225235,장애인용 관람석,
19468,22854,라이프스타일R호텔,37.51716087845786,126.91199613956104,서울특별시 영등포구 경인로108길 14,일반숙박시설,225240,장애인용 관람석,
19470,22856,라자 호텔,37.51540333348431,127.10823541733299,서울특별시 송파구 오금로11길 11-21,일반숙박시설,225258,장애인용 관람석,
19488,22858,라파엘의집,37.57883613347313,126.96978684910826,서울특별시 종로구 필운대로2길 16,복지시설,225273,장애인용 관람석,
19509,22875,랙싱턴호텔,37.53029008470089,126.92196830132187,서울특별시 영등포구 국회대로76길 16,일반숙박시설,225411,장애인용 관람석,
19528,22887,레이크관광호텔,37.50687183294708,127.10099375060535,서울특별시 송파구 석촌호수로 216,일반숙박시설,225507,장애인용 관람석,
19534,22889,레인보우호텔,37.541438133414665,126.97214193351007,서울특별시 용산구 한강대로71길 48,일반숙박시설,225526,장애인용 관람석,
19549,22893,렉서스모텔,37.51770451508866,126.9112353596125,서울특별시 영등포구 경인로 888,일반숙박시설,225556,장애인용 관람석,
19557,22895,렉스관광호텔,37.51436993508075,127.02053196324695,서울특별시 강남구 강남대로 588,일반숙박시설,225568,장애인용 관람석,
19570,22898,렉스모텔,37.53814559105536,127.13836541882624,서울특별시 강동구 천중로42길 68,일반숙박시설,225590,장애인용 관람석,
19572,22899,렉스빌모텔,37.5182338917165,126.91068724580073,서울특별시 영등포구 영중로4길  44,일반숙박시설,225595,장애인용 관람석,
19577,22901,렉시호텔,37.556608606934425,126.93769031178549,서울특별시 서대문구 연세로2가길 14,일반숙박시설,225608,장애인용 관람석,
19585,22909,로데오모텔,37.59385648767496,127.01726100982971,서울특별시 성북구 동소문로23길 7-4,일반숙박시설,225664,장애인용 관람석,
19597,22916,로미오모텔,37.485135240082606,127.01221578150476,서울특별시 서초구 효령로51길 17,일반숙박시설,225713,장애인용 관람석,
19600,22917,로보그라드모텔,37.511006824397505,127.08071259574746,서울특별시 송파구 백제고분로7길 15-14,일반숙박시설,225718,장애인용 관람석,
19629,22929,로즈마리,37.511268028156174,127.08343195942776,서울특별시 송파구 올림픽로12길 5-2,일반숙박시설,225796,장애인용 관람석,
19675,22947,롯데몰,37.56596788090347,126.80077792802679,서울특별시 강서구 하늘길  38,영화관/공연장,225925,장애인용 관람석,
19691,22948,롯데백화점,37.65527828182756,127.06139025733995,서울특별시 노원구 동일로 1414,영화관/공연장,225945,장애인용 관람석,
19701,22952,롯데백화점 영등포점,37.51566911683294,126.90766791705948,서울특별시 영등포구 경인로 846,영화관/공연장,225992,장애인용 관람석,
19720,22956,롯데시네마(씨네 일레븐 14관),37.536632041414045,127.12533738826764,서울특별시 강동구 천호옛길 85,영화관/공연장,226031,장애인용 관람석,
19735,22957,롯데시네마홍대관입구관,37.55724633358884,126.92498689996236,서울특별시 마포구 양화로  176,영화관/공연장,226050,장애인용 관람석,
19746,22960,롯데월드,37.51131078364221,127.09814039543262,서울특별시 송파구 올림픽로 244,영화관/공연장,226085,장애인용 관람석,
19760,22974,루이체,37.515315497476045,127.1096876572228,서울특별시 송파구 오금로11길 21-6,일반숙박시설,226203,장애인용 관람석,
19812,22998,리버파크,37.54854693254492,126.87818239805556,서울특별시 강서구 공항대로 653-34,일반숙박시설,226385,장애인용 관람석,
19827,23010,리젠트호텔,37.65381977005024,127.05161159331509,서울특별시 도봉구 마들로11길 29,일반숙박시설,226479,장애인용 관람석,
19848,23016,리츠칼튼 서울호텔,37.5057369080659,127.02744216509888,서울특별시 강남구 봉은사로 124,일반숙박시설,226520,장애인용 관람석,
19866,23034,릿츠호텔,37.654772107802266,127.0574597669852,서울특별시 노원구 노해로75길 24-7,일반숙박시설,226653,장애인용 관람석,
19895,23056,마리모텔,37.479190930114996,126.8887823521484,서울특별시 금천구 디지털로11길 12,일반숙박시설,226809,장애인용 관람석,
19923,23074,마음자리,37.54970612586629,126.84619567115324,서울특별시 강서구 화곡로53나길  53,복지시설,226955,장애인용 관람석,
19963,23108,마포복지종합지원센터,37.5559950297108,126.94304622446259,서울특별시 마포구 신촌로26길 14,복지시설,227283,장애인용 관람석,
19992,23114,마포장애인종합복지관,37.56544557817517,126.90080162637967,서울특별시 마포구 월드컵로 213,복지시설,227386,장애인용 관람석,
20007,23115,마포장애인주간보호(월드타운대림)(월드컵북로34길13),37.55758125670983,126.919151180836,서울특별시 마포구 월드컵북로34길  -22,복지시설,227408,장애인용 관람석,
20036,23132,맑음터단기보호센터,37.549196642392594,126.94049389365965,서울특별시 마포구 백범로 73-11,복지시설,227543,장애인용 관람석,
20063,23159,맥스모텔,37.51992152829705,126.90725544672176,서울특별시 영등포구 영중로14길  18,일반숙박시설,227803,장애인용 관람석,
20080,23163,맨하탄 호텔,37.502742010062505,127.03992661913296,서울특별시 강남구 테헤란로37길  13-11,일반숙박시설,227829,장애인용 관람석,
20088,23165,머큐어 서울 앰배서더 강남 쏘도베,37.501601039474615,127.03519424105166,서울특별시 강남구 테헤란로25길 14,일반숙박시설,227839,장애인용 관람석,
20111,23171,메가박스,37.60993102793067,127.03071499041259,서울특별시 강북구 도봉로 3,영화관/공연장,227892,장애인용 관람석,
20125,23172,메가박스 상봉점,37.59308085084436,127.07475012589887,서울특별시 중랑구 망우로30길 3 (상봉동),영화관/공연장,227912,장애인용 관람석,
20147,23177,메디아카데미,37.54255130105838,127.1400437101922,서울특별시 강동구 양재대로121길 25,복지시설,227958,장애인용 관람석,
20157,23184,메르디앙,37.55671687673067,126.93797542329287,서울특별시 서대문구 연세로2나길 13,일반숙박시설,228037,장애인용 관람석,
20174,23188,메사,37.56037503818132,126.9796002905616,서울특별시 중구 남대문시장10길 2,영화관/공연장,228068,장애인용 관람석,
20186,23189,메세나 폴리스,37.55150125484477,126.91395205031792,서울특별시 마포구 양화로 45,영화관/공연장,228088,장애인용 관람석,
20191,23190,메이관광호텔,37.59614080437496,127.08997649092682,서울특별시 중랑구 망우로52길 28,일반숙박시설,228106,장애인용 관람석,
20203,23194,메이져호텔(테마모텔),37.55349712881167,126.93539328001982,서울특별시 마포구 서강로18길 8,일반숙박시설,228129,장애인용 관람석,
20212,23198,메이필드호텔,37.547895182680065,126.81950678330452,서울특별시 강서구 방화대로94,일반숙박시설,228160,장애인용 관람석,
20227,23210,메트로21,37.47414203178401,126.98100296905069,서울특별시 관악구 승방2길 7,일반숙박시설,228247,장애인용 관람석,
20266,23248,명동센트럴빌딩,37.563849851243965,126.98322129724508,서울특별시 중구 명동길 16,일반숙박시설,228563,장애인용 관람석,
20320,23289,명작모텔,37.474949317753776,126.98088519078196,서울특별시 관악구 승방2길 25,일반숙박시설,228884,장애인용 관람석,
20362,23318,모텔CF,37.519559555079546,126.90988025778273,서울특별시 영등포구 영중로14길 41,일반숙박시설,229149,장애인용 관람석,
20369,23319,모텔 P.X,37.51754234826625,126.91125365026848,서울특별시 영등포구 경인로  888-4,일반숙박시설,229154,장애인용 관람석,
20372,23320,모텔리치,37.47872367116141,126.89013521229192,서울특별시 금천구 가산로 153,일반숙박시설,229159,장애인용 관람석,
20377,23321,모텔케슬,37.478481454105406,126.88933512241164,서울특별시 금천구 디지털로12길 5,일반숙박시설,229164,장애인용 관람석,
20390,23329,목동 CGV,37.527196793412344,126.87469197547888,서울특별시 양천구 목동동로 257,영화관/공연장,229257,장애인용 관람석,
20403,23330,목동 K.T,37.525843326684615,126.86954915301556,서울특별시 양천구 목동서로 241,영화관/공연장,229277,장애인용 관람석,
20440,23342,목동청소년수련관,37.530718761133116,126.87550066223238,서울특별시 양천구 목동서로 143,영화관/공연장,229412,장애인용 관람석,
20466,23357,몰디브모텔,37.51954527011404,126.91005221595884,서울특별시 영등포구 영중로14길 43,일반숙박시설,229560,장애인용 관람석,
20472,23361,몽호텔,37.56887083116287,126.9884814125715,서울특별시 종로구 종로16길 28,일반숙박시설,229579,장애인용 관람석,
20504,23396,문모텔,37.51597425070758,127.1105256625243,서울특별시 송파구 올림픽로34길 6,일반숙박시설,229874,장애인용 관람석,
20539,23429,미라지,37.596519595627726,127.08948324025404,서울특별시 중랑구 망우로52길 16,일반숙박시설,230177,장애인용 관람석,
20601,23470,미시간모텔,37.5621440496548,126.97665251026044,서울특별시 중구 세종대로 66,일반숙박시설,230494,장애인용 관람석,
20664,23511,밀라노,37.50341969375232,126.89145617166824,서울특별시 구로구 공원로8길 34-14,일반숙박시설,230800,장애인용 관람석,
20691,23520,바고관광호텔,37.54578286645106,127.12507660030292,서울특별시 강동구 천중로 27,일반숙박시설,230874,장애인용 관람석,
20708,23527,바론드파리,37.55651883763815,126.9383196393222,서울특별시 서대문구 연세로2나길  8,일반숙박시설,230933,장애인용 관람석,
20717,23534,바빌론관광호텔,37.515033620262926,127.0171025800996,서울특별시 서초구 나루터로 64,일반숙박시설,230995,장애인용 관람석,
20741,23539,바이올린모텔,37.47944307985517,126.95330226298807,서울특별시 관악구 남부순환로224길 31,일반숙박시설,231036,장애인용 관람석,
20743,23540,바카스 호텔(트윈스빌딩),37.50461115471311,127.05256276295229,서울특별시 강남구 테헤란로68길 11,일반숙박시설,231041,장애인용 관람석,
20759,23543,박정희 대통령 기념 도서관 ,37.57497943985517,126.88629448686527,서울특별시 마포구 월드컵로 386,도서관,231060,장애인용 관람석,
20866,23603,방아골복지관,37.66931261272068,127.0326391263692,서울특별시 도봉구 시루봉로17길 42,복지시설,231624,장애인용 관람석,
20898,23611,방이복지관,37.514644489531854,127.11418851918964,서울특별시 송파구 오금로11길 68,복지시설,231701,장애인용 관람석,
20928,23628,방화11종합복지관(별관),37.570718963971686,126.80572779900083,서울특별시 강서구 개화동로21길  4,복지시설,231906,장애인용 관람석,
21012,23693,백제산장,37.5482012588266,126.8474299690502,서울특별시 강서구 화곡로44가길 3,일반숙박시설,232515,장애인용 관람석,
21050,23729,베르사이유,37.50298753137399,126.89180512705305,서울특별시 구로구 새말로16길 62,일반숙박시설,232805,장애인용 관람석,
21066,23734,베스트웨스턴 호텔 강남호텔,37.50637785603889,127.0297858159252,서울특별시 강남구 봉은사로 139,일반숙박시설,232839,장애인용 관람석,
21075,23735,베스트웨스턴 호텔국도,37.56617915968971,126.99630096410387,서울특별시 중구 을지로 164,일반숙박시설,232851,장애인용 관람석,
21103,23746,벤허호텔,37.53036480000944,126.92051556466166,서울특별시 영등포구 국회대로72길 7,일반숙박시설,232933,장애인용 관람석,
21111,23750,벨라지오 관광호텔,37.6094469232038,126.93200615326448,서울특별시 은평구 진흥로 205,일반숙박시설,232960,장애인용 관람석,
21180,23802,보보스모텔,37.4795397858857,126.95180078234371,서울특별시 관악구 관악로13길 8,일반숙박시설,233364,장애인용 관람석,
21186,23803,보보호텔,37.55232598542507,126.91820171502756,서울특별시 마포구 양화로 94,일반숙박시설,233369,장애인용 관람석,
21239,23825,본동종합사회복지관,37.51309849808242,126.95595520770031,서울특별시 동작구 노량진로32길 7,복지시설,233541,장애인용 관람석,
21248,23832,볼륨모텔,37.4850692583994,126.93166676440552,서울특별시 관악구 신림로64길  34,일반숙박시설,233611,장애인용 관람석,
21352,23895,북부종합사회복지관,37.679706390307324,127.0524094511817,서울특별시 노원구 동일로245길 56,복지시설,234119,장애인용 관람석,
21382,23907,불광cgv,37.610771174669225,126.92861176442352,서울특별시 은평구 불광로  24,영화관/공연장,234237,장애인용 관람석,
21401,23919,붐관광호텔,37.5486305530924,126.81960912001034,서울특별시 강서구 남부순환로  188,일반숙박시설,234360,장애인용 관람석,
21411,23922,뷰티모텔,37.4739618831004,126.98133764375956,서울특별시 관악구 승방2길 2,일반숙박시설,234382,장애인용 관람석,
21419,23923,뷰티크모텔,37.55299076057101,126.85008648029293,서울특별시 강서구 우장산로 128,일반숙박시설,234389,장애인용 관람석,
21429,23925,브라운관광호텔,37.582279873248936,127.02130686801864,서울특별시 성북구 보문로  78,일반숙박시설,234408,장애인용 관람석,
21451,23934,브로드웨이시네마(1-5),37.516369910341155,127.02193965328378,서울특별시 강남구 도산대로8길 8,영화관/공연장,234481,장애인용 관람석,
21472,23944,블루모텔,37.51524372356318,127.10935726348323,서울특별시 송파구 오금로11길 21-1,일반숙박시설,234546,장애인용 관람석,
21482,23953,비발디,37.49223934642689,127.02946810547635,서울특별시 서초구 효령로79길 28,일반숙박시설,234620,장애인용 관람석,
21489,23955,비브호텔,37.568205865671395,127.06942784534279,서울특별시 동대문구 장한로 84,일반숙박시설,234632,장애인용 관람석,
21521,23972,비젼호텔,37.56445465384081,127.03591649305383,서울특별시 성동구 고산자로   277,일반숙박시설,234740,장애인용 관람석,
21538,23980,빅토리아호텔,37.61088601720936,127.03094189777508,서울특별시 강북구 도봉로 16,일반숙박시설,234798,장애인용 관람석,
21605,24025,사당종합사회복지관,37.482847476262585,126.97149888669121,서울특별시 동작구 사당로14길 24,복지시설,235149,장애인용 관람석,
21631,24030,사랑나눔주간보호,37.49691982086978,127.15258324978217,서울특별시 송파구 마천로51길 28,복지시설,235213,장애인용 관람석,
21666,24036,사랑손주간보호센터,37.4926011109021,126.96260721393257,서울특별시 동작구 사당로2길 32,복지시설,235278,장애인용 관람석,
21685,24044,사랑의복지관,37.50050421510755,127.02590222082449,서울특별시 서초구 강남대로65길  1,복지시설,235353,장애인용 관람석,
21732,24065,사회복지법인 한벗재단,37.53384107271477,126.95062992513256,서울특별시 용산구 효창원로6길 42-3,복지시설,235543,장애인용 관람석,
21746,24066,사회복지시설,37.54113965868448,127.14508310682376,서울특별시 강동구 천중로53길 7,복지시설,235564,장애인용 관람석,
21868,24170,삼성애니아트,37.49849836419981,126.94661824611583,서울특별시 동작구 양녕로22마길 77,복지시설,236375,장애인용 관람석,
22030,24312,상계종합복지관,37.668091017040965,127.07832536015448,서울특별시 노원구 덕릉로115나길 25,복지시설,237615,장애인용 관람석,
22045,24316,상금복지관,37.47372781474297,126.89741842168924,서울특별시 금천구 시흥대로141길 17,복지시설,237666,장애인용 관람석,
22069,24331,상도종합사회복지관,37.500138223984386,126.9209502154868,서울특별시 동작구 상도로3가길 7,복지시설,237826,장애인용 관람석,
22100,24358,상상라이브홀,37.55095841668293,126.92106405980402,서울특별시 마포구 어울마당로 65,영화관/공연장,238088,장애인용 관람석,
22211,24457,생명의전화종합사회복지관,37.604126836868076,127.03704537943935,서울특별시 성북구 오패산로 21,복지시설,238917,장애인용 관람석,
22229,24471,샬롬의집,37.55688483509514,126.81568693660984,서울특별시 강서구 방화대로7가길 11,복지시설,239023,장애인용 관람석,
22269,24495,서교동 관광호텔 ,37.55331454988785,126.91976238202065,서울특별시 마포구 양화로  112,일반숙박시설,239226,장애인용 관람석,
22297,24507,서대문구립이진아기념도서관,37.572953542907015,126.95554868603381,서울특별시 서대문구 독립문공원길 80,도서관,239358,장애인용 관람석,
22308,24512,서대문문화체육회관,37.580605254328255,126.93353130974691,서울특별시 서대문구 백련사길 3,영화관/공연장,239441,장애인용 관람석,
22335,24517,서대문장애인종합복지관(북아현동주민센터),37.55947159082256,126.95703708357377,서울특별시 서대문구 북아현로 24,복지시설,239515,장애인용 관람석,
22357,24525,서림장모텔,37.527019554544815,126.89633636841069,서울특별시 영등포구 당산로33길  3,일반숙박시설,239602,장애인용 관람석,
22457,24574,서울교육문화회관,37.46828596790833,127.03306699554705,서울특별시 서초구 바우뫼로12길 74,영화관/공연장,240194,장애인용 관람석,
22503,24591,서울노원지역자활센터,37.663726523222905,127.06684648280256,서울특별시 노원구 한글비석로47길 -3,복지시설,240418,장애인용 관람석,
22630,24653,서울로얄호텔,37.56438719118553,126.98586522226059,서울특별시 중구 명동길 61,영화관/공연장,241186,장애인용 관람석,
22691,24664,서울모자의집,37.498168158252795,126.82744309205404,서울특별시 구로구 오리로17길  77-14,복지시설,241319,장애인용 관람석,
22936,24751,서울시립 뇌성마비종합복지관,37.64244347787962,127.05658008579952,서울특별시 노원구 덕릉로70가길 96,복지시설,242291,장애인용 관람석,
22954,24754,서울시립북부장애인종합복지관,37.64253699263409,127.056969927077,서울특별시 노원구 덕릉로70가길 92,복지시설,242336,장애인용 관람석,
22969,24755,서울 시립상이군경복지관,37.64281777599706,127.05763637937977,서울특별시 노원구 덕릉로70가길 73,복지시설,242358,장애인용 관람석,
23187,24854, 서울장애인종합복지관,37.553820734094046,127.151906988264,서울특별시 강동구 고덕로 241,복지시설,243522,장애인용 관람석,
23244,24878,서울주요무형문화제전수회관,37.51136681725964,127.0485182781177,서울특별시 강남구 봉은사로 446,영화관/공연장,243792,장애인용 관람석,
23349,24914,서울특별시립강동청소년수련관,37.566477688916,127.17303128924776,서울특별시 강동구 아리수로93길 47,수련시설,244249,장애인용 관람석,
23357,24915,서울특별시립 노원청소년수련관,37.64147682710271,127.05821545844329,서울특별시 노원구 덕릉로70길 99,수련시설,244261,장애인용 관람석,
23478,24979,서초모텔,37.485106427301524,127.01202582397222,서울특별시 서초구 반포대로14길 14,일반숙박시설,244856,장애인용 관람석,
23648,25087,성가복지병원,37.59217301142522,127.03533649000708,서울특별시 성북구 종암로 11,복지시설,245781,장애인용 관람석,
23714,25136,성동문화회관,37.55931173695771,127.03600909480193,서울특별시 성동구 왕십리로  281,영화관/공연장,246280,장애인용 관람석,
23735,25143,성동장애인종합복지관,37.57072971002936,127.03415816902093,서울특별시 성동구 청계천로   516,복지시설,246366,장애인용 관람석,
23763,25154,성모자애복지관,37.470591011692854,127.1193079878192,서울특별시 강남구 헌릉로757길 35,복지시설,246452,장애인용 관람석,
23779,25157,성민복지관,37.655929913212475,127.06913320420664,서울특별시 노원구 노원로32길 34-3,복지시설,246486,장애인용 관람석,
23807,25174,성북구보훈회관,37.60497407683325,127.04636840312651,서울특별시 성북구 화랑로  134,복지시설,246642,장애인용 관람석,
23843,25186,성북시각장애인복지관,37.5955283953224,127.01940378389963,서울특별시 성북구 동소문로25가길  24,복지시설,246799,장애인용 관람석,
23882,25208,성산임대아파트 사회복지관 ,37.56515695114194,126.90043527997923,서울특별시 마포구 월드컵로  215,복지시설,247034,장애인용 관람석,
23909,25231,성수문화복지회관,37.54542892060686,127.04694707758443,서울특별시 성동구 뚝섬로1길 43,복지시설,247266,장애인용 관람석,
23990,25305,성프란치스꼬장애인종합복지관,37.48180191564522,126.89056486396768,서울특별시 구로구 남부순환로 105라길 25-10,복지시설,247896,장애인용 관람석,
24012,25319,세검정모텔,37.53433070123847,126.95867169533994,서울특별시 용산구 원효로 141,일반숙박시설,248020,장애인용 관람석,
24082,25382,세인트모텔,37.65451978864657,127.0575502313858,서울특별시 노원구 노해로75길 14-,일반숙박시설,248536,장애인용 관람석,
24102,25406,세종호텔,37.56144296564929,126.98794833515,서울특별시 중구 퇴계로 145,일반숙박시설,248733,장애인용 관람석,
24133,25420,센트럴시티,37.5039344562304,127.0024111972472,서울특별시 서초구 신반포로  176,영화관/공연장,248821,장애인용 관람석,
24196,25454,손승환내과,37.48108483146283,126.949208429582,서울특별시 관악구 관악로17길 46,일반숙박시설,249061,장애인용 관람석,
24211,25464,솔 모텔,37.51574040501664,127.11388252077411,서울특별시 송파구 오금로11길 55-16,일반숙박시설,249131,장애인용 관람석,
24226,25466,솔바람복지센터,37.53600740310847,127.11587298628555,서울특별시 송파구 풍성로5길 16,복지시설,249145,장애인용 관람석,
24381,25578,수서종합사회복지관,37.487979084583344,127.10563137733976,서울특별시 강남구 광평로56길 11,복지시설,250137,장애인용 관람석,
24436,25605,수유종합사회복지관,37.64256756576402,127.01683718170229,서울특별시 강북구 삼양로112길  5,복지시설,250401,장애인용 관람석,
24541,25661,쉐르빌호텔,37.515048981349004,127.10949271404793,서울특별시 송파구 오금로11길 21-,일반숙박시설,250909,장애인용 관람석,
24546,25662,쉴모텔,37.53883250087944,127.12682104945921,서울특별시 강동구 올림픽로70길 56-5,일반숙박시설,250914,장애인용 관람석,
24552,25663,쉴 모텔(구 페리온),37.516183985495694,127.1135845739304,서울특별시 송파구 위례성대로2길 7,일반숙박시설,250919,장애인용 관람석,
24556,25664,쉴호텔,37.569429631421386,126.990541466621,서울특별시 종로구 수표로18길  14,일반숙박시설,250924,장애인용 관람석,
24572,25671,스카이모텔,37.56922759223304,126.98814630278456,서울특별시 종로구 삼일대로  388-5,일반숙박시설,250973,장애인용 관람석,
24585,25691,스타빌딩,37.52036268610379,126.93036311902478,서울특별시 영등포구 여의대방로67길 18,일반숙박시설,251104,장애인용 관람석,
24598,25692,스타시티 영존,37.541063363302115,127.07086006197616,서울특별시 광진구 능동로 114,영화관/공연장,251111,장애인용 관람석,
24616,25695,스테이세븐프리미어호텔,37.528248987636154,126.92012863489585,서울특별시 영등포구 국회대로68길 24,일반숙박시설,251143,장애인용 관람석,
24636,25709,승가원,37.590077022223966,127.02982819761117,서울특별시 성북구 개운사길 76-1,복지시설,251237,장애인용 관람석,
24659,25720,시각장애인복지관,37.49838684086344,127.09360904036049,서울특별시 송파구 삼학사로1길 27,복지시설,251327,장애인용 관람석,
24682,25725,시네마호텔,37.593424078286034,127.01679892811285,서울특별시 성북구 아리랑로2길  11,일반숙박시설,251384,장애인용 관람석,
24720,25731,시립광진노인종합복지관 A동,37.55109644167493,127.07159835340424,서울특별시 광진구 군자로 88,복지시설,251431,장애인용 관람석,
24736,25733,시립노숙인복지시설 보현의집,37.52128419039926,126.91243020912836,서울특별시 영등포구 버드나루로 24,복지시설,251466,장애인용 관람석,
24756,25735,시립대종합사회복지관,37.609298609165,127.09490307049442,서울특별시 중랑구 신내로 115,복지시설,251496,장애인용 관람석,
24780,25742,시립서대문농아인복지관,37.570695972747174,126.913798664514,서울특별시 서대문구 수색로4가길 23,복지시설,251586,장애인용 관람석,
24807,25854,시안모텔,37.60014299407861,126.91740200235802,서울특별시 은평구 진흥로  16,일반숙박시설,252458,장애인용 관람석,
24918,25930,신내종합사회복지관,37.60581978854393,127.09160988237798,서울특별시 중랑구 봉화산로 153,복지시설,253135,장애인용 관람석,
25115,26153,신촌모텔(D모텔),37.5560716151265,126.93769528588106,서울특별시 서대문구 연세로2길 13,일반숙박시설,255163,장애인용 관람석,
25127,26154,신촌민자역사(메가박스),37.5589747524222,126.94145945501766,서울특별시 서대문구 신촌역로  34,영화관/공연장,255170,장애인용 관람석,
25192,26195,실로암시각장애인복지관,37.48294075103726,126.94110275358429,서울특별시 관악구 남부순환로 1717,복지시설,255528,장애인용 관람석,
25200,26197,실론 호텔,37.515031987823406,127.10837966471169,서울특별시 송파구 오금로11길 11-11,일반숙박시설,255562,장애인용 관람석,
25252,26213,싱글벙글교육센터 증축 및 리모델링공사,37.47645646848479,126.95627066164766,서울특별시 관악구 관악로10길 67,도서관,255685,장애인용 관람석,
25266,26219,싼타페호텔,37.51592438141984,127.10989667740256,서울특별시 송파구 오금로11길 23-18,일반숙박시설,255729,장애인용 관람석,
25295,26240,써튼호텔,37.568604335993854,126.99074984658421,서울특별시 종로구 청계천로 117,일반숙박시설,255934,장애인용 관람석,
25311,26251,쎄비앙,37.4963086044978,126.8457714914862,서울특별시 구로구 경인로22길  37,일반숙박시설,256020,장애인용 관람석,
25330,26255,씨네시티빌딩,37.52289661859363,127.03701422852512,서울특별시 강남구 도산대로 323,영화관/공연장,256051,장애인용 관람석,
25352,26261,씨에스타호텔,37.515359744823996,127.10860636417559,서울특별시 송파구 오금로11길  11-16,일반숙박시설,256111,장애인용 관람석,
25355,26262,씨에프모텔,37.5397309792352,127.12580875141914,서울특별시 강동구 구천면로24길 24-31,일반숙박시설,256116,장애인용 관람석,
25384,26287,아도카모텔,37.603360332722346,127.03321728798107,서울특별시 성북구 화랑로 7-27,일반숙박시설,256280,장애인용 관람석,
25407,26298,아로마모텔,37.519825616969094,126.90905190306154,서울특별시 영등포구 영중로14길  32-3,일반숙박시설,256362,장애인용 관람석,
25426,26303,아름다운교회사랑의집,37.63248648305026,127.02206437733852,서울특별시 강북구 도봉로71가길 27,복지시설,256391,장애인용 관람석,
25446,26309,아름뜰(홀트아동복지회),37.54920005176802,126.91638545592916,서울특별시 마포구 양화로8길  32-3,복지시설,256451,장애인용 관람석,
25456,26314,아마가호텔,37.572706027669284,126.99942494669077,서울특별시 종로구 종로31길 46-8,일반숙박시설,256498,장애인용 관람석,
25462,26316,아마레호텔,37.57141896534532,126.98977599979948,서울특별시 종로구 수표로22길  7,일반숙박시설,256511,장애인용 관람석,
25468,26318,아모렉스 관광호텔,37.56279031710285,127.03352071086559,서울특별시 성동구 왕십리로24길 1,일반숙박시설,256526,장애인용 관람석,
25473,26321,아비송모텔,37.53948609572682,127.1256318272838,서울특별시 강동구 구천면로24길 28,일반숙박시설,256548,장애인용 관람석,
25481,26322,아비숑,37.57221541756576,126.98946346243609,서울특별시 종로구 수표로26길  7,일반숙박시설,256553,장애인용 관람석,
25483,26323,아비숑 모텔,37.575519608158665,126.98367602230213,서울특별시 종로구 율곡로 37-2,일반숙박시설,256558,장애인용 관람석,
25526,26360,아이린호텔,37.56148111491171,126.97768041407629,서울특별시 중구 남대문로1길 8-1,일반숙박시설,256797,장애인용 관람석,
25583,26413,아카시아호텔,37.566496338001926,127.00267128571907,서울특별시 중구 동호로 364,일반숙박시설,257208,장애인용 관람석,
25597,26416,아테네,37.51598929074161,127.1136657207006,서울특별시 송파구 오금로11길 55-17,일반숙박시설,257226,장애인용 관람석,
25612,26418,아트레온,37.55840541474453,126.92853499410305,서울특별시 서대문구 신촌로  12,영화관/공연장,257241,장애인용 관람석,
25614,26420,아트호텔,37.486955204630796,127.0128944975659,서울특별시 서초구 효령로53길 53,일반숙박시설,257265,장애인용 관람석,
25669,26456,알리앙스,37.571289255495024,126.99016994422348,서울특별시 종로구 수표로22길  15,일반숙박시설,257571,장애인용 관람석,
25699,26466,암사 재활원,37.557968244483426,127.13144846416485,서울특별시 강동구 올림픽로 864,복지시설,257652,장애인용 관람석,
25711,26467,압구정CGV,37.52508966110562,127.03072089909469,서울특별시 강남구 압구정로34길  45,영화관/공연장,257674,장애인용 관람석,
25822,26537,양천구민회관,37.51651994177261,126.86333956388799,서울특별시 양천구 목동서로 367,영화관/공연장,258281,장애인용 관람석,
25846,26563,어거스트모텔,37.540047657099656,127.12625283153031,서울특별시 강동구 구천면로24길 13,일반숙박시설,258552,장애인용 관람석,
25907,26618,에덴장애인종합복지관,37.5011788522105,126.84124687039156,서울특별시 구로구 고척로21가길 84-35,복지시설,258972,장애인용 관람석,
25928,26627,에버그린하우스,37.615183661906784,126.91424569590326,서울특별시 은평구 연서로21길 27-14,복지시설,259051,장애인용 관람석,
25967,26643,에스호텔(갤러리모텔),37.55363390410986,126.93507175744956,서울특별시 마포구 서강로 128,일반숙박시설,259192,장애인용 관람석,
25985,26669,에펠준모텔,37.47934217160867,126.88864645788664,서울특별시 금천구 디지털로11길 14,일반숙박시설,259375,장애인용 관람석,
26034,26705,여성프라자,37.51161024945213,126.9272268735857,서울특별시 동작구 여의대방로54길 18,복지시설,259633,장애인용 관람석,
26050,26732,역삼모텔,37.501782419342405,127.04256342063887,서울특별시 강남구 언주로87길 6,일반숙박시설,259889,장애인용 관람석,
26096,26766,연세가양4종합복지관,37.56593156944718,126.8520707894286,서울특별시 강서구 양천로57길 37,복지시설,260183,장애인용 관람석,
26109,26771,연세대학교강서지역자활센타,37.530967347037155,126.85343867486813,서울특별시 강서구 곰달래로  184,복지시설,260259,장애인용 관람석,
26178,26841,열린여성센터,37.570482008897095,126.92226597746088,서울특별시 서대문구 홍제천로2길 66-14,복지시설,260910,장애인용 관람석,
26196,26847,열방교회사회복지관,37.51036082715669,126.84315021326874,서울특별시 양천구 신정로13길 11,복지시설,260964,장애인용 관람석,
26290,26938,영산문화재단,37.480484024671945,127.03841785614642,서울특별시 서초구 바우뫼로37길 45,영화관/공연장,261842,장애인용 관람석,
26369,26995,영화호텔,37.517518600646746,126.90847102437628,서울특별시 영등포구 영중로4길  ,일반숙박시설,262275,장애인용 관람석,
26485,27121,오렌지카운티,37.55587671427213,126.93715673995376,서울특별시 서대문구 연세로2길 4,일반숙박시설,263274,장애인용 관람석,
26513,27163,오아시스,37.48324909992364,126.90096467069904,서울특별시 구로구 디지털로32길 97-10,일반숙박시설,263624,장애인용 관람석,
26563,27219,올림픽공원,37.52034113915062,127.11551844445054,서울특별시 송파구 올림픽로 424,영화관/공연장,264079,장애인용 관람석,
26575,27226,올모텔,37.563647590223326,127.03515549730663,서울특별시 성동구 왕십리로22길 24,일반숙박시설,264144,장애인용 관람석,
26577,27231,와우호텔,37.51473337679194,127.10780914943048,서울특별시 송파구 오금로11길 7-14,일반숙박시설,264177,장애인용 관람석,
26598,27238,와이커키호텔(쇼호텔),37.53035223785693,126.8458688621669,서울특별시 강서구 곰달래로  116-1,일반숙박시설,264221,장애인용 관람석,
26606,27241,와이키키모텔,37.57411669125108,127.02225543550968,서울특별시 종로구 난계로29길 19-5,일반숙박시설,264236,장애인용 관람석,
26664,27272,용마문화복지센터,37.58700426419113,127.09518724840542,서울특별시 중랑구 용마산로 393 (면목동),복지시설,264527,장애인용 관람석,
26709,27296,용산문화원,37.53342351659932,126.95186116423416,서울특별시 용산구 효창원로8길  28,영화관/공연장,264790,장애인용 관람석,
26977,27507,월곡종합사회복지관,37.60890914248347,127.03751435901276,서울특별시 성북구 오패산로16길 23,복지시설,266534,장애인용 관람석,
27024,27530,웨스틴조선호텔 서울점,37.564483681788396,126.98018321530917,서울특별시 중구 소공로 106,일반숙박시설,266734,장애인용 관람석,
27060,27544,위드 자립생활센터,37.60680802070691,126.90935833499806,서울특별시 은평구 갈현로15길 11-13,복지시설,266852,장애인용 관람석,
27068,27545,위드호텔,37.55390086467766,126.93555589773148,서울특별시 마포구 서강로 134,일반숙박시설,266872,장애인용 관람석,
27075,27548,윈저모텔,37.56366945924804,127.03432246016622,서울특별시 성동구 왕십리로24길 14,일반숙박시설,266897,장애인용 관람석,
27082,27549,윈저텔,37.46525449890565,126.89717227494756,서울특별시 금천구 시흥대로 353,일반숙박시설,266902,장애인용 관람석,
27163,27590,유양호텔,37.55359727019975,126.91687849377425,서울특별시 마포구 잔다리로 67,일반숙박시설,267215,장애인용 관람석,
27207,27615,유타몰,37.59257350035878,127.01708860457896,서울특별시 성북구 동소문로 106,영화관/공연장,267400,장애인용 관람석,
27217,27618,유토피아,37.595669190820864,127.09395270849377,서울특별시 중랑구 상봉로26길 15,일반숙박시설,267435,장애인용 관람석,
27246,27632,윤당빌딩,37.52565466934934,127.03373034442323,서울특별시 강남구 언주로  844,영화관/공연장,267558,장애인용 관람석,
27338,27709,은하장여관,37.47115581543971,126.8989096233718,서울특별시 금천구 가산로 35,일반숙박시설,268198,장애인용 관람석,
27463,27803,이사벨모텔,37.486893885852716,127.01334676647123,서울특별시 서초구 효령로53길  52,일반숙박시설,269010,장애인용 관람석,
27523,27845,이젠호텔,37.55643657115681,126.93952841440263,서울특별시 서대문구 연세로2길 48,일반숙박시설,269319,장애인용 관람석,
27538,27853,이지호텔,37.55329404008532,126.85051591880837,서울특별시 강서구 화곡로  327,일반숙박시설,269389,장애인용 관람석,
27546,27862,이태원 IP호텔,37.535365060450786,126.9982304434218,서울특별시 용산구 이태원로 221,일반숙박시설,269501,장애인용 관람석,
27680,27962,일솔레MT(무림파크),37.52952102228533,126.84687520309143,서울특별시 강서구 강서로7길  12,일반숙박시설,270245,장애인용 관람석,
27715,27994,임스하우스,37.574962075235355,127.0032557149793,서울특별시 종로구 율곡로14길 24,일반숙박시설,270451,장애인용 관람석,
27739,28000,자양 3세대 종합복지센터,37.53289759581719,127.07523308742977,서울특별시 광진구 자양번영로 35,복지시설,270499,장애인용 관람석,
27782,28021,작은예수의집,37.62334744599632,126.9261393807284,서울특별시 은평구 연서로37길 21-5,복지시설,270744,장애인용 관람석,
27797,28022,잔디네집,37.560388421927684,126.91865467935726,서울특별시 마포구 월드컵북로8길  41,복지시설,270765,장애인용 관람석,
27822,28032,잠실관광호텔,37.50492160483204,127.08804830224688,서울특별시 송파구 삼전로 67,일반숙박시설,270898,장애인용 관람석,
27864,28066,장안종합복지관,37.567951852620475,127.06617220033043,서울특별시 동대문구 한천로18길  48,복지시설,271198,장애인용 관람석,
27878,28072,장애인사랑의쉼터의집,37.550367907036325,127.12435547520664,서울특별시 강동구 상암로7길 24,복지시설,271261,장애인용 관람석,
27894,28073,장애인전산교육장,37.48987837592232,126.88655929809906,서울특별시 구로구 구로동로26길 54,복지시설,271282,장애인용 관람석,
27908,28075,장애인주간보호시설,37.43525843377429,126.90641540220813,서울특별시 금천구 시흥대로2길 57,복지시설,271326,장애인용 관람석,
27963,28125,쟈스민,37.48530435190007,127.01465806629496,서울특별시 서초구 효령로55길 5,일반숙박시설,271769,장애인용 관람석,
28037,28188,정릉종합사회복지관,37.609307840329926,127.00476123686786,서울특별시 성북구 솔샘로5길  2,복지시설,272320,장애인용 관람석,
28296,28383,"주몽 학교,주몽재활원",37.55047667562073,127.12713048064495,서울특별시 강동구 상암로 36,복지시설,273917,장애인용 관람석,
28363,28426,중계종합사회복지관,37.65609213052153,127.07496737302755,서울특별시 노원구 덕릉로 662,복지시설,274266,장애인용 관람석,
28410,28460,중랑구립직업재활센터,37.61735834591804,127.08366362562721,서울특별시 중랑구 숙선옹주로9길 55 (묵동),복지시설,274688,장애인용 관람석,
28425,28464,중랑노인종합복지관,37.58843333651904,127.07784326623634,서울특별시 중랑구 겸재로9길 45 (면목동),복지시설,274749,장애인용 관람석,
28502,28520,중화문화복지센터,37.59501969440208,127.07489247448136,서울특별시 중랑구 중랑역로3길 28,복지시설,275357,장애인용 관람석,
28540,28546,지에스호텔,37.56895040714242,126.99196324117331,서울특별시 종로구 돈화문로 5-5,일반숙박시설,275601,장애인용 관람석,
28624,28617,참사랑너나울주간센터,37.64098042526975,127.02481335350059,서울특별시 강북구 한천로143길 3,복지시설,276144,장애인용 관람석,
28705,28681,창신 모자원,37.48985843949111,126.84111705028654,서울특별시 구로구 오류로8나길 28,복지시설,276733,장애인용 관람석,
28830,28805,청소년랜드,37.64821330621304,127.02583105275372,서울특별시 도봉구 노해로 144,복지시설,277713,장애인용 관람석,
28845,28806,청소년문화의집,37.65421670084514,127.02907870554549,서울특별시 도봉구 시루봉로2길 34,복지시설,277735,장애인용 관람석,
28859,28807,청소년문화회관,37.640738169163775,127.04065751021268,서울특별시 도봉구 덕릉로62길 8,복지시설,277757,장애인용 관람석,
28910,28840,청음회관,37.509660515785015,127.04336867118721,서울특별시 강남구 봉은사로54길 6,복지시설,278066,장애인용 관람석,
28963,28865,첼로가든,37.48621994497676,127.01322905497628,서울특별시 서초구 효령로53길 35,일반숙박시설,278278,장애인용 관람석,
28966,28866,첼로모텔,37.47898554719118,126.8888324020082,서울특별시 금천구 디지털로11길 5,일반숙박시설,278283,장애인용 관람석,
28995,28886,초코렛 호텔(구 베르사유 모텔),37.497238152496635,127.0293886480781,서울특별시 강남구 테헤란로2길 15,일반숙박시설,278422,장애인용 관람석,
28997,28887,초콜릿호텔,37.529340646506355,126.8467398112625,서울특별시 강서구 강서로5가길  24,일반숙박시설,278427,장애인용 관람석,
29039,28925,충현복지관,37.47400672167875,127.05027579224868,서울특별시 강남구 논현로8길 16,복지시설,278785,장애인용 관람석,
29059,28934,카라모텔,37.57370988257369,127.01977847683428,서울특별시 종로구 난계로29길 62,일반숙박시설,278864,장애인용 관람석,
29077,28945,칼튼모텔,37.52047228473142,126.90642219834831,서울특별시 영등포구 영중로14길  14,일반숙박시설,278942,장애인용 관람석,
29085,28946,칼튼호텔,37.554543459623694,126.85245545289158,서울특별시 강서구 화곡로  354-14,일반숙박시설,278949,장애인용 관람석,
29089,28949,캐피탈호텔,37.52856411526896,126.99310795405232,서울특별시 용산구 장문로 23,일반숙박시설,278973,장애인용 관람석,
29097,28950,캘리포니아관광호텔,37.494103905988936,127.11912826555708,서울특별시 송파구 송파대로28길 11,일반숙박시설,278979,장애인용 관람석,
29105,28951,캘리포니아호텔,37.50664792164599,127.05143771858684,서울특별시 강남구 선릉로100길 52,일반숙박시설,278989,장애인용 관람석,
29126,28969,코리아관광호텔,37.53422281397543,127.13351572798048,서울특별시 강동구 성안로 121,일반숙박시설,279089,장애인용 관람석,
29148,28978,코보스호텔,37.52968025834172,126.92084211809376,서울특별시 영등포구 국회대로72길 ,일반숙박시설,279158,장애인용 관람석,
29178,29008,큐브 호텔,37.56925643585085,126.9882640202324,서울특별시 종로구 삼일대로 388-7,일반숙박시설,279386,장애인용 관람석,
29185,29009,크라운관광호텔,37.53174986838762,126.99041046191596,서울특별시 용산구 녹사평대로  144,일반숙박시설,279393,장애인용 관람석,
29202,29020,크로싱호텔,37.52899873048843,126.84709801199732,서울특별시 강서구 곰달래로24길 36,일반숙박시설,279481,장애인용 관람석,
29219,29037,클릭호텔,37.561756209621905,126.98527716824164,서울특별시 중구 명동8가길 5,일반숙박시설,279586,장애인용 관람석,
29248,29060,타라호텔,37.50669458199032,127.0518765774668,서울특별시 강남구 선릉로100길 56,일반숙박시설,279745,장애인용 관람석,
29276,29072,타임스퀘어(CGV영등포),37.517233707169474,126.90371599319953,서울특별시 영등포구 영중로  15,영화관/공연장,279813,장애인용 관람석,
29286,29075,타임호텔,37.52970201013525,126.842001005714,서울특별시 강서구 월정로20길 60,일반숙박시설,279847,장애인용 관람석,
29303,29082,탑텔호텔,37.59141686382325,127.01536274839941,서울특별시 성북구 동소문로18길  24-24,일반숙박시설,279892,장애인용 관람석,
29384,29127,태화기독교사회복지관,37.4848286534059,127.09339764688215,서울특별시 강남구 광평로 185,복지시설,280247,장애인용 관람석,
29391,29128,태훈빌딩,37.56773597270606,126.99374274908294,서울특별시 중구 을지로15길 30,일반숙박시설,280268,장애인용 관람석,
29412,29134,테마모텔,37.452940401450135,126.90252813750799,서울특별시 금천구 시흥대로54길 33,일반숙박시설,280312,장애인용 관람석,
29431,29147,토요코인 서울동대문,37.56470484765881,127.0089644390788,서울특별시 중구 퇴계로 337,일반숙박시설,280407,장애인용 관람석,
29444,29153,톰지호텔,37.57237398131131,126.98933665725396,서울특별시 종로구 돈화문로11길 37,일반숙박시설,280450,장애인용 관람석,
29455,29165,투모텔,37.57211490121443,127.004210987012,서울특별시 종로구 종로35가길 7-3,일반숙박시설,280539,장애인용 관람석,
29461,29166,투비인관광호텔,37.53755785394993,127.13860872869637,서울특별시 강동구 천중로42길 75,일반숙박시설,280546,장애인용 관람석,
29485,29188,튼튼영어(유니북스 사옥),37.484288554654405,127.04231379470578,서울특별시 강남구 논현로  164,영화관/공연장,280741,장애인용 관람석,
29494,29190,티모텔,37.57125686508294,126.99073140697232,서울특별시 종로구 수표로22길  24-3,일반숙박시설,280763,장애인용 관람석,
29536,29203,파라오모텔,37.59049788859196,127.01507722894905,서울특별시 성북구 보문로  184,일반숙박시설,280863,장애인용 관람석,
29540,29207,파레스호텔,37.558616359490046,126.97999462999336,서울특별시 중구 퇴계로8길 13,일반숙박시설,280891,장애인용 관람석,
29566,29217,파브,37.48710644999925,127.01398452011124,서울특별시 서초구 효령로55길 51,일반숙박시설,280940,장애인용 관람석,
29601,29232,파크하얏트서울,37.50873196084404,127.0642831000689,서울특별시 강남구 테헤란로 606,일반숙박시설,281062,장애인용 관람석,
29617,29242,팰리스모텔,37.65488717620056,127.05798567946972,서울특별시 노원구 상계로 26,일반숙박시설,281143,장애인용 관람석,
29625,29244,팰리스호털,37.50144407512777,127.00247444856949,서울특별시 서초구 사평대로  164,일반숙박시설,281155,장애인용 관람석,
29642,29249,퍼시픽호텔,37.560758100743215,126.98693886745892,서울특별시 중구 퇴계로24길 2,일반숙박시설,281194,장애인용 관람석,
29674,29258,페트라호텔,37.51794154140142,126.91012653562241,서울특별시 영등포구 경인로 879,일반숙박시설,281258,장애인용 관람석,
29723,29286,평화종합사회복지관,37.646177365623295,127.06965899136732,서울특별시 노원구 노원로 331,복지시설,281449,장애인용 관람석,
29729,29289,포도모텔,37.484902911887545,126.93070358643429,서울특별시 관악구 신림로64길  16,일반숙박시설,281497,장애인용 관람석,
29767,29300,폼 모텔,37.511040116294375,127.07945036587776,서울특별시 송파구 백제고분로7길 7-13,일반숙박시설,281583,장애인용 관람석,
29813,29334,프란체스코의집,37.647252268628186,127.01952147940388,서울특별시 강북구 노해로23길 88-18,복지시설,281853,장애인용 관람석,
29821,29337,프레이저플레이스센트럴서울,37.56258217570571,126.96977530472992,서울특별시 중구 통일로 78,일반숙박시설,281892,장애인용 관람석,
29830,29338,프레지던트호텔,37.565633224291844,126.97943133739678,서울특별시 중구 을지로 16,일반숙박시설,281905,장애인용 관람석,
29838,29339,프렌드호텔,37.48686020806428,127.0217139264024,서울특별시 서초구 효령로 345,일반숙박시설,281918,장애인용 관람석,
29844,29340,프렌치MT,37.529022751452665,126.8407308200552,서울특별시 강서구 강서로7길  124,일반숙박시설,281928,장애인용 관람석,
29859,29343,프로비스타,37.49484726568385,127.0186268424658,서울특별시 서초구 서초대로 338,일반숙박시설,281943,장애인용 관람석,
29867,29348,프리마호텔(리치호텔),37.53770966188148,127.13823336344323,서울특별시 강동구 천중로42길  78,일반숙박시설,281981,장애인용 관람석,
29887,29355,프린스호텔,37.56072562577968,126.98659027459604,서울특별시 중구 퇴계로 134,일반숙박시설,282030,장애인용 관람석,
29901,29358,플라워모텔,37.54638682298477,126.84617533283287,서울특별시 강서구 화곡로42길  14,일반숙박시설,282061,장애인용 관람석,
29911,29361,플러스모텔,37.56613129566349,127.01589633620651,서울특별시 중구 다산로 259,일반숙박시설,282075,장애인용 관람석,
29922,29371,피아노모텔,37.495979169427656,126.84465038113682,서울특별시 구로구 경인로22길 17,일반숙박시설,282148,장애인용 관람석,
29936,29379,피카다리플러스,37.57102624835606,126.99122950203235,서울특별시 종로구 돈화문로5가길 1,영화관/공연장,282197,장애인용 관람석,
29940,29380,피카소 모텔,37.571278426795466,126.9899707183826,서울특별시 종로구 수표로22길 11,일반숙박시설,282214,장애인용 관람석,
29952,29388,필름모텔,37.51647661701556,127.11284751141777,서울특별시 송파구 백제고분로51길  23,일반숙박시설,282263,장애인용 관람석,
29954,29389,필름오스카모텔,37.51949494481671,126.91022421724888,서울특별시 영등포구 영중로14길 45,일반숙박시설,282268,장애인용 관람석,
29968,29390,필름포럼(빌딩),37.563776537733396,126.94409066661801,서울특별시 서대문구 성산로 527,영화관/공연장,282275,장애인용 관람석,
30102,29459,하상장애인복지관,37.49255430492796,127.07513380267449,서울특별시 강남구 개포로 613,복지시설,282826,장애인용 관람석,
30136,29500,하이해리엇,37.56126607811881,126.98536328312971,서울특별시 중구 퇴계로 123,영화관/공연장,283140,장애인용 관람석,
30151,29503,하트하트재단사옥,37.496937004755466,127.12575954295937,서울특별시 송파구 송이로23길 34,복지시설,283174,장애인용 관람석,
30321,29614,한국 시각장애인 복지관,37.55111217993112,127.16924768085251,서울특별시 강동구 구천면로 645,복지시설,284127,장애인용 관람석,
30473,29712,한빛효정,37.62948895668255,127.0161681118612,서울특별시 강북구 삼양로77길 38,복지시설,284926,장애인용 관람석,
30697,29860,해마을주간보호센터,37.49405188190481,127.07775877337164,서울특별시 강남구 개포로 617-8,복지시설,286091,장애인용 관람석,
30867,29992,현대파크모텔,37.60257238666869,127.04052348588276,서울특별시 성북구 화랑로 73,일반숙박시설,287162,장애인용 관람석,
31006,30020,개웅산공원 화장실,37.485145,126.847953,서울특별시 구로구 개봉동 산60-5,공중화장실,287375,장애인용 관람석,
31278,30061,숯내공원 화장실 화장실,37.497156,127.14693700000001,서울특별시 송파구 문정동 150-8,공중화장실,287725,장애인용 관람석,
31296,30064,올림픽공원-공급실 뒤(옥외화장실) 화장실,37.493312,127.12503600000001,서울특별시 송파구 오륜동 88-2,공중화장실,287736,장애인용 관람석,
31298,30065,올림픽공원-구립SOMA미술관 화장실,37.502416,127.12611499999998,서울특별시 송파구 오륜동 88-2,공중화장실,287741,장애인용 관람석,
31306,30066,올림픽공원-만남의광장(A2동) 화장실,37.515394,127.10744199999999,서울특별시 송파구 오륜동 88,공중화장실,287746,장애인용 관람석,
31315,30067,올림픽공원-프라자A동 화장실,37.493833,127.12048200000001,서울특별시 송파구 오륜동 88,공중화장실,287753,장애인용 관람석,
31330,30070,송파도서관(오금동 51) 화장실,37.51077,127.116514,서울특별시 송파구 오금동 51,공중화장실,287779,장애인용 관람석,
31338,30071,청소년 수련관 화장실,37.507065000000004,127.07988600000002,서울특별시 송파구 문정2동 150-8,공중화장실,287786,장애인용 관람석,
31357,30074,송파우체국 화장실,37.538261999999996,127.12283799999999,서울특별시 송파구 오금동 50-3,공중화장실,287821,장애인용 관람석,
31366,30075,송파나루(더다이닝) 화장실 화장실,37.512456,127.10506399999998,서울특별시 송파구 잠실동 47,공중화장실,287834,장애인용 관람석,
31374,30076,대한소방공제회빌딩 화장실,37.511477,127.08148,서울특별시 송파구 가락본동 98-3,공중화장실,287844,장애인용 관람석,
31383,30077,한국조세연구원빌딩 화장실,37.512144,127.08300700000001,서울특별시 송파구 가락본동 79-6,공중화장실,287851,장애인용 관람석,
31389,30078,국민연금본부회관 화장실,37.506762,127.105286,서울특별시 송파구 신천동 7-16,공중화장실,287861,장애인용 관람석,
31396,30079,경찰병원 화장실,37.501287,127.12703799999998,서울특별시 송파구 가락본동 58,공중화장실,287866,장애인용 관람석,
31400,30080,강동송파교육지원청 화장실,37.50137,127.108678,서울특별시 송파구 잠실2동 22-3,공중화장실,287871,장애인용 관람석,
31408,30081,송파구  공영차고지 화장실,37.495107,127.122426,서울특별시 송파구 장지동 42-1,공중화장실,287876,장애인용 관람석,
31413,30082,시설관리공단 화장실,37.5073,127.11663600000001,서울특별시 송파구 장지동 573-1,공중화장실,287881,장애인용 관람석,
31420,30083,마천119안전센터 화장실,37.49061,127.157521,서울특별시 송파구 마천2동 29-1,공중화장실,287886,장애인용 관람석,
31429,30084,거여119안전센터 화장실,37.508236,127.10388700000001,서울특별시 송파구 거여2동 307-11,공중화장실,287893,장애인용 관람석,
31440,30086,잠실119안전센터 화장실,37.492979,127.15016200000001,서울특별시 송파구 잠실3동 44-5,공중화장실,287906,장애인용 관람석,
31450,30088,가락119안전센터 화장실,37.506991,127.089909,서울특별시 송파구 가락1동 600,공중화장실,287914,장애인용 관람석,
31454,30089,서울초이스병원(임정애 메이저) 화장실,37.504757,127.08773799999999,서울특별시 송파구 풍납2동 496-5,공중화장실,287919,장애인용 관람석,
31464,30091,한국육영학교(특수) 화장실,37.497659999999996,127.125723,서울특별시 송파구 장지동 848-1,공중화장실,287927,장애인용 관람석,
31471,30092,한국체육대학교 화장실,37.504129999999996,127.107677,서울특별시 송파구 오륜동 88-15,공중화장실,287932,장애인용 관람석,
31481,30093,아시아선수촌A동상가 화장실,37.516312,127.10041299999999,서울특별시 송파구 잠실동 85-1,공중화장실,287939,장애인용 관람석,
31488,30094,잠실3동성당 화장실,37.489398,127.122831,서울특별시 송파구 잠실3동 27-2,공중화장실,287949,장애인용 관람석,
31498,30095,풍납백제문화공원 화장실,37.511469,127.08168899999998,서울특별시 송파구 풍납동 197,공중화장실,287956,장애인용 관람석,
31505,30096,송파관광정보센터 화장실,37.481813,127.13246299999999,서울특별시 송파구 신천동 32,공중화장실,287967,장애인용 관람석,
31510,30097,올림픽공원-테니스장 화장실,37.52467100000001,127.12196399999999,서울특별시 송파구 오륜동 88-2,공중화장실,287972,장애인용 관람석,
31517,30098,KT가락지점 화장실,37.512572,127.10819,서울특별시 송파구 가락본동 77-6,공중화장실,287979,장애인용 관람석,
31525,30099,송파나루(놀이마당) 화장실 화장실,37.53587,127.113731,서울특별시 송파구 잠실동 47,공중화장실,287989,장애인용 관람석,
31538,30101,잠실공원 화장실 화장실,37.508531,127.07691000000001,서울특별시 송파구 잠실본동 230,공중화장실,287997,장애인용 관람석,
31544,30102,방이공원 화장실 화장실,37.508540999999994,127.076715,서울특별시 송파구 방이동 52,공중화장실,288004,장애인용 관람석,
31554,30103,송이공원 화장실 화장실,37.520247,127.115553,서울특별시 송파구 송파동 169,공중화장실,288017,장애인용 관람석,
31570,30105,가락공원1(관리동) 화장실 화장실,37.494547,127.120977,서울특별시 송파구 가락동 37,공중화장실,288034,장애인용 관람석,
31577,30106,가락공원2 (족구장) 화장실 화장실,37.522698999999996,127.126848,서울특별시 송파구 가락동 37,공중화장실,288045,장애인용 관람석,
31786,30141,로데오 상점가-취약지역 화장실,37.493745000000004,127.144305,서울특별시 송파구 문정동 29-24,공중화장실,288288,장애인용 관람석,
31815,30144,학수(현충) 화장실,37.4926707943,126.966637299,서울특별시 동작구 사당동 산22-16,공중화장실,288330,장애인용 관람석,
31844,30147,동성빌딩 화장실,37.53595,127.116069,서울특별시 송파구 방이동 64-1,공중화장실,288370,장애인용 관람석,
32166,30189,트레져오일몽촌주유소 화장실,37.510334,127.101129,서울특별시 송파구 방이동 107-8,공중화장실,288793,장애인용 관람석,
32489,30239,가락종합사회복지관 화장실,37.51894,127.115517,서울특별시 송파구 가락동 481-2,공중화장실,289178,장애인용 관람석,
32912,30305,올림픽공원-수영장(옥외화장실) 화장실,37.49355,127.146817,서울특별시 송파구 오륜동 88-2,공중화장실,289709,장애인용 관람석,
33388,30377,금천체육공원화장실 화장실,37.467762,126.90966,서울특별시 금천구 독산동 산198-3,공중화장실,290307,장애인용 관람석,
