,place_id,place_name,lat,lng,place_address,category,facility_id,facility_available_name,facility_is_available
14516,20044,ACE에비뉴빌딩(ACE침대 서울지점),37.5201737570732,127.03085010278649,서울특별시 강남구 도산대로 218,전시장,200314,경보 및 피난설비,
14570,20073,CGV,37.5284437241851,127.12535988866115,서울특별시 강동구 성내로 48,영화관/공연장,200521,경보 및 피난설비,
14583,20074,CGV구로14,37.50115888382457,126.88277403171672,서울특별시 구로구 구로중앙로 152,영화관/공연장,200540,경보 및 피난설비,
14597,20075,CGV상암14,37.5635262478331,126.89843632998341,서울특별시 마포구 월드컵로 244,영화관/공연장,200559,경보 및 피난설비,
14606,20076,CGV용산 11,37.5297699998206,126.96474274881271,서울특별시 용산구 한강대로23길 55,영화관/공연장,200568,경보 및 피난설비,
14642,20092,Ditto HOTEL,37.55829388925655,126.94204851146051,서울특별시 서대문구 연세로2마길  24,일반숙박시설,200680,경보 및 피난설비,
14657,20099,EBM 통합의학,37.474683916185064,127.05112639279658,서울특별시 강남구 논현로8길 28,종합병원,200733,경보 및 피난설비,
14697,20114,FIRASER SUITES,37.57312329979733,126.98633448373072,서울특별시 종로구 인사동4길 1,일반숙박시설,200849,경보 및 피난설비,
14731,20121,GMF빌딩,37.53024664616337,127.12102303957626,서울특별시 강동구 올림픽로  546,종합병원,200908,경보 및 피난설비,
14812,20171,JJ호텔,37.56177185763962,127.05770517993437,서울특별시 성동구 자동차시장1길 2,일반숙박시설,201255,경보 및 피난설비,
14849,20194,KBS방송국 서울별관,37.518711488257054,126.92941898842821,서울특별시 영등포구 여의대방로 359,영화관/공연장,201428,경보 및 피난설비,
14868,20199,KGIT강서센터(한독미디어),37.55785463072355,126.84889969671976,서울특별시 강서구 화곡로61길 ,학교,201468,경보 및 피난설비,
14870,20201,KH바텍사옥,37.48223033295346,127.01273992010954,서울특별시 서초구 반포대로 18,영화관/공연장,201499,경보 및 피난설비,
14898,20222,KT광화문빌딩,37.57214892697915,126.97779042950377,서울특별시 종로구 세종대로 178,전시장,201655,경보 및 피난설비,
14990,20289,MIND관광호텔,37.47887940692706,126.89095804457516,서울특별시 금천구 남부순환로 1262,일반숙박시설,202128,경보 및 피난설비,
15139,20366,THE TRINITY PLACE,37.5269276919481,127.04240574538971,서울특별시 강남구 압구정로 416,전시장,202643,경보 및 피난설비,
15168,20378,VERTIGO빌딩,37.55634170573935,126.93730121307377,서울특별시 서대문구 연세로 8-1,영화관/공연장,202723,경보 및 피난설비,
15290,20429,㈜에니웍스,37.5836476795585,127.00231413577556,서울특별시 종로구 동숭길 144,영화관/공연장,203058,경보 및 피난설비,
15302,20430,㈜연합충무,37.51881599952303,126.90387685002165,서울특별시 영등포구 영등포로36길  13,종합병원,203073,경보 및 피난설비,
15361,20450,가나안의집,37.54459718097464,127.13799260844502,서울특별시 강동구 천중로35길 73-7,복지시설,203209,경보 및 피난설비,
15375,20455,가든5  (Tool관이마트),37.478617405851686,127.11910819954092,서울특별시 송파구 충민로 14,영화관/공연장,203251,경보 및 피난설비,
15387,20461,가락1동주민센터,37.50035116792125,127.11016788375956,서울특별시 송파구 송파대로 345,지역자치센터,203315,경보 및 피난설비,
15393,20465,가락관광호텔,37.493852016172646,127.1187388692868,서울특별시 송파구 송파대로28길 5,일반숙박시설,203354,경보 및 피난설비,
15406,20478,가브리엘의집,37.550762417383105,126.97550629168234,서울특별시 용산구 후암로35길 22-23,복지시설,203491,경보 및 피난설비,
15425,20485,가야금어린이공원,37.52006344444976,127.10408838763014,서울특별시 송파구 오금로 21,공원,203554,경보 및 피난설비,
15432,20487,가야호텔,37.54083991216595,126.97232319812241,서울특별시 용산구 한강대로 253,일반숙박시설,203562,경보 및 피난설비,
15456,20505,가재울근린공원,37.64872330040943,127.06696901126035,서울특별시 노원구 덕릉로 541,공원,203747,경보 및 피난설비,
15477,20513,가톨릭대학교 성신교정,37.58490178849815,127.004768739433,서울특별시 종로구 창경궁로 296-12,학교,203809,경보 및 피난설비,
15490,20520,간데메공원,37.57397635736325,127.04631295265764,서울특별시 동대문구 서울시립대로2길 5,공원,203895,경보 및 피난설비,
15492,20523,갈말근린공원,37.6664944546174,127.052345755763,서울특별시 노원구 동일로227길 85,공원,203915,경보 및 피난설비,
15498,20528,갈울근린공원,37.66682183816853,127.06103706879075,서울특별시 노원구 상계동 644,공원,203943,경보 및 피난설비,
15504,20531,갈월동 종합사회복지관,37.5457743450545,126.97482444506555,서울특별시 용산구 두텁바위로 25,복지시설,203976,경보 및 피난설비,
15526,20537,감리교신학대학교,37.56791739474362,126.9618904430341,서울특별시 서대문구 독립문로 56,학교,204041,경보 및 피난설비,
15529,20541,갑을복지재단 재활센터,37.477704626550576,126.91785350660135,서울특별시 관악구 난우16길 13-7,복지시설,204096,경보 및 피난설비,
15555,20556,강남구 직업재활센터,37.48284587857757,127.07937075395105,서울특별시 강남구 광평로64길 22,복지시설,204253,경보 및 피난설비,
15579,20565,강남성모병원 ,37.502391813696256,127.00586275297856,서울특별시 서초구 반포대로  222,종합병원,204362,경보 및 피난설비,
15594,20573,강남스포츠문화센터,37.488992130621185,127.10528001613348,서울특별시 강남구 밤고개로1길  52,보건소,204476,경보 및 피난설비,
15612,20582,강남장애인복지관,37.49471831292079,127.0834994877244,서울특별시 강남구 개포로 645,복지시설,204579,경보 및 피난설비,
15631,20585,강남종합사회복지관,37.49198231160321,127.07346872881212,서울특별시 강남구 개포로 605,복지시설,204618,경보 및 피난설비,
15669,20599,강동경희대학교병원,37.55316900838627,127.1569620924066,서울특별시 강동구 동남로 892,종합병원,204766,경보 및 피난설비,
15695,20611,강동미르사랑 데이케어센터,37.5351413199334,127.1461259743747,서울특별시 강동구 천호대로 1214,복지시설,204952,경보 및 피난설비,
15709,20612,강동미즈문화센터,37.5381321156947,127.12794228262275,서울특별시 강동구 천호대로159길 14,종합병원,204962,경보 및 피난설비,
15757,20647,강북구립보호작업장,37.61633878840478,127.03098946337694,서울특별시 강북구 오현로 1-,복지시설,205301,경보 및 피난설비,
15782,20656,강북문화예술화관,37.64098942633013,127.01387735123377,서울특별시 강북구 삼각산로 85,영화관/공연장,205412,경보 및 피난설비,
15811,20666,강북우리들병원,37.642544972468045,127.02263387878992,서울특별시 강북구 한천로 1083,종합병원,205510,경보 및 피난설비,
15821,20670,강북장애인복지관,37.61636736511229,127.03194543709392,서울특별시 강북구 오현로 18,복지시설,205556,경보 및 피난설비,
15833,20671,강북제일교회사회복지시설,37.62800238404007,127.02595546516173,서울특별시 강북구 도봉로 214,복지시설,205579,경보 및 피난설비,
15872,20688,강서구보건소 화곡보건분소,37.53546719917196,126.84109727614859,서울특별시 강서구 월정로30길 96,보건소,205749,경보 및 피난설비,
15928,20743,개미어린이공원,37.492198733208255,127.14674787933008,서울특별시 송파구 오금로62길 13-3,공원,206329,경보 및 피난설비,
15945,20763,개포고등학교,37.48495875558483,127.05940537038772,서울특별시 강남구 개포로 402,학교,206542,경보 및 피난설비,
15947,20764,개포까치공원,37.48370379491757,127.0608923126568,서울특별시 강남구 선릉로12길 12,공원,206553,경보 및 피난설비,
15949,20766,개포동공원,37.489707670707546,127.06829223105116,서울특별시 강남구 개포로 509,공원,206568,경보 및 피난설비,
15984,20781,갤러리 현대,37.5276831195916,127.03579024914268,서울특별시 강남구 언주로172길 23,전시장,206674,경보 및 피난설비,
16022,20797,거여공원,37.497045945054325,127.14099454847721,서울특별시 송파구 오금로51길 24,공원,206795,경보 및 피난설비,
16024,20799,거여어린이공원,37.516739345798655,127.10544114839064,서울특별시 송파구 오금로 53-1,공원,206811,경보 및 피난설비,
16067,20828,경기대학교,37.565196493810745,126.96222233842104,서울특별시 서대문구 경기대로9길 24,학교,207082,경보 및 피난설비,
16080,20833,경남관광호텔,37.57057635236377,127.07099668143776,서울특별시 동대문구 장한로 114,일반숙박시설,207136,경보 및 피난설비,
16093,20838,경동고등학교,37.586601870890895,127.01603202418772,서울특별시 성북구 보문로29길 49,학교,207178,경보 및 피난설비,
16118,20868,경영관,37.5421911416662,127.07131374250031,서울특별시 광진구 능동로 124,학교,207434,경보 및 피난설비,
16147,20887,경찰박물관,37.569011654833886,126.96966404077531,서울특별시 종로구 새문안로 41,전시장,207598,경보 및 피난설비,
16166,20898,경희대학교우체국,37.59109845709271,127.03719743902364,서울특별시 동대문구 회기로 1,우체국,207700,경보 및 피난설비,
16180,20911,고덕1동 주민센터,37.557338443456544,127.15173757426365,서울특별시 강동구 고덕로61길 61,지역자치센터,207812,경보 및 피난설비,
16192,20919,고려대라이시움,37.58870342243334,127.03169810479416,서울특별시 성북구 안암로 148,학교,207919,경보 및 피난설비,
16201,20926,고려수요양병원 금천점,37.48003154933968,126.90643195129049,서울특별시 금천구 남부순환로 1400,종합병원,207995,경보 및 피난설비,
16236,20960,골든시네마,37.47744337707189,126.98128703356329,서울특별시 동작구 동작대로 8,영화관/공연장,208311,경보 및 피난설비,
16249,20965,골마을근린공원,37.63947177256683,127.07340524833552,서울특별시 노원구 노원로 247,공원,208352,경보 및 피난설비,
16255,20971,곰말어린이공원,37.499761581997596,127.10042777462832,서울특별시 송파구 가락로3길 11,공원,208389,경보 및 피난설비,
16270,20981,공덕동자치회관,37.54222951467874,126.95548998908842,서울특별시 마포구 백범로 227,지역자치센터,208463,경보 및 피난설비,
16271,20990,공릉동근린공원,37.623590150996215,127.0775446131323,서울특별시 노원구 동일로182길 63-1,공원,208574,경보 및 피난설비,
16274,20991,공릉종합사회복지관,37.62958831565961,127.06985648241071,서울특별시 노원구 동일로 1127,복지시설,208592,경보 및 피난설비,
16297,20995,공아트스페이스,37.57275918057432,126.98535650615256,서울특별시 종로구 인사동5길  14,전시장,208634,경보 및 피난설비,
16325,21026,과학체험공원,37.52848843099618,126.9700198570212,서울특별시 용산구 한강대로38길 38,공원,208879,경보 및 피난설비,
16333,21027,관광숙박시설,37.55466853656621,126.93559597865871,서울특별시 마포구 서강로  137,일반숙박시설,208884,경보 및 피난설비,
16342,21029,관광숙박시설(더엠호텔),37.56414716134401,126.91328555305857,서울특별시 마포구 월드컵북로 124,일반숙박시설,208910,경보 및 피난설비,
16398,21067,관훈동 관광숙박시설,37.57258243790213,126.9842109640222,서울특별시 종로구 인사동5길 38,일반숙박시설,209264,경보 및 피난설비,
16429,21089,광야홈리스센터,37.5162599,126.90519010000004,서울특별시 영등포구 영등포4가 423-37,복지시설,209460,경보 및 피난설비,
16477,21115,광진구 공연장,37.546422028385436,127.10928510725678,서울특별시 광진구 구천면로 24,영화관/공연장,209707,경보 및 피난설비,
16503,21129,광진종합문화센터,37.53651137862957,127.09648076709179,서울특별시 광진구 광나루로56길 67,영화관/공연장,209889,경보 및 피난설비,
16520,21132,광진타워빌딩,37.54651303783713,127.08644506456685,서울특별시 광진구 자양로 215,종합병원,209928,경보 및 피난설비,
16533,21147,교남소망의집,37.54796965087783,126.85235072276943,서울특별시 강서구 까치산로22길 38,복지시설,210093,경보 및 피난설비,
16565,21155,교육관,37.54296419099017,127.09443419719764,서울특별시 광진구 워커힐로 3,복지시설,210181,경보 및 피난설비,
16632,21188,교통정보센터,37.53962029304504,127.04431384285505,서울특별시 성동구 왕십리로 28,경찰서,210467,경보 및 피난설비,
16646,21222,구로종합사회복지관,37.48682257702298,126.89082890797512,서울특별시 구로구 디지털로31길 93,복지시설,210892,경보 및 피난설비,
16665,21225,구로호텔,37.4831824420615,126.8988572415558,서울특별시 구로구 디지털로32길 72,일반숙박시설,210927,경보 및 피난설비,
16674,21227,구룡산,37.476066978774575,127.06728494581458,서울특별시 강남구 양재대로 478,공원,210945,경보 및 피난설비,
16741,21254,구립용산장애인복지관,37.53368613841085,126.95072053962977,서울특별시 용산구 효창원로3길 51,복지시설,211177,경보 및 피난설비,
16771,21261,구립장애인보호작업시설,37.489727219184644,126.82478039574607,서울특별시 구로구 경인로 21,복지시설,211247,경보 및 피난설비,
16781,21262,구립장애인보호작업장,37.51198095762709,126.93244303956894,서울특별시 동작구 등용로12길 57,복지시설,211269,경보 및 피난설비,
16819,21281,구세군144주년기념빌딩,37.5651938759843,126.96544140920116,서울특별시 서대문구 충정로 71-5,영화관/공연장,211450,경보 및 피난설비,
16828,21282,구세군강북사회종합복지관,37.6256799328332,127.0133941983791,서울특별시 강북구 인수봉로20가길 24,복지시설,211473,경보 및 피난설비,
16848,21283,구세군자활주거복지센터,37.59336500510857,127.09551239550972,서울특별시 중랑구 봉우재로58길 24,복지시설,211495,경보 및 피난설비,
16860,21288,구의공원,37.534538240137095,127.09418371115775,서울특별시 광진구 강변역로 54,공중화장실,211549,경보 및 피난설비,
16899,21312,국립중앙박물관,37.52114205486601,126.98052047377905,서울특별시 용산구 서빙고로 135,전시장,211805,경보 및 피난설비,
16953,21368,군자동극장,37.53408430699921,127.0676312012205,서울특별시 광진구 능동로  28,영화관/공연장,212422,경보 및 피난설비,
16966,21371,굴레방 마을마당,37.55841593236006,126.95789784128594,서울특별시 서대문구 북아현로4라길 22-6,공원,212457,경보 및 피난설비,
16982,21377,굿타임호텔,37.55681628993303,126.94212208803258,서울특별시 서대문구 신촌로 145,일반숙박시설,212507,경보 및 피난설비,
16994,21379,궁동종합사회복지관,37.49913350853486,126.82956240498748,서울특별시 구로구 오리로22길 5,복지시설,212539,경보 및 피난설비,
17011,21384,궁터길마을마당,37.61933911790848,127.02293040604994,서울특별시 강북구 솔샘로53길 1,공원,212572,경보 및 피난설비,
17131,21483,금빛 공원,37.45266802619669,126.90440459439438,서울특별시 금천구 금하로 668,공원,213187,경보 및 피난설비,
17169,21516,금천체육공원,37.46831286136582,126.90853557217295,서울특별시 금천구 독산로54길 102-27,공원,213517,경보 및 피난설비,
17187,21520,금호1가보건분소,37.55300419463702,127.02403723653543,서울특별시 성동구 금호로  114,보건소,213556,경보 및 피난설비,
17195,21523,금호4가동주민센터,37.54716865205317,127.0271586017403,서울특별시 성동구 독서당로52가길  2,지역자치센터,213599,경보 및 피난설비,
17198,21525,금호공원체육관,37.54924261819308,127.01853173279082,서울특별시 성동구 장터1길  18,공중화장실,213617,경보 및 피난설비,
17217,21542,급식동,37.55302155799261,127.08684188518644,서울특별시 광진구 능동로34길 143,학교,213772,경보 및 피난설비,
17233,21551,기쁜우리복지관,37.56930782505573,126.8486954521885,서울특별시 강서구 허준로  65,복지시설,213840,경보 및 피난설비,
17261,21561,기업은행(6층 병원),37.66548951664893,127.04193588418718,서울특별시 도봉구 도봉로 683,종합병원,213946,경보 및 피난설비,
17295,21570,길2치안센터,37.540199327871186,127.14773805177354,서울특별시 강동구 천호대로197길 96,경찰서,213995,경보 및 피난설비,
17302,21574,길동 주민센터,37.521934357141006,127.13872914296526,서울특별시 강동구 명일로 22-1,지역자치센터,214030,경보 및 피난설비,
17325,21590,길음종합사회복지관,37.608815196546814,127.02478001302087,서울특별시 성북구 삼양로8가길  32,복지시설,214185,경보 및 피난설비,
17378,21613,까치산시장 고객만족센터 및 주차장,37.531529727242024,126.84786217766523,서울특별시 강서구 강서로12길  14,지역자치센터,214383,경보 및 피난설비,
17380,21615,까치어린이공원,37.479964350355424,126.95950663908995,서울특별시 관악구 행운4길 2,공원,214404,경보 및 피난설비,
17382,21616,까치어린이공원(지하주차장),37.58350754614717,127.08696785855277,서울특별시 중랑구 사가정로49길 56,공원,214407,경보 및 피난설비,
17398,21639,꿈나무어린이공원,37.51217021297269,127.10858364512251,서울특별시 송파구 오금로 117-1,공원,214573,경보 및 피난설비,
17404,21645,꿈돌이공원(화장실)-(새길상세주소누락),37.54624626174557,126.84617109528816,서울특별시 강서구 화곡로42가길 1,공중화장실,214617,경보 및 피난설비,
17411,21657,꿈자람터?장애인주간보호센터,37.56024040629791,126.85169270104666,서울특별시 강서구 공항대로43길 104,복지시설,214723,경보 및 피난설비,
17439,21667,나눔아트센터,37.63642373050545,127.07764405340069,서울특별시 노원구 공릉로58마길 27,복지시설,214818,경보 및 피난설비,
17465,21681,나은빌딩,37.57857055589151,127.0387308392912,서울특별시 동대문구 왕산로 137,종합병원,214921,경보 및 피난설비,
17477,21683,나이아가라관광호텔,37.549185294961816,126.87862496135864,서울특별시 강서구 양천로 743,일반숙박시설,214937,경보 및 피난설비,
17485,21685,나인트리호텔,37.56857825020632,126.98302554431255,서울특별시 중구 명동14길 55,일반숙박시설,214957,경보 및 피난설비,
17502,21691,낙산제빌딩,37.58081491141709,127.00398052499972,서울특별시 종로구 대학로12길 73,영화관/공연장,215023,경보 및 피난설비,
17520,21701,난우어린이공원,37.48040128289675,126.91396581144144,서울특별시 관악구 난곡로61길 1,공원,215136,경보 및 피난설비,
17550,21723,남부어린이공원,37.48491068969199,126.92018383971613,서울특별시 관악구 남부순환로163가길 24,공원,215337,경보 및 피난설비,
17578,21739,남서울 중학교,37.48213615704633,126.92103702238043,서울특별시 관악구 난곡로64길 106,학교,215473,경보 및 피난설비,
17623,21767,내발산동 사회복지시설,37.557281236580884,126.84309718791616,서울특별시 강서구 강서로52길  88,복지시설,215704,경보 및 피난설비,
17635,21772,넓은들공원,37.51143264033747,126.84151470886484,서울특별시 양천구 남부순환로88길  1,공원,215747,경보 및 피난설비,
17660,21786,노곡중학교,37.64880214566842,127.05374297275465,서울특별시 도봉구 노해로70길 95,학교,215847,경보 및 피난설비,
17689,21808,노보텔 엠베스더 강남,37.506280656206656,127.02935147679716,서울특별시 강남구 봉은사로 134,일반숙박시설,216052,경보 및 피난설비,
17702,21810,노블레스관광호텔,37.6551928314844,127.05935034488756,서울특별시 노원구 노해로77길 22,일반숙박시설,216069,경보 및 피난설비,
17761,21829,노스탈자호텔,37.55486445119392,126.85264494964252,서울특별시 강서구 화곡로 354-3,일반숙박시설,216219,경보 및 피난설비,
17778,21835,노원경찰서 상계8치안센터,37.6668443149235,127.05171128471216,서울특별시 노원구 동일로227길 95,경찰서,216277,경보 및 피난설비,
17788,21836,노원경찰서 중계본동치안센터,37.64763734319077,127.08038883650349,서울특별시 노원구 중계로 139,지역자치센터,216289,경보 및 피난설비,
17794,21842,노원문화예술회관,37.65023585990375,127.08026925498872,서울특별시 노원구 중계로 181,영화관/공연장,216379,경보 및 피난설비,
17818,21855,노원제1장애인주간보호소,37.62924793057825,127.0596650314527,서울특별시 노원구 월계로 372,복지시설,216558,경보 및 피난설비,
17895,21889,녹번종합사회복지관,37.60271099417693,126.9317812647442,서울특별시 은평구 은평로21길  14-26,복지시설,216867,경보 및 피난설비,
17910,21891,녹스호텔,37.502698824341415,127.03974112249331,서울특별시 강남구 테헤란로37길 13-13,일반숙박시설,216889,경보 및 피난설비,
17932,21898,논현2동문화센터,37.51727790929765,127.03718791359726,서울특별시 강남구 학동로43길 17,지역자치센터,216949,경보 및 피난설비,
17934,21900,논현 개나리공원,37.512226893041046,127.03089659915771,서울특별시 강남구 논현로123길 1,공원,216967,경보 및 피난설비,
17966,21920,농협중앙회중앙본부사무실,37.56649938877239,126.96855579688858,서울특별시 중구 새문안로 16,전시장,217110,경보 및 피난설비,
17971,21921,농협중앙회 중앙본부 신관,37.56578553552721,126.96757814405089,서울특별시 중구 통일로 124,전시장,217120,경보 및 피난설비,
17984,21924,뇌성마비복지관,37.574541425246814,126.81613246163393,서울특별시 강서구 방화대로45길  6,복지시설,217161,경보 및 피난설비,
17998,21926,누네안과병원 서울병원,37.50098981107543,127.050967901594,서울특별시 강남구 선릉로 404,종합병원,217183,경보 및 피난설비,
18013,21929,누야하우스,37.60564519156108,126.90634278387111,서울특별시 은평구 갈현로11길  34,복지시설,217218,경보 및 피난설비,
18033,21931,누원고등학교,37.68556742626127,127.04993302263458,서울특별시 도봉구 마들로 849,학교,217237,경보 및 피난설비,
18045,21935,뉴리젠트호텔,37.55412810039832,126.85173650252209,서울특별시 강서구 화곡로  342,일반숙박시설,217274,경보 및 피난설비,
18058,21937,뉴비젼빌딩,37.58315289082178,127.0731914133896,서울특별시 동대문구 장안벚꽃로7길 5,복지시설,217305,경보 및 피난설비,
18072,21939,뉴서울호텔,37.56799000258231,126.9781674629412,서울특별시 중구 세종대로22길 16,일반숙박시설,217323,경보 및 피난설비,
18082,21942,뉴연세산부인과,37.455500656624274,126.89986652484035,서울특별시 금천구 시흥대로 243,종합병원,217358,경보 및 피난설비,
18095,21949,뉴티파니관광호텔,37.55977770045081,126.80818731137579,서울특별시 강서구 남부순환로  16,일반숙박시설,217414,경보 및 피난설비,
18104,21951,뉴힐탑관광호텔,37.51111311580585,127.0314119051569,서울특별시 강남구 논현로 645,일반숙박시설,217433,경보 및 피난설비,
18108,21952,느티울근린공원,37.648259435313115,127.0582116869523,서울특별시 노원구 동일로213길 52,공원,217444,경보 및 피난설비,
18109,21953,늘봄경로당,37.57132140660973,127.07259120738483,서울특별시 동대문구 장한로26나길 6,공중화장실,217448,경보 및 피난설비,
18129,21959,늘편한집,37.649839127725855,127.08070849567379,서울특별시 노원구 중계로 163,복지시설,217512,경보 및 피난설비,
18140,21961,늘푸른공원,37.53456093160179,126.95747226541201,서울특별시 용산구 원효로41가길 14-1,공원,217530,경보 및 피난설비,
18147,21964,늘푸른나무복지관,37.568536051157714,126.851119344796,서울특별시 강서구 허준로5길 37,복지시설,217559,경보 및 피난설비,
18160,21970,능골공원,37.49315901607004,127.13322096053308,서울특별시 송파구 동남로14길 17-46,공원,217603,경보 및 피난설비,
18182,21977,능인종합사회복지관,37.47167750229508,127.0525939550434,서울특별시 강남구 양재대로 344,복지시설,217668,경보 및 피난설비,
18223,22001,"다운복지관(1층,2층)",37.61894280874471,127.08031262372484,서울특별시 노원구 화랑로 478,복지시설,217858,경보 및 피난설비,
18260,22013,달맞이근린공원,37.6456082358658,127.06271482339432,서울특별시 노원구 덕릉로 483,공원,217945,경보 및 피난설비,
18263,22016,달터근린공원,37.48540914333663,127.05963638492388,서울특별시 강남구 선릉로18길 15,공원,217967,경보 및 피난설비,
18292,22034,당산그린공원,37.52521650268876,126.895148760723,서울특별시 영등포구 당산로27길  12,공원,218148,경보 및 피난설비,
18305,22047,당현천근린공원,37.6485812672986,127.06311619032104,서울특별시 노원구 동일로 1342,공원,218272,경보 및 피난설비,
18339,22096,대림3파출소,37.498315052716244,126.89803617893844,서울특별시 영등포구 대림로 197,경찰서,218651,경보 및 피난설비,
18350,22098,대림미술관,37.57750352364477,126.97336472019478,서울특별시 종로구 자하문로4길 21,전시장,218671,경보 및 피난설비,
18390,22137,대방종합사회복지관,37.50992549768564,126.93042710651699,서울특별시 동작구 여의대방로44길 47,복지시설,219000,경보 및 피난설비,
18439,22189,대영중학교,37.5034387377086,126.90520846707676,서울특별시 영등포구 도림로80가길 14,학교,219408,경보 및 피난설비,
18455,22200,대우베네스티,37.54055357354346,127.12497734386659,서울특별시 강동구 올림픽로 664,종합병원,219493,경보 및 피난설비,
18507,22240,대준산업주식회사,37.50199281973383,127.02524227413288,서울특별시 서초구 강남대로  443,종합병원,219816,경보 및 피난설비,
18517,22242,대진공원,37.496054993762655,127.0788554998889,서울특별시 강남구 개포로109길 62,공원,219832,경보 및 피난설비,
18533,22254,대청공원,37.493197765244496,127.08300024586443,서울특별시 강남구 개포로124길 24,공원,219914,경보 및 피난설비,
18535,22255,대청사회복지관(증축),37.48393815160635,127.07899653234749,서울특별시 강남구 광평로7길 17,복지시설,219932,경보 및 피난설비,
18553,22259,대치까치공원,37.49662165805773,127.05888084870466,서울특별시 강남구 도곡로78길 22,공원,219965,경보 및 피난설비,
18559,22260,대치동 KT&G,37.50658339307788,127.0653262973692,서울특별시 강남구 영동대로 416,영화관/공연장,219979,경보 및 피난설비,
18568,22261,대치목련공원,37.49982598251991,127.05818221077992,서울특별시 강남구 도곡로77길 22,공원,219988,경보 및 피난설비,
18570,22263,대치은행나무공원,37.50167072003654,127.05154739613356,서울특별시 강남구 선릉로76길 11,공원,219999,경보 및 피난설비,
18575,22268,대학로CGV,37.583456691546466,126.99984149795456,서울특별시 종로구 대명길 28,영화관/공연장,220060,경보 및 피난설비,
18591,22270,대학로스타시티빌딩,37.582058349057284,127.00041662615543,서울특별시 종로구 대학로11길 23,영화관/공연장,220084,경보 및 피난설비,
18678,22320,더리버사이드호텔,37.51856901180078,127.01808524804515,서울특별시 서초구 강남대로107길 6,일반숙박시설,220479,경보 및 피난설비,
18713,22342,더클래식544 노유자시설동,37.532340459462816,127.06676977458929,서울특별시 광진구 능동로 4,일반숙박시설,220668,경보 및 피난설비,
18752,22373,도곡까치공원,37.48334686792139,127.04510821827135,서울특별시 강남구 논현로26길 34,공원,220952,경보 및 피난설비,
18770,22387,도봉1파출소,37.67947579559954,127.0433993173795,서울특별시 도봉구 도봉로169길 43,경찰서,221077,경보 및 피난설비,
18780,22389,도봉2주민센터<도봉서원복지관>,37.66967554857821,127.04653557712341,서울특별시 도봉구 마들로  668,지역자치센터,221101,경보 및 피난설비,
18795,22397,도봉병원<건강검진센터>,37.66915401031681,127.04384668924344,서울특별시 도봉구 도봉로 726,종합병원,221209,경보 및 피난설비,
18812,22410,도산공원,37.52394942336893,127.03560293921466,서울특별시 강남구 도산대로45길 24,공원,221358,경보 및 피난설비,
18824,22433,독골 근린공원,37.48567077531922,127.04689156728806,서울특별시 강남구 남부순환로378길 2,공원,221543,경보 및 피난설비,
18826,22434,독구말어린이공원,37.598431256692855,127.0650849179197,서울특별시 동대문구 휘경로3길  88-1,공원,221546,경보 및 피난설비,
18832,22435,독도사진전,37.56236202656917,126.9686028093585,서울특별시 서대문구 통일로  81,전시장,221549,경보 및 피난설비,
18834,22436,독립 공원,37.574607792788406,126.9556110960777,서울특별시 서대문구 통일로 251,공원,221558,경보 및 피난설비,
18864,22444,독산1동주민센터분소,37.458744833722704,126.8883921771924,서울특별시 금천구 한내로 67-17,지역자치센터,221625,경보 및 피난설비,
18882,22466,돌봄의 집,37.54526029862822,127.13800740968418,서울특별시 강동구 상암로28길 3-14,복지시설,221841,경보 및 피난설비,
18906,22483,동국대학교사범대학부속고등학교,37.57804844288409,127.07513358626969,서울특별시 동대문구 장안벚꽃로 201,학교,221989,경보 및 피난설비,
18919,22507,동대문종합사회복지관,37.58402116625186,127.03419594182556,서울특별시 동대문구 약령시로5길 22,복지시설,222264,경보 및 피난설비,
18948,22524,동명여자정보산업고등학교,37.61441833701418,126.92282282198887,서울특별시 은평구 통일로 793,학교,222394,경보 및 피난설비,
18965,22532,동방사회복지회관(별관),37.571258848183824,126.91984274888206,서울특별시 서대문구 모래내로 173,복지시설,222484,경보 및 피난설비,
18993,22544,동부센트럴요양병원,37.55113478901839,127.12843980626549,서울특별시 강동구 올림픽로98길 8,종합병원,222586,경보 및 피난설비,
19018,22571,동서빌딩,37.54359263974918,127.07206642939407,서울특별시 광진구 능동로 143,종합병원,222833,경보 및 피난설비,
19046,22590,동성중학교 ,37.58497031965818,127.00309764554886,서울특별시 종로구 대학로 156,학교,223007,경보 및 피난설비,
19139,22686,동작이수종합사회복지관,37.49312014186384,126.97687755566365,서울특별시 동작구 동작대로35차길 7,복지시설,223827,경보 및 피난설비,
19154,22687,동작종합사회복지관,37.505714122452034,126.93341680787148,서울특별시 동작구 등용로 47,복지시설,223850,경보 및 피난설비,
19186,22702,동천의집,37.64451397788511,127.07292525022612,서울특별시 노원구 노원로18길 41,복지시설,223974,경보 및 피난설비,
19210,22706,동해문화예술관,37.61982824130036,127.05759144242985,서울특별시 노원구 광운로 21,영화관/공연장,224011,경보 및 피난설비,
19228,22712,동호수공원,37.509919056575626,127.10710097679257,서울특별시 송파구 송파대로48길 28,공원,224049,경보 및 피난설비,
19274,22759,둔촌2파출소,37.52945177020552,127.1391910749382,서울특별시 강동구 양재대로96길 35,경찰서,224420,경보 및 피난설비,
19308,22782,등나무근린공원 2공영주차장,37.63985664136296,127.06866963450676,서울특별시 노원구 동일로204가길 12,공원,224603,경보 및 피난설비,
19311,22783,등나무어린이공원(공중화장실),37.59773932901107,127.09660506522677,서울특별시 중랑구 용마산로115나길 8,공원,224606,경보 및 피난설비,
19312,22786,등서어린이공원,37.559235080793684,126.85474147212344,서울특별시 강서구 화곡로68길 8,공원,224629,경보 및 피난설비,
19320,22789,"등촌1,2단지 복지관",37.565385474725474,126.84225618100642,서울특별시 강서구 강서로68길  36,복지시설,224670,경보 및 피난설비,
19329,22795,등촌4종합사회복지관,37.56188161033503,126.80991135278586,서울특별시 강서구 공항대로3길 5,복지시설,224756,경보 및 피난설비,
19353,22798,등촌근린공원,37.533296988508724,126.84608455617304,서울특별시 강서구 강서로  62-35,공중화장실,224784,경보 및 피난설비,
19365,22802,등촌동 병원,37.559281293278154,126.84571422080973,서울특별시 강서구 공항대로41길 34,종합병원,224813,경보 및 피난설비,
19384,22814,디아망호텔,37.55976671198128,126.80807868700708,서울특별시 강서구 남부순환로 14,일반숙박시설,224927,경보 및 피난설비,
19417,22827,따스한봄날처럼,37.52975098183508,126.86087624972069,서울특별시 강서구 국회대로  233,종합병원,225020,경보 및 피난설비,
19442,22839,라마다 서울 호텔,37.51108686132628,127.04561352618065,서울특별시 강남구 봉은사로 414,일반숙박시설,225110,경보 및 피난설비,
19451,22840,라마다호텔,37.56590167759849,127.00280256392492,서울특별시 중구 동호로 354,일반숙박시설,225123,경보 및 피난설비,
19484,22858,라파엘의집,37.57883613347313,126.96978684910826,서울특별시 종로구 필운대로2길 16,복지시설,225284,경보 및 피난설비,
19508,22875,랙싱턴호텔,37.53029008470089,126.92196830132187,서울특별시 영등포구 국회대로76길 16,일반숙박시설,225409,경보 및 피난설비,
19526,22887,레이크관광호텔,37.50687183294708,127.10099375060535,서울특별시 송파구 석촌호수로 216,일반숙박시설,225505,경보 및 피난설비,
19559,22895,렉스관광호텔,37.51436993508075,127.02053196324695,서울특별시 강남구 강남대로 588,일반숙박시설,225566,경보 및 피난설비,
19672,22947,롯데몰,37.56596788090347,126.80077792802679,서울특별시 강서구 하늘길  38,영화관/공연장,225933,경보 및 피난설비,
19681,22948,롯데백화점,37.65527828182756,127.06139025733995,서울특별시 노원구 동일로 1414,영화관/공연장,225953,경보 및 피난설비,
19698,22952,롯데백화점 영등포점,37.51566911683294,126.90766791705948,서울특별시 영등포구 경인로 846,영화관/공연장,226000,경보 및 피난설비,
19715,22956,롯데시네마(씨네 일레븐 14관),37.536632041414045,127.12533738826764,서울특별시 강동구 천호옛길 85,영화관/공연장,226039,경보 및 피난설비,
19723,22957,롯데시네마홍대관입구관,37.55724633358884,126.92498689996236,서울특별시 마포구 양화로  176,영화관/공연장,226058,경보 및 피난설비,
19742,22960,롯데월드,37.51131078364221,127.09814039543262,서울특별시 송파구 올림픽로 244,영화관/공연장,226093,경보 및 피난설비,
19806,22996,리바트 스타일 샵,37.51244418315047,127.02658499686096,서울특별시 강남구 학동로 142,전시장,226364,경보 및 피난설비,
19811,22998,리버파크,37.54854693254492,126.87818239805556,서울특별시 강서구 공항대로 653-34,일반숙박시설,226383,경보 및 피난설비,
19850,23016,리츠칼튼 서울호텔,37.5057369080659,127.02744216509888,서울특별시 강남구 봉은사로 124,일반숙박시설,226518,경보 및 피난설비,
19888,23051,마들근린공원,37.6457896595514,127.06036265466575,서울특별시 노원구 덕릉로 454,공원,226774,경보 및 피난설비,
19919,23074,마음자리,37.54970612586629,126.84619567115324,서울특별시 강서구 화곡로53나길  53,복지시설,226966,경보 및 피난설비,
19932,23088,마천공원,37.50128583701709,127.14564831816121,서울특별시 송파구 성내천로 23길-12,공원,227103,경보 및 피난설비,
19959,23108,마포복지종합지원센터,37.5559950297108,126.94304622446259,서울특별시 마포구 신촌로26길 14,복지시설,227294,경보 및 피난설비,
19974,23112,마포우체국,37.5377016360478,126.94406488176188,서울특별시 마포구 마포대로 8,우체국,227360,경보 및 피난설비,
19979,23113,마포자원 회수시설,37.57159797459582,126.88167663247508,서울특별시 마포구 하늘공원로 86,전시장,227374,경보 및 피난설비,
19987,23114,마포장애인종합복지관,37.56544557817517,126.90080162637967,서울특별시 마포구 월드컵로 213,복지시설,227397,경보 및 피난설비,
19996,23115,마포장애인주간보호(월드타운대림)(월드컵북로34길13),37.55758125670983,126.919151180836,서울특별시 마포구 월드컵북로34길  -22,복지시설,227419,경보 및 피난설비,
20033,23132,맑음터단기보호센터,37.549196642392594,126.94049389365965,서울특별시 마포구 백범로 73-11,복지시설,227554,경보 및 피난설비,
20090,23165,머큐어 서울 앰배서더 강남 쏘도베,37.501601039474615,127.03519424105166,서울특별시 강남구 테헤란로25길 14,일반숙박시설,227837,경보 및 피난설비,
20108,23171,메가박스,37.60993102793067,127.03071499041259,서울특별시 강북구 도봉로 3,영화관/공연장,227900,경보 및 피난설비,
20121,23172,메가박스 상봉점,37.59308085084436,127.07475012589887,서울특별시 중랑구 망우로30길 3 (상봉동),영화관/공연장,227920,경보 및 피난설비,
20141,23177,메디아카데미,37.54255130105838,127.1400437101922,서울특별시 강동구 양재대로121길 25,복지시설,227969,경보 및 피난설비,
20171,23188,메사,37.56037503818132,126.9796002905616,서울특별시 중구 남대문시장10길 2,영화관/공연장,228077,경보 및 피난설비,
20177,23189,메세나 폴리스,37.55150125484477,126.91395205031792,서울특별시 마포구 양화로 45,영화관/공연장,228096,경보 및 피난설비,
20213,23198,메이필드호텔,37.547895182680065,126.81950678330452,서울특별시 강서구 방화대로94,일반숙박시설,228158,경보 및 피난설비,
20260,23244,명덕빌딩,37.55928048815075,127.0128571521314,서울특별시 중구 다산로 175,종합병원,228516,경보 및 피난설비,
20317,23282,명일동우체국,37.55035085356257,127.1455807813296,서울특별시 강동구 구천면로 424-,우체국,228812,경보 및 피난설비,
20327,23296,명지성묘,37.49416075661188,126.8993716567622,서울특별시 영등포구 도림로 158,종합병원,228970,경보 및 피난설비,
20336,23297,명지성묘 별관,37.49397716694457,126.89962520338574,서울특별시 영등포구 대림로23길 8,종합병원,228983,경보 및 피난설비,
20387,23329,목동 CGV,37.527196793412344,126.87469197547888,서울특별시 양천구 목동동로 257,영화관/공연장,229265,경보 및 피난설비,
20396,23330,목동 K.T,37.525843326684615,126.86954915301556,서울특별시 양천구 목동서로 241,영화관/공연장,229285,경보 및 피난설비,
20429,23340,목동자생한방병원,37.5235867227291,126.87577496500566,서울특별시 양천구 신목로 102,종합병원,229383,경보 및 피난설비,
20431,23342,목동청소년수련관,37.530718761133116,126.87550066223238,서울특별시 양천구 목동서로 143,영화관/공연장,229420,경보 및 피난설비,
20458,23348,목련공원?개방화장실,37.540638969026865,127.0906565493538,서울특별시 광진구 아차산로59길 49,공중화장실,229475,경보 및 피난설비,
20522,23412,문화 및 집회시설,37.55440443184595,126.9219657992853,서울특별시 마포구 홍익로  25,전시장,230039,경보 및 피난설비,
20529,23413,문화 및 집회시설(제일리아트홀),37.57504560323335,126.8954909946141,서울특별시 마포구 월드컵북로 323,전시장,230049,경보 및 피난설비,
20562,23446,미루나무어린이공원,37.64055524003648,127.02443251623457,서울특별시 강북구 수유동 193-1,공원,230306,경보 및 피난설비,
20614,23475,미아동주민센터,37.62491595687652,127.0128457928891,서울특별시 강북구 솔매로4길 1-1,지역자치센터,230527,경보 및 피난설비,
20678,23515,밀레니엄차과 병원 ,37.569879682776545,126.98604076887199,서울특별시 종로구 종로 78,종합병원,230821,경보 및 피난설비,
20692,23520,바고관광호텔,37.54578286645106,127.12507660030292,서울특별시 강동구 천중로 27,일반숙박시설,230872,경보 및 피난설비,
20719,23534,바빌론관광호텔,37.515033620262926,127.0171025800996,서울특별시 서초구 나루터로 64,일반숙박시설,230993,경보 및 피난설비,
20799,23567,반포자이중심상가,37.5071164190274,127.00987139904676,서울특별시 서초구 잠원로 24,종합병원,231270,경보 및 피난설비,
20829,23583,밤골어린이공원,37.473919209330724,126.96737820206194,서울특별시 관악구 인헌3가길 8,공원,231399,경보 및 피난설비,
20863,23603,방아골복지관,37.66931261272068,127.0326391263692,서울특별시 도봉구 시루봉로17길 42,복지시설,231635,경보 및 피난설비,
20881,23606,방이2동주민센터,37.51455413533975,127.11445080025268,서울특별시 송파구 백제고분로 495,지역자치센터,231660,경보 및 피난설비,
20894,23611,방이복지관,37.514644489531854,127.11418851918964,서울특별시 송파구 오금로11길 68,복지시설,231712,경보 및 피난설비,
20923,23628,방화11종합복지관(별관),37.570718963971686,126.80572779900083,서울특별시 강서구 개화동로21길  4,복지시설,231917,경보 및 피난설비,
20950,23648,배명중중고등학교,37.49768949874503,127.09581108705886,서울특별시 송파구 삼학사로 11,학교,232098,경보 및 피난설비,
20953,23651,배밭공원,37.48821316578545,127.0594667447503,서울특별시 강남구 개포로 409-1,공원,232131,경보 및 피난설비,
20962,23653,배윤자요리학원,37.537207153762296,127.1267685126919,서울특별시 강동구 천호대로 1034,종합병원,232147,경보 및 피난설비,
20977,23666,백범기념관,37.54427794441077,126.9592546183861,서울특별시 용산구 임정로  26,전시장,232277,경보 및 피난설비,
21009,23690,백운중학교,37.65640600923996,127.0359063426612,서울특별시 도봉구 도봉로129길 50,학교,232483,경보 및 피난설비,
21038,23712,번동중학교,37.616691176074944,127.03389828342668,서울특별시 강북구 오현로 35-87,학교,232693,경보 및 피난설비,
21039,23715,벌리어린이공원,37.622900282166185,127.04602158450304,서울특별시 강북구 월계로37길 1-1,공원,232712,경보 및 피난설비,
21064,23734,베스트웨스턴 호텔 강남호텔,37.50637785603889,127.0297858159252,서울특별시 강남구 봉은사로 139,일반숙박시설,232837,경보 및 피난설비,
21073,23735,베스트웨스턴 호텔국도,37.56617915968971,126.99630096410387,서울특별시 중구 을지로 164,일반숙박시설,232849,경보 및 피난설비,
21094,23739,베스티안 서울병원,37.498031658269326,127.05719922660332,서울특별시 강남구 도곡로 429,종합병원,232882,경보 및 피난설비,
21110,23750,벨라지오 관광호텔,37.6094469232038,126.93200615326448,서울특별시 은평구 진흥로 205,일반숙박시설,232958,경보 및 피난설비,
21128,23775,보등골공원,37.63517574719886,127.01778265292731,서울특별시 강북구 삼양로88길 1,공원,233163,경보 및 피난설비,
21234,23825,본동종합사회복지관,37.51309849808242,126.95595520770031,서울특별시 동작구 노량진로32길 7,복지시설,233552,경보 및 피난설비,
21283,23859,봉천파출소,37.47846214562644,126.96153795608524,서울특별시 관악구 남부순환로239길 8,경찰서,233797,경보 및 피난설비,
21309,23883,부원빌딩,37.48312805437037,127.00935266951677,서울특별시 서초구 반포대로9길 42,종합병원,234015,경보 및 피난설비,
21334,23893,북부등기소,37.57442671303734,127.08534530009771,서울특별시 중랑구 면목로 242,지역자치센터,234096,경보 및 피난설비,
21347,23895,북부종합사회복지관,37.679706390307324,127.0524094511817,서울특별시 노원구 동일로245길 56,복지시설,234130,경보 및 피난설비,
21367,23898,북서울중학교,37.68154104495838,127.04283369733574,서울특별시 도봉구 도봉로169가길 33,학교,234153,경보 및 피난설비,
21379,23907,불광cgv,37.610771174669225,126.92861176442352,서울특별시 은평구 불광로  24,영화관/공연장,234245,경보 및 피난설비,
21395,23915,불암산공원,37.66182997427618,127.07986013245123,서울특별시 노원구 덕릉로94길 73,공원,234316,경보 및 피난설비,
21403,23919,붐관광호텔,37.5486305530924,126.81960912001034,서울특별시 강서구 남부순환로  188,일반숙박시설,234358,경보 및 피난설비,
21421,23923,뷰티크모텔,37.55299076057101,126.85008648029293,서울특별시 강서구 우장산로 128,일반숙박시설,234387,경보 및 피난설비,
21428,23925,브라운관광호텔,37.582279873248936,127.02130686801864,서울특별시 성북구 보문로  78,일반숙박시설,234406,경보 및 피난설비,
21448,23934,브로드웨이시네마(1-5),37.516369910341155,127.02193965328378,서울특별시 강남구 도산대로8길 8,영화관/공연장,234489,경보 및 피난설비,
21495,23957,비석골근린공원,37.631205634354316,127.0502954024462,서울특별시 노원구 월계로45가길 57,공원,234644,경보 및 피난설비,
21540,23980,빅토리아호텔,37.61088601720936,127.03094189777508,서울특별시 강북구 도봉로 16,일반숙박시설,234796,경보 및 피난설비,
21561,23996,빨라쪼 이대목동병원점,37.536983023856585,126.88674595133648,서울특별시 양천구 안양천로 1071,종합병원,234904,경보 및 피난설비,
21564,23997,빨래골 공원,37.63076500676251,127.01419718626148,서울특별시 강북구 인수봉로34길 1,공원,234912,경보 및 피난설비,
21601,24025,사당종합사회복지관,37.482847476262585,126.97149888669121,서울특별시 동작구 사당로14길 24,복지시설,235160,경보 및 피난설비,
21619,24030,사랑나눔주간보호,37.49691982086978,127.15258324978217,서울특별시 송파구 마천로51길 28,복지시설,235224,경보 및 피난설비,
21655,24036,사랑손주간보호센터,37.4926011109021,126.96260721393257,서울특별시 동작구 사당로2길 32,복지시설,235289,경보 및 피난설비,
21680,24044,사랑의복지관,37.50050421510755,127.02590222082449,서울특별시 서초구 강남대로65길  1,복지시설,235364,경보 및 피난설비,
21700,24046,사랑플러스빌딩,37.547005120265815,127.14364149310327,서울특별시 강동구 양재대로  1584,종합병원,235380,경보 및 피난설비,
21721,24065,사회복지법인 한벗재단,37.53384107271477,126.95062992513256,서울특별시 용산구 효창원로6길 42-3,복지시설,235554,경보 및 피난설비,
21740,24066,사회복지시설,37.54113965868448,127.14508310682376,서울특별시 강동구 천중로53길 7,복지시설,235575,경보 및 피난설비,
21750,24067,산기슭 공원,37.462984981626505,126.90712235789722,서울특별시 금천구 독산로54길 6,공원,235582,경보 및 피난설비,
21773,24088,산후조리원웰빙센타,37.52963018958326,126.84768502105764,서울특별시 강서구 강서로 18,종합병원,235745,경보 및 피난설비,
21786,24095,삼각산중학교,37.6161473444376,127.01457044732136,서울특별시 강북구 삼양로19길 141,학교,235802,경보 및 피난설비,
21820,24120,삼선공원,37.58370513045657,127.00745414953276,서울특별시 성북구 삼선교로4나길  1,공원,235985,경보 및 피난설비,
21838,24134,삼성동 자치회관,37.464429098069225,126.93196588285412,서울특별시 관악구 호암로 524,지역자치센터,236107,경보 및 피난설비,
21867,24170,삼성애니아트,37.49849836419981,126.94661824611583,서울특별시 동작구 양녕로22마길 77,복지시설,236386,경보 및 피난설비,
21939,24223,삼육의료원건강검진센터,37.5879487800829,127.05513485090599,서울특별시 동대문구 망우로 8,종합병원,236801,경보 및 피난설비,
21946,24232,삼전그린공원,37.501778226919825,127.093608750428,서울특별시 송파구 백제고분로32길 6-34,공원,236878,경보 및 피난설비,
21965,24237,삼전솔하임,37.502185731700365,126.88247386119151,서울특별시 구로구 새말로 15,종합병원,236925,경보 및 피난설비,
21970,24263,삼학사어린이공원,37.50627106149754,127.09533346545736,서울특별시 송파구 백제고분로27길 44-24,공원,237148,경보 및 피난설비,
21984,24271,삼호빌딩,37.48132286429883,126.94959719986628,서울특별시 관악구 남부순환로 1796,종합병원,237195,경보 및 피난설비,
21991,24280,삿갓봉근린공원,37.65795085156928,127.07637905148366,서울특별시 노원구 한글비석로 346,공원,237269,경보 및 피난설비,
21998,24301,상계근린공원,37.66026864925922,127.0697990878504,서울특별시 노원구 한글비석로25길 28,공원,237512,경보 및 피난설비,
22024,24312,상계종합복지관,37.668091017040965,127.07832536015448,서울특별시 노원구 덕릉로115나길 25,복지시설,237626,경보 및 피난설비,
22039,24316,상금복지관,37.47372781474297,126.89741842168924,서울특별시 금천구 시흥대로141길 17,복지시설,237677,경보 및 피난설비,
22055,24324,상도4치안센터,37.50070325764762,126.93768703741495,서울특별시 동작구 성대로29길 57,경찰서,237763,경보 및 피난설비,
22063,24331,상도종합사회복지관,37.500138223984386,126.9209502154868,서울특별시 동작구 상도로3가길 7,복지시설,237837,경보 및 피난설비,
22081,24344,상명대학교 대학원,37.604109716477396,126.9551587033551,서울특별시 종로구 홍지문2길 20,학교,237952,경보 및 피난설비,
22089,24355,상봉어린이공원,37.59312975445335,127.0824906030141,서울특별시 중랑구 동일로112길 27,공원,238059,경보 및 피난설비,
22095,24358,상상라이브홀,37.55095841668293,126.92106405980402,서울특별시 마포구 어울마당로 65,영화관/공연장,238096,경보 및 피난설비,
22166,24426,새싹어린이공원,37.484490720859384,126.94938702996534,서울특별시 관악구 양녕로6다길 11-4,공원,238664,경보 및 피난설비,
22182,24442,색동어린이공원,37.471072723606355,126.9412432001112,서울특별시 관악구 신림로74길 74,공원,238797,경보 및 피난설비,
22189,24449,샘터빌딩,37.581532146394075,127.00233671286007,서울특별시 종로구 대학로  116,전시장,238849,경보 및 피난설비,
22201,24457,생명의전화종합사회복지관,37.604126836868076,127.03704537943935,서울특별시 성북구 오패산로 21,복지시설,238928,경보 및 피난설비,
22220,24471,샬롬의집,37.55688483509514,126.81568693660984,서울특별시 강서구 방화대로7가길 11,복지시설,239034,경보 및 피난설비,
22242,24475,서강대학교 토마스 모어관(고시동) ,37.55146840754552,126.943027035678,서울특별시 마포구 백범로  35,학교,239063,경보 및 피난설비,
22252,24476,서강동자치회관,37.547736078565904,126.93206224624826,서울특별시 마포구 독막로  165,지역자치센터,239075,경보 및 피난설비,
22267,24495,서교동 관광호텔 ,37.55331454988785,126.91976238202065,서울특별시 마포구 양화로  112,일반숙박시설,239224,경보 및 피난설비,
22304,24512,서대문문화체육회관,37.580605254328255,126.93353130974691,서울특별시 서대문구 백련사길 3,영화관/공연장,239449,경보 및 피난설비,
22314,24514,서대문소방서11안전센터,37.582866019565046,126.91300571616868,서울특별시 서대문구 증가로 242,경찰서,239477,경보 및 피난설비,
22322,24516,서대문자연사박물관,37.57586085966407,126.93726221021154,서울특별시 서대문구 연희로32길  48,전시장,239503,경보 및 피난설비,
22329,24517,서대문장애인종합복지관(북아현동주민센터),37.55947159082256,126.95703708357377,서울특별시 서대문구 북아현로 24,복지시설,239526,경보 및 피난설비,
22348,24521,서래지구대,37.49818888582225,126.9864160027943,서울특별시 서초구 사평대로23길 23,경찰서,239562,경보 및 피난설비,
22383,24545,서울강동경찰서 명일파출소,37.55364589171284,127.15608941611313,서울특별시 강동구 동남로 895,경찰서,239822,경보 및 피난설비,
22391,24549,서울강서경찰서 곰달래지구대,37.53291073052346,126.86313769033191,서울특별시 강서구 곰달래로59길 12,경찰서,239890,경보 및 피난설비,
22400,24554,서울경안우편취급국,37.55049927906713,127.09094461541031,서울특별시 광진구 천호대로 681,우체국,239953,경보 및 피난설비,
22407,24555,서울경인초등학교,37.5328698484637,126.88569771419348,서울특별시 양천구 안양천로 1009,학교,239966,경보 및 피난설비,
22414,24556,서울공릉동우체국,37.61846291406025,127.07572245659875,서울특별시 노원구 동일로 988,우체국,239977,경보 및 피난설비,
22423,24559,서울공연초등학교,37.627549240998505,127.07450822196849,서울특별시 노원구 동일로192가길 16,학교,240021,경보 및 피난설비,
22438,24569,서울관악경찰서 당곡지구대,37.48600783720949,126.93436598547113,서울특별시 관악구 남부순환로191길 12,경찰서,240131,경보 및 피난설비,
22446,24570,서울광나루우편취급국,37.54806798697507,127.10650824784551,서울특별시 광진구 광장로 84,우체국,240141,경보 및 피난설비,
22453,24574,서울교육문화회관,37.46828596790833,127.03306699554705,서울특별시 서초구 바우뫼로12길 74,영화관/공연장,240202,경보 및 피난설비,
22465,24577,서울 구로경찰서 구로3파출소,37.48666092104907,126.89139901327957,서울특별시 구로구 디지털로31길 86,경찰서,240227,경보 및 피난설비,
22481,24589,서울노원경찰서 마들파출소,37.66458604168772,127.06361936350328,서울특별시 노원구 한글비석로 489,경찰서,240390,경보 및 피난설비,
22489,24590,서울노원경찰서 상계1파출소,37.679679960653175,127.05504849535286,서울특별시 노원구 동일로 1693,경찰서,240403,경보 및 피난설비,
22492,24591,서울노원지역자활센터,37.663726523222905,127.06684648280256,서울특별시 노원구 한글비석로47길 -3,복지시설,240429,경보 및 피난설비,
22512,24592,서울노원초등학교,37.673594909847424,127.05845817832814,서울특별시 노원구 동일로230나길 32,학교,240438,경보 및 피난설비,
22525,24595,서울농학교,37.58564377691853,126.9687741839122,서울특별시 종로구 필운대로 103,학교,240471,경보 및 피난설비,
22534,24596,서울누원초등학교,37.6872327126115,127.04926750406996,서울특별시 도봉구 마들로 859-44,학교,240483,경보 및 피난설비,
22542,24597,서울능동우편취급국,37.555948557770826,127.07554598085085,서울특별시 광진구 면목로 17-1,우체국,240494,경보 및 피난설비,
22549,24598,서울대곡초등학교,37.494711905100964,127.065026466778,서울특별시 강남구 남부순환로 3022,학교,240507,경보 및 피난설비,
22557,24613,서울대은초등학교,37.61236603613672,126.92586935917255,서울특별시 은평구 통일로69길 12-15,학교,240689,경보 및 피난설비,
22566,24634,서울도봉경찰서 도봉2파출소,37.68399279224774,127.04927896526121,서울특별시 도봉구 도봉로180나길 33,경찰서,240956,경보 및 피난설비,
22574,24635,서울도봉경찰서 창동지구대,37.65228805441595,127.05171478775006,서울특별시 도봉구 노해로 392,경찰서,240968,경보 및 피난설비,
22587,24641,서울동대문경찰서 장안2파출소,37.57679472167039,127.07440328227543,서울특별시 동대문구 답십리로69길 100,경찰서,241028,경보 및 피난설비,
22596,24642,서울동명초등학교,37.56812375256784,127.03510779621979,서울특별시 성동구 마장로29길 29,학교,241040,경보 및 피난설비,
22604,24646,서울동작경찰서 사당지구대,37.48053895404597,126.97953156602163,서울특별시 동작구 동작대로9길 35,경찰서,241101,경보 및 피난설비,
22610,24648,서울등원초등학교,37.55981308446968,126.85006828521796,서울특별시 강서구 화곡로65길 90,학교,241125,경보 및 피난설비,
22617,24649,서울등촌동우체국,37.55883402378754,126.84820506732737,서울특별시 강서구 화곡로63길 90,우체국,241137,경보 및 피난설비,
22626,24653,서울로얄호텔,37.56438719118553,126.98586522226059,서울특별시 중구 명동길 61,영화관/공연장,241195,경보 및 피난설비,
22644,24655,서울마천동우체국,37.496498096024645,127.14980956624704,서울특별시 송파구 거마로20길 34,우체국,241207,경보 및 피난설비,
22651,24656,서울매동초등학교,37.57749829624864,126.96694363685718,서울특별시 종로구 사직로9길 19,학교,241220,경보 및 피난설비,
22660,24658,서울 메디칼센터 ,37.56687640422922,126.9098459223687,서울특별시 마포구 월드컵북로  165,종합병원,241245,경보 및 피난설비,
22670,24660,서울면목동우체국,37.58260517466021,127.08881899680176,서울특별시 중랑구 면목로 344,우체국,241266,경보 및 피난설비,
22677,24661,서울 면일 초등학교,37.5920424099565,127.09979527957508,서울특별시 중랑구 용마산로100길 13 (망우동),학교,241280,경보 및 피난설비,
22679,24664,서울모자의집,37.498168158252795,126.82744309205404,서울특별시 구로구 오리로17길  77-14,복지시설,241330,경보 및 피난설비,
22701,24665,서울목원초등학교,37.54293623076178,126.88244613233448,서울특별시 양천구 목동중앙로 204,학교,241340,경보 및 피난설비,
22708,24666,서울묘곡초등학교,37.558713415016726,127.15309397367679,서울특별시 강동구 동남로79길 46,학교,241352,경보 및 피난설비,
22716,24667,서울묵동우체국,37.61036731937432,127.07744027706049,서울특별시 중랑구 동일로 895 (묵동),우체국,241363,경보 및 피난설비,
22724,24672,서울문화고등학교,37.66413241857218,127.04728468174284,서울특별시 도봉구 마들로 598,학교,241424,경보 및 피난설비,
22732,24675,서울미양초등학교,37.621531701672396,127.0141319970728,서울특별시 강북구 솔샘로 195,학교,241451,경보 및 피난설비,
22741,24678,서울방학초등학교,37.66381989999999,127.0308996,서울특별시 도봉구 방학동 304-7,학교,241489,경보 및 피난설비,
22747,24680,서울번동초등학교,37.629025569939756,127.04003939095571,서울특별시 강북구 오현로 204,학교,241519,경보 및 피난설비,
22754,24687,서울본병원 구강남중앙병원,37.481585344616796,126.9117077397649,서울특별시 관악구 남부순환로 1449,종합병원,241607,경보 및 피난설비,
22770,24706,서울삼선초등학교,37.58714287515434,127.01267173118393,서울특별시 성북구 보문로29길 106,학교,241836,경보 및 피난설비,
22778,24709,서울삼양초등학교,37.62329377425496,127.01614864583084,서울특별시 강북구 삼양로49길 17,학교,241869,경보 및 피난설비,
22786,24710,서울삼육초등학교,37.588770331507455,127.04717356048012,서울특별시 동대문구 회기로10길 63,학교,241882,경보 및 피난설비,
22793,24711,서울상계초등학교,37.6596254560325,127.06649374513405,서울특별시 노원구 상계로9길 39,학교,241899,경보 및 피난설비,
22807,24713,서울상원초등학교,37.66767303864923,127.059718447124,서울특별시 노원구 한글비석로54길 119,학교,241917,경보 및 피난설비,
22815,24716,서울서부지방법원 용산등기소,37.53674140243583,126.9692471667815,서울특별시 용산구 백범로90길 32,지역자치센터,241952,경보 및 피난설비,
22823,24718,서울서정초등학교,37.523451293072384,126.86723651941193,서울특별시 양천구 목동로8길 19,학교,241980,경보 및 피난설비,
22832,24719,서울서초경찰서 서초3파출소,37.49197583046242,127.01079211870358,서울특별시 서초구 반포대로30길 40,경찰서,241992,경보 및 피난설비,
22839,24722,서울선사초등학교,37.55584906407182,127.12820344143765,서울특별시 강동구 올림픽로  837,학교,242026,경보 및 피난설비,
22861,24727,서울성수노룬산우편취급국,37.53890911280113,127.06927394662478,서울특별시 광진구 아차산로34길 25,우체국,242069,경보 및 피난설비,
22869,24730,서울세검정초등학교,37.603470276656665,126.96097087510286,서울특별시 종로구 세검정로9길 1,학교,242100,경보 및 피난설비,
22875,24732,서울수서동우체국,37.48870041794468,127.10503989296237,서울특별시 강남구 광평로 303,우체국,242123,경보 및 피난설비,
22884,24733,서울수유초등학교,37.631250648442794,127.02029218436115,서울특별시 강북구 삼양로74길 39,학교,242140,경보 및 피난설비,
22896,24736,서울 숭덕초등학교,37.60381835802252,127.01329062070862,서울특별시 성북구 정릉로 279,학교,242164,경보 및 피난설비,
22903,24738,서울숭미초등학교 교무실,37.6510238921781,127.02794427819036,서울특별시 도봉구 노해로 179,학교,242184,경보 및 피난설비,
22905,24740,서울숲,37.54307023686678,127.04179932558156,서울특별시 성동구 뚝섬로 273,공원,242207,경보 및 피난설비,
22927,24751,서울시립 뇌성마비종합복지관,37.64244347787962,127.05658008579952,서울특별시 노원구 덕릉로70가길 96,복지시설,242302,경보 및 피난설비,
22937,24753,서울시립미술관,37.56410760112768,126.9736999947165,서울특별시 중구 덕수궁길 61,전시장,242323,경보 및 피난설비,
22944,24754,서울시립북부장애인종합복지관,37.64253699263409,127.056969927077,서울특별시 노원구 덕릉로70가길 92,복지시설,242347,경보 및 피난설비,
22964,24755,서울 시립상이군경복지관,37.64281777599706,127.05763637937977,서울특별시 노원구 덕릉로70가길 73,복지시설,242369,경보 및 피난설비,
22978,24767,서울신기초등학교,37.51131204485852,126.8542145709001,서울특별시 양천구 신정로 292,학교,242528,경보 및 피난설비,
22986,24770,서울신암초등학교,37.55002187199918,127.12440469294184,서울특별시 강동구 올림픽로93길 33-16,학교,242567,경보 및 피난설비,
22995,24774,서울신창초등학교,37.63653907999417,127.0420827545972,서울특별시 도봉구 덕릉로60길 93,학교,242613,경보 및 피난설비,
23017,24796,서울역사박물관,37.570496849699246,126.9710761260185,서울특별시 종로구 새문안로 55,전시장,242850,경보 및 피난설비,
23024,24800,서울연은초등학교,37.590449927501844,126.92520721491164,서울특별시 은평구 백련산로2길 35,학교,242898,경보 및 피난설비,
23031,24803,서울염경초등학교,37.55500148302127,126.87120498609676,서울특별시 강서구 양천로69길 49,학교,242940,경보 및 피난설비,
23039,24807,서울영등포경찰서 문래지구대,37.51358134386737,126.8976489370664,서울특별시 영등포구 경인로 759,경찰서,242982,경보 및 피난설비,
23048,24811,서울영원초등학교,37.504294551115045,126.89441802154712,서울특별시 영등포구 도신로2마길  14,학교,243038,경보 및 피난설비,
23057,24812,서울영일초등학교,37.48564457414372,126.883811365561,서울특별시 구로구 남부순환로105길 218,학교,243047,경보 및 피난설비,
23065,24817,서울오륜초등학교,37.51242464921969,127.13450843576594,서울특별시 송파구 양재대로 1196,학교,243106,경보 및 피난설비,
23073,24819,서울온수초등학교,37.494003349918756,126.8259690590388,서울특별시 구로구 부일로 893,학교,243125,경보 및 피난설비,
23081,24822,서울외국인학교,37.56083350018128,126.926898334385,서울특별시 서대문구 연희로 22-3,학교,243157,경보 및 피난설비,
23090,24824,서울용두동우체국,37.57049602570039,127.03211147643896,서울특별시 동대문구 청계천로 497,우체국,243180,경보 및 피난설비,
23096,24826,서울우이초등학교,37.63871159888088,127.0150053909544,서울특별시 강북구 삼양로99길 36,학교,243209,경보 및 피난설비,
23105,24830,서울월천초등학교,37.648046209598405,127.05175263938412,서울특별시 도봉구 노해로70길 96,학교,243247,경보 및 피난설비,
23113,24834,서울을지초등학교,37.65059010781853,127.07308983586769,서울특별시 노원구 중계로 239,학교,243298,경보 및 피난설비,
23119,24838,서울이태원초등학교,37.536478066990746,126.98767175511551,서울특별시 용산구 녹사평대로40길 19,학교,243343,경보 및 피난설비,
23129,24839,서울인강학교,37.6948396108732,127.0424422316215,서울특별시 도봉구 평화로15번길 9-25,학교,243351,경보 및 피난설비,
23135,24841,서울인수초등학교,37.64305134096786,127.00913700633278,서울특별시 강북구 인수봉로 269,학교,243371,경보 및 피난설비,
23149,24845,서울일본인학교(상암일본인학교),37.58360913309185,126.8844155644079,서울특별시 마포구 월드컵북로62길  11,학교,243417,경보 및 피난설비,
23158,24847,서울일원본동우체국,37.48308954040176,127.08651666267315,서울특별시 강남구 광평로20길 8,우체국,243437,경보 및 피난설비,
23166,24849,서울자양아파트우편취급국,37.531599918241966,127.07560287427744,서울특별시 광진구 자양번영로4길 5,우체국,243456,경보 및 피난설비,
23175,24852,서울장로회신학대학교우편취급국,37.55026581355625,127.10313451743252,서울특별시 광진구 광장로5길 25-1,우체국,243493,경보 및 피난설비,
23177,24854, 서울장애인종합복지관,37.553820734094046,127.151906988264,서울특별시 강동구 고덕로 241,복지시설,243533,경보 및 피난설비,
23202,24859,서울정곡초등학교,37.57696041772309,126.81893401667926,서울특별시 강서구 방화대로50길 22,학교,243587,경보 및 피난설비,
23210,24869,서울종로경찰서 교남파출소,37.57107455803523,126.96212428416294,서울특별시 종로구 통일로 196-6,경찰서,243705,경보 및 피난설비,
23224,24871,서울종암경찰서 장위지구대,37.61001392053886,127.05142274857808,서울특별시 성북구 화랑로19길 85,경찰서,243721,경보 및 피난설비,
23236,24878,서울주요무형문화제전수회관,37.51136681725964,127.0485182781177,서울특별시 강남구 봉은사로 446,영화관/공연장,243800,경보 및 피난설비,
23256,24879,서울중계3동우체국,37.64168028030997,127.0685897341925,서울특별시 노원구 공릉로 392,우체국,243809,경보 및 피난설비,
23264,24880,서울중곡3동우편취급국,37.55526556424598,127.0885647194858,서울특별시 광진구 용마산로 18,우체국,243822,경보 및 피난설비,
23271,24882,서울중랑경찰서 망우지구대,37.59903042020253,127.0955332259448,서울특별시 중랑구 망우로 391 (망우동),경찰서,243847,경보 및 피난설비,
23291,24896,서울창5동 우체국,37.65183394991351,127.04273503859707,서울특별시 도봉구 노해로 309,우체국,244028,경보 및 피난설비,
23298,24897,서울창경초등학교,37.65660101150973,127.03460091284501,서울특별시 도봉구 도봉로129길 54,학교,244043,경보 및 피난설비,
23305,24899,서울천동초등학교,37.54101500206292,127.13782759423508,서울특별시 강동구 성안로 200,학교,244074,경보 및 피난설비,
23312,24905,서울초이스병원,37.533738733472696,127.12120970704676,서울특별시 송파구 올림픽로 579,종합병원,244146,경보 및 피난설비,
23328,24908,서울컨벤션고등학교,37.55924390572765,127.15802966315157,서울특별시 강동구 동남로 964,학교,244171,경보 및 피난설비,
23338,24911,서울테크노마트우편취급국,37.53572634794616,127.09569227689691,서울특별시 광진구 광나루로56길 85,우체국,244206,경보 및 피난설비,
23377,24924,서울한남동우체국,37.53362068166887,127.00358428687193,서울특별시 용산구 대사관로 49,우체국,244355,경보 및 피난설비,
23388,24931,서울화일초등학교,37.54071221412226,126.84747238668041,서울특별시 강서구 까치산로10길 70,학교,244431,경보 및 피난설비,
23402,24934,서울휘경동우체국,37.59032594938217,127.0581574777813,서울특별시 동대문구 회기로 201,우체국,244469,경보 및 피난설비,
23436,24959,서초4동노인정,37.495954175921334,127.01532960196822,서울특별시 서초구 서초대로55길  13,지역자치센터,244692,경보 및 피난설비,
23460,24970,서초동 근생,37.49303927737396,127.00744512961408,서울특별시 서초구 반포대로  144,영화관/공연장,244796,경보 및 피난설비,
23512,24993,서평빌딩,37.45480527461419,126.90010253661859,서울특별시 금천구 시흥대로 234,종합병원,244979,경보 및 피난설비,
23549,25033,선릉공원 주차장,37.50736690387562,127.04716752861685,서울특별시 강남구 선릉로100길 1,공원,245306,경보 및 피난설비,
23579,25051,선유도공원,37.542384495585615,126.90181888777212,서울특별시 영등포구 선유로 343,공원,245455,경보 및 피난설비,
23587,25052,선유중학교,37.53328511355852,126.89430023137741,서울특별시 영등포구 선유로  213,학교,245460,경보 및 피난설비,
23643,25087,성가복지병원,37.59217301142522,127.03533649000708,서울특별시 성북구 종암로 11,복지시설,245792,경보 및 피난설비,
23685,25110,성내동우체국,37.52342445421746,127.13418880663441,서울특별시 강동구 양재대로 1309,우체국,245992,경보 및 피난설비,
23710,25136,성동문화회관,37.55931173695771,127.03600909480193,서울특별시 성동구 왕십리로  281,영화관/공연장,246288,경보 및 피난설비,
23729,25143,성동장애인종합복지관,37.57072971002936,127.03415816902093,서울특별시 성동구 청계천로   516,복지시설,246377,경보 및 피난설비,
23758,25154,성모자애복지관,37.470591011692854,127.1193079878192,서울특별시 강남구 헌릉로757길 35,복지시설,246463,경보 및 피난설비,
23773,25157,성민복지관,37.655929913212475,127.06913320420664,서울특별시 노원구 노원로32길 34-3,복지시설,246497,경보 및 피난설비,
23797,25174,성북구보훈회관,37.60497407683325,127.04636840312651,서울특별시 성북구 화랑로  134,복지시설,246653,경보 및 피난설비,
23821,25178,성북동다이아몬드갤러리,37.59681292543692,126.99574685658837,서울특별시 성북구 선잠로5길 15,전시장,246709,경보 및 피난설비,
23840,25186,성북시각장애인복지관,37.5955283953224,127.01940378389963,서울특별시 성북구 동소문로25가길  24,복지시설,246810,경보 및 피난설비,
23868,25197,성사중학교 교무실,37.5680894748525,126.91268332694167,서울특별시 마포구 모래내로9길 16,학교,246938,경보 및 피난설비,
23870,25208,성산임대아파트 사회복지관 ,37.56515695114194,126.90043527997923,서울특별시 마포구 월드컵로  215,복지시설,247045,경보 및 피난설비,
23903,25231,성수문화복지회관,37.54542892060686,127.04694707758443,서울특별시 성동구 뚝섬로1길 43,복지시설,247277,경보 및 피난설비,
23926,25249,성심여자고등학교,37.53421027177274,126.95459415112178,서울특별시 용산구 원효로19길 49,학교,247455,경보 및 피난설비,
23980,25305,성프란치스꼬장애인종합복지관,37.48180191564522,126.89056486396768,서울특별시 구로구 남부순환로 105라길 25-10,복지시설,247907,경보 및 피난설비,
24013,25319,세검정모텔,37.53433070123847,126.95867169533994,서울특별시 용산구 원효로 141,일반숙박시설,248018,경보 및 피난설비,
24130,25420,센트럴시티,37.5039344562304,127.0024111972472,서울특별시 서초구 신반포로  176,영화관/공연장,248829,경보 및 피난설비,
24164,25428,소귀골마을마당,37.63795830027842,127.01558532723557,서울특별시 강북구 수유동 409-104,공원,248887,경보 및 피난설비,
24181,25438,소망어린이공원,37.610260464151175,127.08092846145873,서울특별시 중랑구 동일로154길 53-23,공원,248959,경보 및 피난설비,
24220,25466,솔바람복지센터,37.53600740310847,127.11587298628555,서울특별시 송파구 풍성로5길 16,복지시설,249156,경보 및 피난설비,
24230,25467,솔밭공원,37.672481201462716,127.0063113760668,서울특별시 강북구 삼양로181길 218,공원,249164,경보 및 피난설비,
24233,25468,솔밭근린공원,37.62307723791609,127.0893655403302,서울특별시 노원구 화랑로51길 17,공원,249167,경보 및 피난설비,
24234,25469,솔밭어린이공원,37.509321361263936,127.12487096390079,서울특별시 송파구 마천로 34,공원,249170,경보 및 피난설비,
24251,25481,송계공원,37.58453736315516,127.07796601266115,서울특별시 중랑구 동일로95길 29,공원,249256,경보 및 피난설비,
24258,25483,송곡여자고등학교 ,37.605846967229745,127.10646373713423,서울특별시 중랑구 양원역로  54,학교,249276,경보 및 피난설비,
24270,25492,송암미술관,37.57323806526525,126.98212794055952,서울특별시 종로구 우정국로 45-14,전시장,249341,경보 및 피난설비,
24289,25505,송중문화정보센터,37.61127892995889,127.03062946873978,서울특별시 강북구 도봉로24나길 6,도서관,249463,경보 및 피난설비,
24297,25511,송파1동주민센터,37.50626255660117,127.10931249357498,서울특별시 송파구 백제고분로 392,지역자치센터,249529,경보 및 피난설비,
24302,25519,송파그린공원,37.504500840217965,127.10860872751087,서울특별시 송파구 송파대로42길 2,공원,249635,경보 및 피난설비,
24308,25520,송파나루공원,37.5098079854691,127.09804794436344,서울특별시 송파구 삼학사로 136,공중화장실,249639,경보 및 피난설비,
24352,25558,수락산자연공원,37.66125057554483,127.06025277071224,서울특별시 노원구 상계동,공원,249969,경보 및 피난설비,
24364,25572,수서 2 공원,37.48359241698574,127.08879210734777,서울특별시 강남구 광평로 144,공원,250073,경보 및 피난설비,
24370,25578,수서종합사회복지관,37.487979084583344,127.10563137733976,서울특별시 강남구 광평로56길 11,복지시설,250148,경보 및 피난설비,
24402,25586,수영빌딩,37.47701166097485,126.98701676710579,서울특별시 서초구 효령로 14,종합병원,250222,경보 및 피난설비,
24404,25591,수유1동공원,37.62081831363557,127.0124055909832,서울특별시 강북구 인수봉로1나길 1,공원,250256,경보 및 피난설비,
24414,25598,수유3동지구대,37.64151728074396,127.02542990471972,서울특별시 강북구 한천로144길 1,경찰서,250341,경보 및 피난설비,
24415,25599,수유4동공원,37.65758935555793,127.01192666182043,서울특별시 강북구 삼양로155길 56,공원,250353,경보 및 피난설비,
24417,25600,수유6동마을마당,37.644748950334744,127.00684384600834,서울특별시 강북구 수유동 535-342,공원,250356,경보 및 피난설비,
24430,25605,수유종합사회복지관,37.64256756576402,127.01683718170229,서울특별시 강북구 삼양로112길  5,복지시설,250412,경보 및 피난설비,
24445,25606,수유중학교,37.62366545742876,127.01217951071285,서울특별시 강북구 인수봉로 37-44,학교,250422,경보 및 피난설비,
24487,25626,숙명여자고등학교,37.491474460406096,127.0526123559298,서울특별시 강남구 남부순환로 2807,학교,250583,경보 및 피난설비,
24493,25627,숙명여자대학교 다목적관,37.54463347433031,126.96671373455322,서울특별시 용산구 청파로47가길 6,학교,250595,경보 및 피난설비,
24503,25628,숙명여자대학교 우체국,37.54547273221996,126.96507482960452,서울특별시 용산구 청파로47길 100,우체국,250607,경보 및 피난설비,
24512,25636,순천향대학교병원,37.534280205056426,127.00387848598398,서울특별시 용산구 대사관로 59,종합병원,250668,경보 및 피난설비,
24564,25666,슈페리어타워,37.508095268651935,127.06200242150429,서울특별시 강남구 테헤란로 528,전시장,250931,경보 및 피난설비,
24596,25692,스타시티 영존,37.541063363302115,127.07086006197616,서울특별시 광진구 능동로 114,영화관/공연장,251119,경보 및 피난설비,
24605,25694,스탠포드호텔 서울,37.58235716553853,126.88669989471344,서울특별시 마포구 월드컵북로58길 15,일반숙박시설,251131,경보 및 피난설비,
24625,25709,승가원,37.590077022223966,127.02982819761117,서울특별시 성북구 개운사길 76-1,복지시설,251248,경보 및 피난설비,
24646,25720,시각장애인복지관,37.49838684086344,127.09360904036049,서울특별시 송파구 삼학사로1길 27,복지시설,251338,경보 및 피난설비,
24678,25724,시너지정형외과병원,37.51613923175421,127.03657653314129,서울특별시 강남구 학동로 309,종합병원,251370,경보 및 피난설비,
24698,25728,시루뫼공원,37.58303409574489,126.9065749045865,서울특별시 은평구 증산로5길  13,공중화장실,251406,경보 및 피난설비,
24715,25731,시립광진노인종합복지관 A동,37.55109644167493,127.07159835340424,서울특별시 광진구 군자로 88,복지시설,251442,경보 및 피난설비,
24724,25733,시립노숙인복지시설 보현의집,37.52128419039926,126.91243020912836,서울특별시 영등포구 버드나루로 24,복지시설,251477,경보 및 피난설비,
24750,25735,시립대종합사회복지관,37.609298609165,127.09490307049442,서울특별시 중랑구 신내로 115,복지시설,251507,경보 및 피난설비,
24775,25742,시립서대문농아인복지관,37.570695972747174,126.913798664514,서울특별시 서대문구 수색로4가길 23,복지시설,251597,경보 및 피난설비,
24831,25866,시티월드,37.49435977566779,126.84104871300134,서울특별시 구로구 경인로 176,종합병원,252549,경보 및 피난설비,
24915,25930,신내종합사회복지관,37.60581978854393,127.09160988237798,서울특별시 중랑구 봉화산로 153,복지시설,253146,경보 및 피난설비,
24942,25944,신당제3동주민센터 민원,37.55247290789113,127.00899466106634,서울특별시 중구 다산로 92,지역자치센터,253283,경보 및 피난설비,
24992,26010,신봉어린이공원,37.4844866409245,126.94828802903747,서울특별시 관악구 봉천로41길 35,공원,253869,경보 및 피난설비,
25062,26082,신원동 주민센터,37.48157797027881,126.92733741467644,서울특별시 관악구 신원로3길 13-6,지역자치센터,254481,경보 및 피난설비,
25121,26154,신촌민자역사(메가박스),37.5589747524222,126.94145945501766,서울특별시 서대문구 신촌역로  34,영화관/공연장,255178,경보 및 피난설비,
25142,26166,신트리공원 화장실,37.51328142176133,126.85550471374307,서울특별시 양천구 신정로 314-7,공중화장실,255278,경보 및 피난설비,
25181,26195,실로암시각장애인복지관,37.48294075103726,126.94110275358429,서울특별시 관악구 남부순환로 1717,복지시설,255539,경보 및 피난설비,
25297,26240,써튼호텔,37.568604335993854,126.99074984658421,서울특별시 종로구 청계천로 117,일반숙박시설,255932,경보 및 피난설비,
25326,26255,씨네시티빌딩,37.52289661859363,127.03701422852512,서울특별시 강남구 도산대로 323,영화관/공연장,256059,경보 및 피난설비,
25393,26291,아라아트센터,37.573098060366355,126.98623487228724,서울특별시 종로구 인사동길 26,전시장,256308,경보 및 피난설비,
25404,26297,아랫말어린이공원,37.511366314564405,127.10880416970615,서울특별시 송파구 오금로 123-2,공원,256358,경보 및 피난설비,
25422,26303,아름다운교회사랑의집,37.63248648305026,127.02206437733852,서울특별시 강북구 도봉로71가길 27,복지시설,256402,경보 및 피난설비,
25441,26309,아름뜰(홀트아동복지회),37.54920005176802,126.91638545592916,서울특별시 마포구 양화로8길  32-3,복지시설,256462,경보 및 피난설비,
25470,26318,아모렉스 관광호텔,37.56279031710285,127.03352071086559,서울특별시 성동구 왕십리로24길 1,일반숙박시설,256524,경보 및 피난설비,
25567,26406,아차산생태공원,37.55175663999483,127.10037527905388,서울특별시 광진구 영화사로 145,공중화장실,257148,경보 및 피난설비,
25585,26413,아카시아호텔,37.566496338001926,127.00267128571907,서울특별시 중구 동호로 364,일반숙박시설,257206,경보 및 피난설비,
25600,26418,아트레온,37.55840541474453,126.92853499410305,서울특별시 서대문구 신촌로  12,영화관/공연장,257249,경보 및 피난설비,
25623,26431,안골어린이공원,37.51638251262288,127.1054813674752,서울특별시 송파구 오금로 66-12,공원,257380,경보 및 피난설비,
25649,26442,안세빌딩,37.516824834539435,126.90618242477595,서울특별시 영등포구 영중로   5,종합병원,257455,경보 및 피난설비,
25678,26461,암사1동 주민센터,37.55147973127575,127.13264116774765,서울특별시 강동구 올림픽로98가길 57,지역자치센터,257592,경보 및 피난설비,
25693,26466,암사 재활원,37.557968244483426,127.13144846416485,서울특별시 강동구 올림픽로 864,복지시설,257663,경보 및 피난설비,
25707,26467,압구정CGV,37.52508966110562,127.03072089909469,서울특별시 강남구 압구정로34길  45,영화관/공연장,257682,경보 및 피난설비,
25726,26469,압구정고등학교,37.5311762106343,127.03301328155595,서울특별시 강남구 압구정로39길 20,학교,257701,경보 및 피난설비,
25771,26490,약수JK빌딩,37.5544297915077,127.01003607699649,서울특별시 중구 다산로11길 3,종합병원,257854,경보 및 피난설비,
25781,26492,약수암어린이공원,37.45957862932941,126.9329784934486,서울특별시 관악구 약수암길 33,공원,257870,경보 및 피난설비,
25791,26519,양지근린공원,37.646357921571386,127.074953055972,서울특별시 노원구 한글비석로5길 61,공원,258144,경보 및 피난설비,
25800,26526,양지어린이공원(화장실),37.59020589735507,127.08888690584149,서울특별시 중랑구 면목로78길 26-5,공원,258184,경보 및 피난설비,
25809,26536,양천공원 화장실,37.51801388266084,126.86816466108671,서울특별시 양천구 신정동 320,공중화장실,258271,경보 및 피난설비,
25816,26537,양천구민회관,37.51651994177261,126.86333956388799,서울특별시 양천구 목동서로 367,영화관/공연장,258289,경보 및 피난설비,
25873,26585,어반하이브,37.50490856937278,127.02479086770352,서울특별시 강남구 강남대로 476,종합병원,258709,경보 및 피난설비,
25896,26614,에넥스 빌딩,37.511864331806,127.02476602232497,서울특별시 강남구 학동로 124,전시장,258940,경보 및 피난설비,
25902,26618,에덴장애인종합복지관,37.5011788522105,126.84124687039156,서울특별시 구로구 고척로21가길 84-35,복지시설,258983,경보 및 피난설비,
25918,26627,에버그린하우스,37.615183661906784,126.91424569590326,서울특별시 은평구 연서로21길 27-14,복지시설,259062,경보 및 피난설비,
26030,26705,여성프라자,37.51161024945213,126.9272268735857,서울특별시 동작구 여의대방로54길 18,복지시설,259644,경보 및 피난설비,
26039,26707,여의도공원,37.53009488041634,126.92667492138085,서울특별시 영등포구 여의공원로 124,공원,259666,경보 및 피난설비,
26041,26727,역삼개나리공원,37.49759303909439,127.03626893858394,서울특별시 강남구 논현로79길 24,공원,259851,경보 및 피난설비,
26043,26728,역삼공원,37.5025141908175,127.03039046167349,서울특별시 강남구 테헤란로7길 32,공원,259854,경보 및 피난설비,
26054,26733,역삼 무궁화공원,37.49385683959179,127.03220980874256,서울특별시 강남구 역삼로 117,공원,259893,경보 및 피난설비,
26056,26737,역삼 장미공원,37.495344877546394,127.04460430020431,서울특별시 강남구 언주로65길 16,공원,259916,경보 및 피난설비,
26090,26766,연세가양4종합복지관,37.56593156944718,126.8520707894286,서울특별시 강서구 양천로57길 37,복지시설,260194,경보 및 피난설비,
26101,26771,연세대학교강서지역자활센타,37.530967347037155,126.85343867486813,서울특별시 강서구 곰달래로  184,복지시설,260270,경보 및 피난설비,
26121,26792,연세에덴요양병원,37.60615009391692,126.9333953356898,서울특별시 은평구 통일로 669,종합병원,260532,경보 및 피난설비,
26128,26795,연세의료원 의과대학교수연구동,37.561407126853716,126.9408237307159,서울특별시 서대문구 연세로  54,학교,260570,경보 및 피난설비,
26163,26831,연희어린이집,37.5677496836085,126.92149911176304,서울특별시 서대문구 연희동 446-182,공원,260829,경보 및 피난설비,
26165,26841,열린여성센터,37.570482008897095,126.92226597746088,서울특별시 서대문구 홍제천로2길 66-14,복지시설,260921,경보 및 피난설비,
26186,26847,열방교회사회복지관,37.51036082715669,126.84315021326874,서울특별시 양천구 신정로13길 11,복지시설,260975,경보 및 피난설비,
26204,26855,염창근린공원,37.55700738623271,126.86982079088516,서울특별시 강서구 양천로67길  43,공원,261046,경보 및 피난설비,
26281,26938,영산문화재단,37.480484024671945,127.03841785614642,서울특별시 서초구 바우뫼로37길 45,영화관/공연장,261850,경보 및 피난설비,
26344,26981,영진오피스,37.47888967619931,126.89432715056292,서울특별시 구로구 남부순환로 1291,종합병원,262165,경보 및 피난설비,
26351,26986,영축산근린공원,37.62579105975489,127.0535859337882,서울특별시 노원구 월계로 284,공원,262204,경보 및 피난설비,
26440,27053,예술인센터,37.527073608816046,126.87074619293999,서울특별시 양천구 목동서로 225,영화관/공연장,262729,경보 및 피난설비,
26476,27114,오동나무어린이공원,37.51460758686387,127.10742438901728,서울특별시 송파구 오금로 84,공원,263230,경보 및 피난설비,
26517,27184,오현어린이공원,37.64108882242771,127.02344921966407,서울특별시 강북구 한천로145길  23,공원,263787,경보 및 피난설비,
26528,27198,온곡중학교,37.62542245839128,127.0857887210488,서울특별시 노원구 노원로 42,학교,263914,경보 및 피난설비,
26535,27203,온달공원,37.545987048372695,127.10407463168372,서울특별시 광진구 아차산로73길 15,공중화장실,263960,경보 및 피난설비,
26553,27219,올림픽공원,37.52034113915062,127.11551844445054,서울특별시 송파구 올림픽로 424,영화관/공연장,264087,경보 및 피난설비,
26647,27260,용강동주민센터,37.54288597286293,126.940349545978,서울특별시 마포구 토정로27길 14,지역자치센터,264391,경보 및 피난설비,
26648,27263,용답꽃공원,37.56731516163026,127.04888958988006,서울특별시 성동구 용답길  27-1 ,공중화장실,264425,경보 및 피난설비,
26654,27272,용마문화복지센터,37.58700426419113,127.09518724840542,서울특별시 중랑구 용마산로 393 (면목동),복지시설,264538,경보 및 피난설비,
26668,27276,용마폭포공원 (화장실) ,37.57335354193261,127.08912044129406,서울특별시 중랑구 용마산로 254-12,공원,264576,경보 및 피난설비,
26685,27288,용산경찰서 원효지구대,37.538902625067685,126.96501453114469,서울특별시 용산구 백범로 329,경찰서,264686,경보 및 피난설비,
26694,27291,용산구보건소,37.53245265481936,126.99047825509771,서울특별시 용산구 녹사평대로 150,보건소,264719,경보 및 피난설비,
26701,27296,용산문화원,37.53342351659932,126.95186116423416,서울특별시 용산구 효창원로8길  28,영화관/공연장,264799,경보 및 피난설비,
26828,27396,우이동길마당,37.639778112614756,127.01687280853615,서울특별시 강북구 수유동 392-123,공원,265582,경보 및 피난설비,
26837,27399,우이새길요양병원,37.65745218883934,127.01391214662264,서울특별시 도봉구 삼양로 610,종합병원,265614,경보 및 피난설비,
26926,27467,원익빌딩,37.48628534229936,126.94119962866276,서울특별시 관악구 은천로 51,종합병원,266151,경보 및 피난설비,
26932,27477,원터근린공원,37.6504338787737,127.06275967540695,서울특별시 노원구 동일로214길 21,공원,266215,경보 및 피난설비,
26966,27507,월곡종합사회복지관,37.60890914248347,127.03751435901276,서울특별시 성북구 오패산로16길 23,복지시설,266545,경보 및 피난설비,
27022,27530,웨스틴조선호텔 서울점,37.564483681788396,126.98018321530917,서울특별시 중구 소공로 106,일반숙박시설,266732,경보 및 피난설비,
27055,27544,위드 자립생활센터,37.60680802070691,126.90935833499806,서울특별시 은평구 갈현로15길 11-13,복지시설,266863,경보 및 피난설비,
27129,27571,유린원광종합사회복지관,37.604472090632704,127.09591616643242,서울특별시 중랑구 신내로 56,복지시설,267071,경보 및 피난설비,
27155,27582,유석초등학교 행정실,37.559989927598075,126.853132848803,서울특별시 강서구 화곡로 403,학교,267156,경보 및 피난설비,
27203,27615,유타몰,37.59257350035878,127.01708860457896,서울특별시 성북구 동소문로 106,영화관/공연장,267408,경보 및 피난설비,
27232,27631,윤강,37.53527090261717,127.08318714986248,서울특별시 광진구 자양로13길 13,종합병원,267548,경보 및 피난설비,
27237,27632,윤당빌딩,37.52565466934934,127.03373034442323,서울특별시 강남구 언주로  844,영화관/공연장,267566,경보 및 피난설비,
27339,27711,은행나무공원,37.47602901200653,127.04926870988001,서울특별시 강남구 개포로20길 48,공원,268205,경보 및 피난설비,
27368,27728,을지병원,37.63655849704024,127.0695910964754,서울특별시 노원구 한글비석로 68,종합병원,268344,경보 및 피난설비,
27374,27737,응봉산인공암벽공원,37.54865975587134,127.03101574091205,서울특별시 성동구 독서당로60길 13-1,공중화장실,268444,경보 및 피난설비,
27511,27842,이응노미술관,37.609349229484025,126.97852232505257,서울특별시 종로구 평창24길 51,전시장,269287,경보 및 피난설비,
27525,27845,이젠호텔,37.55643657115681,126.93952841440263,서울특별시 서대문구 연세로2길 48,일반숙박시설,269317,경보 및 피난설비,
27537,27853,이지호텔,37.55329404008532,126.85051591880837,서울특별시 강서구 화곡로  327,일반숙박시설,269387,경보 및 피난설비,
27548,27862,이태원 IP호텔,37.535365060450786,126.9982304434218,서울특별시 용산구 이태원로 221,일반숙박시설,269499,경보 및 피난설비,
27551,27864,이태원어린이공원(이태원중부경로당 옆),37.53840634216576,126.98903373474093,서울특별시 용산구 회나무로6길 11-8,공원,269514,경보 및 피난설비,
27590,27892,이화여자대학교사범대학 부속초등학교,37.5611486017934,126.9427751922987,서울특별시 서대문구 성산로 512-39,학교,269761,경보 및 피난설비,
27598,27896,이화학원,37.56444557044906,126.97030426691003,서울특별시 중구 통일로4길 34,학교,269787,경보 및 피난설비,
27619,27904,인수마을마당,37.64223676387937,127.01020197255384,서울특별시 강북구 인수봉로73길 1,공원,269862,경보 및 피난설비,
27628,27905,인수중학교,37.6438657673206,127.0099211930666,서울특별시 강북구 인수봉로75길 10,학교,269866,경보 및 피난설비,
27709,27991,임금샘어린이공원,37.51077165701114,127.12346181951759,서울특별시 송파구 양재대로71길 24-14,공원,270439,경보 및 피난설비,
27733,28000,자양 3세대 종합복지센터,37.53289759581719,127.07523308742977,서울특별시 광진구 자양번영로 35,복지시설,270510,경보 및 피난설비,
27759,28015,자운고등학교,37.65904586564025,127.05069043467054,서울특별시 도봉구 노해로69길 150,학교,270673,경보 및 피난설비,
27777,28021,작은예수의집,37.62334744599632,126.9261393807284,서울특별시 은평구 연서로37길 21-5,복지시설,270755,경보 및 피난설비,
27786,28022,잔디네집,37.560388421927684,126.91865467935726,서울특별시 마포구 월드컵북로8길  41,복지시설,270776,경보 및 피난설비,
27808,28027,잠실2동주민센터,37.51189140814292,127.08854058925074,서울특별시 송파구 올림픽로 159,지역자치센터,270828,경보 및 피난설비,
27817,28029,잠실4동주민센터 개방화장실,37.52014216775801,127.11256344446915,서울특별시 송파구 올림픽로35길 12,지역자치센터,270855,경보 및 피난설비,
27824,28032,잠실관광호텔,37.50492160483204,127.08804830224688,서울특별시 송파구 삼전로 67,일반숙박시설,270896,경보 및 피난설비,
27827,28034,잠실근린공원,37.506218269922854,127.08417731646028,서울특별시 송파구 백제고분로15길 7,공원,270911,경보 및 피난설비,
27833,28050,장미원공원,37.64650676772303,127.01612194295973,서울특별시 강북구 삼양로126길 11,공원,271052,경보 및 피난설비,
27849,28064,장안빌딩,37.564234393309405,127.05559275296908,서울특별시 성동구 천호대로 324,종합병원,271179,경보 및 피난설비,
27854,28066,장안종합복지관,37.567951852620475,127.06617220033043,서울특별시 동대문구 한천로18길  48,복지시설,271209,경보 및 피난설비,
27873,28072,장애인사랑의쉼터의집,37.550367907036325,127.12435547520664,서울특별시 강동구 상암로7길 24,복지시설,271272,경보 및 피난설비,
27889,28073,장애인전산교육장,37.48987837592232,126.88655929809906,서울특별시 구로구 구로동로26길 54,복지시설,271293,경보 및 피난설비,
27897,28075,장애인주간보호시설,37.43525843377429,126.90641540220813,서울특별시 금천구 시흥대로2길 57,복지시설,271337,경보 및 피난설비,
27930,28094,장지동주민센터,37.48696457375932,127.13243656178442,서울특별시 송파구 새말로19길 6,지역자치센터,271513,경보 및 피난설비,
27978,28146,전쟁기념관(전시장),37.53501987989932,126.97422161707392,서울특별시 용산구 이태원로 2,전시장,271959,경보 및 피난설비,
28032,28188,정릉종합사회복지관,37.609307840329926,127.00476123686786,서울특별시 성북구 솔샘로5길  2,복지시설,272331,경보 및 피난설비,
28093,28234,정의여자고등학교,37.653354488328986,127.03242816111988,서울특별시 도봉구 노해로49길 69,학교,272686,경보 및 피난설비,
28205,28327,조인트 병원,37.473729157922655,126.91754583975374,서울특별시 관악구 난곡로215 (신림동),종합병원,273406,경보 및 피난설비,
28217,28329,조하네스빌딩,37.48372831894103,127.02162709052679,서울특별시 서초구 남부순환로337가길 4,학교,273423,경보 및 피난설비,
28246,28346,종로 산업정보학교,37.57257143054396,127.01718817657421,서울특별시 종로구 종로58길 28,학교,273599,경보 및 피난설비,
28281,28382,주류성빌딩,37.50117824142917,127.02556317947338,서울특별시 서초구 강남대로 435,종합병원,273907,경보 및 피난설비,
28286,28383,"주몽 학교,주몽재활원",37.55047667562073,127.12713048064495,서울특별시 강동구 상암로 36,복지시설,273928,경보 및 피난설비,
28314,28389,주식회사 석파문화원,37.594702550347584,126.96320387574762,서울특별시 종로구 자하문로  231,전시장,273971,경보 및 피난설비,
28359,28426,중계종합사회복지관,37.65609213052153,127.07496737302755,서울특별시 노원구 덕릉로 662,복지시설,274277,경보 및 피난설비,
28397,28458,중랑구립 면목정보도서관,37.5872299258896,127.08767416205816,서울특별시 중랑구 면목로 397 (면목동),도서관,274659,경보 및 피난설비,
28400,28460,중랑구립직업재활센터,37.61735834591804,127.08366362562721,서울특별시 중랑구 숙선옹주로9길 55 (묵동),복지시설,274699,경보 및 피난설비,
28415,28464,중랑노인종합복지관,37.58843333651904,127.07784326623634,서울특별시 중랑구 겸재로9길 45 (면목동),복지시설,274760,경보 및 피난설비,
28429,28470,중랑캠핑숲,37.60495358417453,127.10995957035955,서울특별시 중랑구 망우로87길 114,공원,274812,경보 및 피난설비,
28436,28480,중소기업글로벌 지원센터 ,37.56819514178093,126.91425431702145,서울특별시 마포구 성암로 18,전시장,274935,경보 및 피난설비,
28441,28484,중앙고등학교,37.58378759257659,126.98747375436035,서울특별시 종로구 창덕궁길 164,학교,274977,경보 및 피난설비,
28452,28486,중앙대우체국,37.50472130990483,126.9522279373572,서울특별시 동작구 흑석로14다길 7,우체국,275003,경보 및 피난설비,
28486,28516,중화1치안센터,37.60116122731628,127.07981335683844,서울특별시 중랑구 동일로 792 (중화동),경찰서,275307,경보 및 피난설비,
28495,28520,중화문화복지센터,37.59501969440208,127.07489247448136,서울특별시 중랑구 중랑역로3길 28,복지시설,275368,경보 및 피난설비,
28568,28569,진관지구대 ,37.6399473837023,126.92085216925652,서울특별시 은평구 진관3로  38,경찰서,275777,경보 및 피난설비,
28619,28617,참사랑너나울주간센터,37.64098042526975,127.02481335350059,서울특별시 강북구 한천로143길 3,복지시설,276155,경보 및 피난설비,
28679,28668,창동창작스튜디오,37.64073859964714,127.03938852120892,서울특별시 도봉구 덕릉로   257,전시장,276599,경보 및 피난설비,
28695,28681,창신 모자원,37.48985843949111,126.84111705028654,서울특별시 구로구 오류로8나길 28,복지시설,276744,경보 및 피난설비,
28772,28750,천호3동공원,37.540092549733636,127.12807236042023,서울특별시 강동구 진황도로2길 34,공원,277222,경보 및 피난설비,
28780,28753,천호3 치안센터,37.53788382705582,127.12758431471909,서울특별시 강동구 천호대로159길 7,경찰서,277242,경보 및 피난설비,
28795,28765,청계문화회관,37.571266444339074,127.0350413529804,서울특별시 성동구 청계천로  534,전시장,277341,경보 및 피난설비,
28805,28782,청담은행나무공원,37.525175465261455,127.0442555211697,서울특별시 강남구 도산대로67길 15,공원,277491,경보 및 피난설비,
28814,28795,청룡동자치회관,37.48134296199308,126.94613750493556,서울특별시 관악구 청룡길  12-3,지역자치센터,277603,경보 및 피난설비,
28824,28805,청소년랜드,37.64821330621304,127.02583105275372,서울특별시 도봉구 노해로 144,복지시설,277724,경보 및 피난설비,
28840,28806,청소년문화의집,37.65421670084514,127.02907870554549,서울특별시 도봉구 시루봉로2길 34,복지시설,277746,경보 및 피난설비,
28850,28807,청소년문화회관,37.640738169163775,127.04065751021268,서울특별시 도봉구 덕릉로62길 8,복지시설,277768,경보 및 피난설비,
28864,28811,청소년 체력단련장,37.477511144617424,127.07501925053705,서울특별시 강남구 광평로10길 30-71,공원,277819,경보 및 피난설비,
28905,28840,청음회관,37.509660515785015,127.04336867118721,서울특별시 강남구 봉은사로54길 6,복지시설,278077,경보 및 피난설비,
28958,28862,청회파출소,37.58346975665444,127.04495118675676,서울특별시 동대문구 약령시로21길  8,경찰서,278255,경보 및 피난설비,
28984,28879,초안산근린공원,37.63374019856265,127.05608859660042,서울특별시 노원구 초안산로2길 81-52,공원,278378,경보 및 피난설비,
29009,28894,최병만,37.4813462694,126.91497323629999,서울특별시 관악구 난곡로64길5 (신림동),일반숙박시설,278483,경보 및 피난설비,
29015,28910,충숙근린공원,37.64256188229099,127.0766578866382,서울특별시 노원구 한글비석로 168,공원,278649,경보 및 피난설비,
29034,28925,충현복지관,37.47400672167875,127.05027579224868,서울특별시 강남구 논현로8길 16,복지시설,278796,경보 및 피난설비,
29087,28946,칼튼호텔,37.554543459623694,126.85245545289158,서울특별시 강서구 화곡로  354-14,일반숙박시설,278947,경보 및 피난설비,
29098,28950,캘리포니아관광호텔,37.494103905988936,127.11912826555708,서울특별시 송파구 송파대로28길 11,일반숙박시설,278978,경보 및 피난설비,
29128,28969,코리아관광호텔,37.53422281397543,127.13351572798048,서울특별시 강동구 성안로 121,일반숙박시설,279087,경보 및 피난설비,
29188,29009,크라운관광호텔,37.53174986838762,126.99041046191596,서울특별시 용산구 녹사평대로  144,일반숙박시설,279391,경보 및 피난설비,
29209,29025,큰마을마당,37.62476379989109,127.01875436623024,서울특별시 강북구 삼양로54길 1,공원,279500,경보 및 피난설비,
29216,29027,큰바위어린이공원,37.496906611258304,127.14297553336573,서울특별시 송파구 오금로 53길,공원,279512,경보 및 피난설비,
29268,29072,타임스퀘어(CGV영등포),37.517233707169474,126.90371599319953,서울특별시 영등포구 영중로  15,영화관/공연장,279821,경보 및 피난설비,
29290,29077,탄현기념박물관,37.47898217649271,127.1029550679948,서울특별시 강남구 밤고개로14길 13-51,전시장,279857,경보 및 피난설비,
29339,29101,태승빌딩,37.53809651518357,127.12415405824757,서울특별시 강동구 천호대로 1012,종합병원,280065,경보 및 피난설비,
29379,29127,태화기독교사회복지관,37.4848286534059,127.09339764688215,서울특별시 강남구 광평로 185,복지시설,280258,경보 및 피난설비,
29463,29166,투비인관광호텔,37.53755785394993,127.13860872869637,서울특별시 강동구 천중로42길 75,일반숙박시설,280544,경보 및 피난설비,
29476,29188,튼튼영어(유니북스 사옥),37.484288554654405,127.04231379470578,서울특별시 강남구 논현로  164,영화관/공연장,280749,경보 및 피난설비,
29508,29193,티지아이에프빌딩,37.550103350883774,127.09027872272486,서울특별시 광진구 천호대로 684,학교,280780,경보 및 피난설비,
29510,29194,티타운빌딩,37.48214814752219,126.89893099585429,서울특별시 구로구 디지털로32가길 25,종합병원,280798,경보 및 피난설비,
29538,29207,파레스호텔,37.558616359490046,126.97999462999336,서울특별시 중구 퇴계로8길 13,일반숙박시설,280889,경보 및 피난설비,
29585,29225,파인블루빌딩,37.55224124081821,126.86831262426232,서울특별시 강서구 양천로  644,종합병원,281010,경보 및 피난설비,
29603,29232,파크하얏트서울,37.50873196084404,127.0642831000689,서울특별시 강남구 테헤란로 606,일반숙박시설,281060,경보 및 피난설비,
29627,29244,팰리스호털,37.50144407512777,127.00247444856949,서울특별시 서초구 사평대로  164,일반숙박시설,281153,경보 및 피난설비,
29644,29249,퍼시픽호텔,37.560758100743215,126.98693886745892,서울특별시 중구 퇴계로24길 2,일반숙박시설,281192,경보 및 피난설비,
29711,29278,평창동주민센터,37.60637367867771,126.96836687860072,서울특별시 종로구 평창문화로 65,지역자치센터,281386,경보 및 피난설비,
29715,29286,평화종합사회복지관,37.646177365623295,127.06965899136732,서울특별시 노원구 노원로 331,복지시설,281460,경보 및 피난설비,
29748,29293,포스코메디칼,37.50519098185857,126.89740705444599,서울특별시 영등포구 도신로 41,종합병원,281522,경보 및 피난설비,
29806,29334,프란체스코의집,37.647252268628186,127.01952147940388,서울특별시 강북구 노해로23길 88-18,복지시설,281864,경보 및 피난설비,
29823,29337,프레이저플레이스센트럴서울,37.56258217570571,126.96977530472992,서울특별시 중구 통일로 78,일반숙박시설,281890,경보 및 피난설비,
29832,29338,프레지던트호텔,37.565633224291844,126.97943133739678,서울특별시 중구 을지로 16,일반숙박시설,281903,경보 및 피난설비,
29842,29339,프렌드호텔,37.48686020806428,127.0217139264024,서울특별시 서초구 효령로 345,일반숙박시설,281916,경보 및 피난설비,
29860,29343,프로비스타,37.49484726568385,127.0186268424658,서울특별시 서초구 서초대로 338,일반숙박시설,281941,경보 및 피난설비,
29896,29356,플라망스타워,37.59332656717455,127.01817579145664,서울특별시 성북구 동소문로  118,종합병원,282040,경보 및 피난설비,
29905,29359,플라타너스공원,37.63835692387861,127.02401032407205,서울특별시 강북구 노해로8길 23,공원,282065,경보 및 피난설비,
29933,29379,피카다리플러스,37.57102624835606,126.99122950203235,서울특별시 종로구 돈화문로5가길 1,영화관/공연장,282205,경보 및 피난설비,
29965,29390,필름포럼(빌딩),37.563776537733396,126.94409066661801,서울특별시 서대문구 성산로 527,영화관/공연장,282283,경보 및 피난설비,
29987,29398,하계2 치안센터,37.631943035351576,127.06754758597204,서울특별시 노원구 공릉로55길 96,경찰서,282355,경보 및 피난설비,
30065,29437,하늘빌딩,37.48496126942052,127.03509598049035,서울특별시 강남구 남부순환로 2609,종합병원,282670,경보 및 피난설비,
30099,29459,하상장애인복지관,37.49255430492796,127.07513380267449,서울특별시 강남구 개포로 613,복지시설,282837,경보 및 피난설비,
30119,29495,하이원빌리지(원불교수도원),37.52455843520887,126.96417956815701,서울특별시 용산구 한강대로44가길 24,종합병원,283105,경보 및 피난설비,
30127,29500,하이해리엇,37.56126607811881,126.98536328312971,서울특별시 중구 퇴계로 123,영화관/공연장,283149,경보 및 피난설비,
30146,29503,하트하트재단사옥,37.496937004755466,127.12575954295937,서울특별시 송파구 송이로23길 34,복지시설,283185,경보 및 피난설비,
30160,29504,학교법인대원학원인정관,37.56249450458611,127.08943800174808,서울특별시 광진구 용마산로22길 26,학교,283195,경보 및 피난설비,
30168,29506,학교법인 신진학원,37.59871321499028,126.91883492175856,서울특별시 은평구 은평로6길 16,학교,283216,경보 및 피난설비,
30170,29508,학동어린이공원,37.5116695500475,127.03877768053007,서울특별시 강남구 언주로116길 27,공원,283243,경보 및 피난설비,
30277,29581,한국고려인삼,37.57597180886742,126.93582215721442,서울특별시 서대문구 연희로 212,전시장,283842,경보 및 피난설비,
30315,29614,한국 시각장애인 복지관,37.55111217993112,127.16924768085251,서울특별시 강동구 구천면로 645,복지시설,284138,경보 및 피난설비,
30343,29623,한국외국어대학교우체국,37.59829802897999,127.05794173534115,서울특별시 동대문구 이문로 107,우체국,284211,경보 및 피난설비,
30354,29632,한국잡지협회,37.51976434842465,126.93024150610664,서울특별시 영등포구 여의대방로67길 11,전시장,284301,경보 및 피난설비,
30367,29642,한국체육대학교,37.51990580247737,127.13200155968521,서울특별시 송파구 양재대로 1239,학교,284393,경보 및 피난설비,
30386,29657,한남동고미술센터,37.53808968343471,126.9980674471848,서울특별시 용산구 이태원로55길 64-16,전시장,284487,경보 및 피난설비,
30407,29669,한내근린공원,37.62282791734698,127.06882614620865,서울특별시 노원구 월계동 1-4,공원,284578,경보 및 피난설비,
30442,29690,한맘플러스재활의학과의원,37.503533892342475,127.05944722750549,서울특별시 강남구 역삼로509,종합병원,284739,경보 및 피난설비,
30463,29712,한빛효정,37.62948895668255,127.0161681118612,서울특별시 강북구 삼양로77길 38,복지시설,284937,경보 및 피난설비,
30514,29734,한성백제박물관,37.51542719175843,127.1208000257984,서울특별시 송파구 위례성대로 71,전시장,285119,경보 및 피난설비,
30542,29759,한신어린이공원,37.588390794838006,127.07676533713243,서울특별시 중랑구 겸재로3길 54,공원,285317,경보 및 피난설비,
30556,29765,한양대병원 ,37.554503908803866,127.04661325410736,서울특별시 성동구 왕십리로 222,종합병원,285356,경보 및 피난설비,
30626,29825,한천증학교,37.631313046312435,127.07244106966206,서울특별시 노원구 공릉로 265,학교,285829,경보 및 피난설비,
30691,29860,해마을주간보호센터,37.49405188190481,127.07775877337164,서울특별시 강남구 개포로 617-8,복지시설,286102,경보 및 피난설비,
30727,29889,해태어린이공원,37.472323015777796,126.94062271896036,서울특별시 관악구 서림3길 47,공원,286321,경보 및 피난설비,
30734,29890,해태제과식품㈜,37.54071046953972,126.97364032450923,서울특별시 용산구 한강대로72길 3,전시장,286324,경보 및 피난설비,
30747,29905,햇살요양병원,37.57228192048,127.06950860418002,서울특별시 동대문구 답십리로 264,종합병원,286443,경보 및 피난설비,
30757,29909,행당제2동주민센터,37.558221571800146,127.0293492031456,서울특별시 성동구 행당로9길 9,지역자치센터,286494,경보 및 피난설비,
30804,29945,허준박물관,37.56787280634384,126.85103011124257,서울특별시 강서구 허준로 87,전시장,286806,경보 및 피난설비,
30855,29988,현대크리닉빌딩,37.49476531661165,126.98886371146713,서울특별시 서초구 방배로  245,종합병원,287130,경보 및 피난설비,
30980,30018,고척근린공원 소공원 화장실,37.50300900000001,126.85281100000002,서울특별시 구로구 고척동 164-12,공중화장실,287352,경보 및 피난설비,
30990,30019,잦절약수터 입구 화장실,37.502194,126.839656,서울특별시 구로구 개봉동 46-2,공중화장실,287365,경보 및 피난설비,
31001,30020,개웅산공원 화장실,37.485145,126.847953,서울특별시 구로구 개봉동 산60-5,공중화장실,287385,경보 및 피난설비,
31016,30021,목감교 화장실,37.491017,126.863285,서울특별시 구로구 개봉동 372-1,공중화장실,287400,경보 및 피난설비,
31036,30024,구일역제방앞 화장실,37.495033,126.87102900000001,서울특별시 구로구 구로동 642-76,공중화장실,287421,경보 및 피난설비,
31063,30028,동양미래대학옆제방 화장실,37.500023999999996,126.86924499999999,서울특별시 구로구 고척동 279-1,공중화장실,287457,경보 및 피난설비,
31107,30035,온수체육공원 화장실,37.493255,126.819401,서울특별시 구로구 온수동 산10-4,공중화장실,287515,경보 및 피난설비,
31121,30036,남구로시장 화장실,37.489768,126.88708799999999,서울특별시 구로구 구로4동 741-44,공중화장실,287523,경보 및 피난설비,
31131,30037,뱀쇠다리 옆 화장실,37.489290999999994,126.87251100000002,서울특별시 구로구 구로동 689-8,공중화장실,287537,경보 및 피난설비,
31138,30038,참새소공원 화장실,37.505251,126.84421100000002,서울특별시 구로구 개봉동 1-13,공중화장실,287554,경보 및 피난설비,
31151,30039,덕의근린공원 화장실,37.506931,126.856076,서울특별시 구로구 고척동 339-4,공중화장실,287561,경보 및 피난설비,
31157,30040,마장축산물평면주차장 화장실,37.571378,127.040233,서울특별시 성동구 마장동 525,공중화장실,287579,경보 및 피난설비,
31199,30047,성삼공원 화장실,37.56161138,127.0269475,서울특별시 성동구 성수동2가 273-11,공중화장실,287627,경보 및 피난설비,
31317,30067,올림픽공원-프라자A동 화장실,37.493833,127.12048200000001,서울특별시 송파구 오륜동 88,공중화장실,287751,경보 및 피난설비,
31325,30068,올림픽공원-프라자C동 화장실,37.514516,127.108802,서울특별시 송파구 오륜동 88,공중화장실,287763,경보 및 피난설비,
31340,30071,청소년 수련관 화장실,37.507065000000004,127.07988600000002,서울특별시 송파구 문정2동 150-8,공중화장실,287784,경보 및 피난설비,
31350,30073,서울영어마을풍납캠프 화장실,37.509334,127.085974,서울특별시 송파구 풍납2동 281-1,공중화장실,287807,경보 및 피난설비,
31359,30074,송파우체국 화장실,37.538261999999996,127.12283799999999,서울특별시 송파구 오금동 50-3,공중화장실,287819,경보 및 피난설비,
31368,30075,송파나루(더다이닝) 화장실 화장실,37.512456,127.10506399999998,서울특별시 송파구 잠실동 47,공중화장실,287832,경보 및 피난설비,
31385,30077,한국조세연구원빌딩 화장실,37.512144,127.08300700000001,서울특별시 송파구 가락본동 79-6,공중화장실,287849,경보 및 피난설비,
31431,30084,거여119안전센터 화장실,37.508236,127.10388700000001,서울특별시 송파구 거여2동 307-11,공중화장실,287891,경보 및 피난설비,
31483,30093,아시아선수촌A동상가 화장실,37.516312,127.10041299999999,서울특별시 송파구 잠실동 85-1,공중화장실,287937,경보 및 피난설비,
31499,30095,풍납백제문화공원 화장실,37.511469,127.08168899999998,서울특별시 송파구 풍납동 197,공중화장실,287954,경보 및 피난설비,
31520,30098,KT가락지점 화장실,37.512572,127.10819,서울특별시 송파구 가락본동 77-6,공중화장실,287977,경보 및 피난설비,
31546,30102,방이공원 화장실 화장실,37.508540999999994,127.076715,서울특별시 송파구 방이동 52,공중화장실,288002,경보 및 피난설비,
31556,30103,송이공원 화장실 화장실,37.520247,127.115553,서울특별시 송파구 송파동 169,공중화장실,288015,경보 및 피난설비,
31572,30105,가락공원1(관리동) 화장실 화장실,37.494547,127.120977,서울특별시 송파구 가락동 37,공중화장실,288032,경보 및 피난설비,
31725,30131,산성 화장실 화장실,37.477614,127.124945,서울특별시 송파구 마천동 277-30,공중화장실,288224,경보 및 피난설비,
31761,30138,가윤빌딩 화장실,37.485902,127.13243100000001,서울특별시 송파구 가락동 124-4,공중화장실,288261,경보 및 피난설비,
31773,30141,로데오 상점가-취약지역 화장실,37.493745000000004,127.144305,서울특별시 송파구 문정동 29-24,공중화장실,288299,경보 및 피난설비,
31802,30143,향군회관A동 화장실,37.495843,127.124748,서울특별시 송파구 신천동 7-29,공중화장실,288315,경보 및 피난설비,
31810,30144,학수(현충) 화장실,37.4926707943,126.966637299,서울특별시 동작구 사당동 산22-16,공중화장실,288338,경보 및 피난설비,
31822,30145,현대드림밸리빌딩 화장실,37.492385,127.127344,서울특별시 송파구 방이동 34-2,공중화장실,288352,경보 및 피난설비,
31840,30147,동성빌딩 화장실,37.53595,127.116069,서울특별시 송파구 방이동 64-1,공중화장실,288378,경보 및 피난설비,
31851,30148,세기빌딩 화장실,37.527741999999996,127.113877,서울특별시 송파구 방이동 66-2,공중화장실,288388,경보 및 피난설비,
31861,30149,삼성디지탈프라자 화장실,37.491772999999995,127.15561000000001,서울특별시 송파구 송파동 147-6,공중화장실,288406,경보 및 피난설비,
31870,30150,효창빌딩 화장실,37.50275,127.12838899999998,서울특별시 송파구 잠실동 181-3,공중화장실,288418,경보 및 피난설비,
31910,30156,청호빌딩 화장실,37.522388,127.10296699999999,서울특별시 송파구 석촌동 174-12,공중화장실,288466,경보 및 피난설비,
31921,30157,신우빌딩 화장실,37.506227,127.131651,서울특별시 송파구 석촌동 296-2,공중화장실,288478,경보 및 피난설비,
31929,30158,세븐스타빌딩 화장실,37.510861,127.11022700000001,서울특별시 송파구 잠실동 19-8,공중화장실,288491,경보 및 피난설비,
31938,30159,민성빌딩 화장실,37.499311999999996,127.097053,서울특별시 송파구 잠실동 222-5,공중화장실,288502,경보 및 피난설비,
31953,30161,우진빌딩 화장실,37.502383,127.094292,서울특별시 송파구 송파동 147-1,공중화장실,288516,경보 및 피난설비,
31963,30162,아이티벤처타워 화장실,37.475386,127.12756999999999,서울특별시 송파구 가락동 78,공중화장실,288530,경보 및 피난설비,
31972,30163,파크인수빌딩 화장실,37.506586,127.08099399999999,서울특별시 송파구 잠실본동 230,공중화장실,288544,경보 및 피난설비,
32001,30168,서울병원 화장실,37.495332,127.14081200000001,서울특별시 송파구 가락본동 2,공중화장실,288591,경보 및 피난설비,
32023,30171,힘찬병원 화장실,37.50277,127.09253799999999,서울특별시 송파구 송파동 20-8,공중화장실,288618,경보 및 피난설비,
32029,30172,잠실중앙상가 화장실,37.503592,127.103652,서울특별시 송파구 잠실동 27-6,공중화장실,288631,경보 및 피난설비,
32048,30174,장미상가 A 화장실,37.506276,127.109292,서울특별시 송파구 신천동 7,공중화장실,288641,경보 및 피난설비,
32058,30175,장미상가 B 화장실,37.50293900000001,127.12808400000002,서울특별시 송파구 신천동 7,공중화장실,288655,경보 및 피난설비,
32068,30176,잠실지하 상가 화장실,37.51459000000001,127.114434,서울특별시 송파구 잠실동,공중화장실,288669,경보 및 피난설비,
32078,30177,갤러리아팰리스 화장실,37.510961,127.12395500000001,서울특별시 송파구 잠실동 40,공중화장실,288683,경보 및 피난설비,
32090,30179,롯데마트 송파점 화장실,37.513279,127.094223,서울특별시 송파구 문정동 150-2,공중화장실,288700,경보 및 피난설비,
32100,30180,삼성홈플러스 화장실,37.514129,127.088424,서울특별시 송파구 신천동 7-12,공중화장실,288712,경보 및 피난설비,
32108,30181,롯데백화점 화장실,37.506146,127.084383,서울특별시 송파구 잠실동 40-1,공중화장실,288726,경보 및 피난설비,
32126,30184,가든파이브(툴) 화장실,37.490097,127.124133,서울특별시 송파구 문정동 628,공중화장실,288744,경보 및 피난설비,
32139,30186,서울주유소 화장실,37.495961,127.149872,서울특별시 송파구 가락동 180-4,공중화장실,288770,경보 및 피난설비,
32154,30189,트레져오일몽촌주유소 화장실,37.510334,127.101129,서울특별시 송파구 방이동 107-8,공중화장실,288804,경보 및 피난설비,
32204,30195,인광주유소 화장실,37.50763,127.109816,서울특별시 송파구 석촌동 295,공중화장실,288835,경보 및 피난설비,
32227,30199,올림픽주유소(셀프) 화장실,37.502767999999996,127.097991,서울특별시 송파구 오금동 4,공중화장실,288869,경보 및 피난설비,
32240,30201,완불주유소 화장실,37.498954,127.117173,서울특별시 송파구 장지동 608-5,공중화장실,288894,경보 및 피난설비,
32253,30202,남성대주유소 화장실,37.511283,127.097926,서울특별시 송파구 장지동 645-13,공중화장실,288902,경보 및 피난설비,
32259,30203,진양주유소 화장실,37.512386,127.099356,서울특별시 송파구 풍납동 401-6,공중화장실,288919,경보 및 피난설비,
32271,30204,우리주유소 화장실,37.516252,127.103021,"서울특별시 송파구 가락2동 137-9, 11",공중화장실,288926,경보 및 피난설비,
32292,30207,송파주유소(셀프) 화장실,37.520051,127.10381000000001,서울특별시 송파구 거여동 26-1,공중화장실,288953,경보 및 피난설비,
32299,30208,대성주유소 화장실,37.517821999999995,127.10181899999999,서울특별시 송파구 마천2동 31,공중화장실,288971,경보 및 피난설비,
32445,30234,송파어린이영어작은도서관 화장실,37.492335,127.156625,서울특별시 송파구 신천동 14,공중화장실,289123,경보 및 피난설비,
32453,30235,송파여성문화회관 화장실 화장실,37.489731,127.111309,서울특별시 송파구 송파동 113-2,공중화장실,289145,경보 및 피난설비,
32466,30236,비계(현충) 화장실,37.5031984473,126.96769570299999,서울특별시 동작구 동작동 산42-1,공중화장실,289153,경보 및 피난설비,
32476,30238,마천종합사회복지관 화장실,37.519185,127.116092,서울특별시 송파구 마천동 323-197,공중화장실,289172,경보 및 피난설비,
32484,30239,가락종합사회복지관 화장실,37.51894,127.115517,서울특별시 송파구 가락동 481-2,공중화장실,289189,경보 및 피난설비,
32558,30250,보건소 화장실,37.51827,127.122876,서울특별시 송파구 신천동  29-5,공중화장실,289274,경보 및 피난설비,
32575,30253,거송경로당 화장실 화장실,37.51427,127.126347,서울특별시 송파구 거여동 205-47,공중화장실,289295,경보 및 피난설비,
32584,30255,풍납2동 주민센터 화장실,37.514733,127.127567,서울특별시 송파구 풍납2동 403-11,공중화장실,289309,경보 및 피난설비,
32591,30256,거여1동주민센터 화장실,37.516964,127.12333500000001,서울특별시 송파구 거여1동 136-16,공중화장실,289318,경보 및 피난설비,
32639,30264,제우빌딩 화장실,37.503106,127.099043,서울특별시 송파구 석촌동 15,공중화장실,289378,경보 및 피난설비,
32670,30269,송파2동주민센터 화장실,37.513884000000004,127.106397,서울특별시 송파구 송파2동 173,공중화장실,289414,경보 및 피난설비,
32686,30271,삼전동주민센터 화장실,37.502635,127.12784099999999,서울특별시 송파구 삼전동 62,공중화장실,289437,경보 및 피난설비,
32710,30274,가락2동주민센터 화장실,37.507311,127.093828,서울특별시 송파구 가락2동 154,공중화장실,289455,경보 및 피난설비,
32730,30277,장지동주민센터 화장실,37.502708,127.09276100000001,서울특별시 송파구 문정동 114-4,공중화장실,289479,경보 및 피난설비,
32754,30281,잠실6동주민센터 화장실,37.506786,127.098228,서울특별시 송파구 잠실6동 7-6,공중화장실,289522,경보 및 피난설비,
32764,30282,잠실7동주민센터 화장실,37.508691,127.09774099999998,서울특별시 송파구 잠실7동 85-1,공중화장실,289534,경보 및 피난설비,
32815,30291,삼전지구대 화장실,37.506104,127.083624,서울특별시 송파구 삼전동 62-3,공중화장실,289595,경보 및 피난설비,
32828,30293,올림픽공원-제1체육관(체조) 화장실,37.512107,127.082406,서울특별시 송파구 오륜동 88-2,공중화장실,289612,경보 및 피난설비,
32858,30297,올림픽공원-수영경기장 화장실,37.50078,127.131782,서울특별시 송파구 오륜동 88-2,공중화장실,289643,경보 및 피난설비,
32876,30301,올림픽회관 화장실,37.527248,127.11768799999999,서울특별시 송파구 오륜동 88-2,공중화장실,289672,경보 및 피난설비,
32887,30302,선수촌올림픽스포츠센타 화장실,37.502331,127.12300400000001,서울특별시 송파구 오륜동 88-2,공중화장실,289676,경보 및 피난설비,
32900,30305,올림픽공원-수영장(옥외화장실) 화장실,37.49355,127.146817,서울특별시 송파구 오륜동 88-2,공중화장실,289720,경보 및 피난설비,
32934,30308,올림픽공원-에어돔(옥외화장실) 화장실,37.529058,127.11038300000001,서울특별시 송파구 오륜동 88-2,공중화장실,289741,경보 및 피난설비,
32944,30309,올림픽공원-P1주차장(옥외화장실) 화장실,37.533822,127.12117099999999,서울특별시 송파구 오륜동 88-2,공중화장실,289754,경보 및 피난설비,
32958,30312,삼주물산 화장실,37.4776571,126.8817333,서울특별시 금천구 독산3동 954,공중화장실,289783,경보 및 피난설비,
32965,30313,농협관악지점 화장실,37.4793528,126.88521670000002,서울특별시 금천구 독산3동 951,공중화장실,289793,경보 및 피난설비,
32985,30315,삼일빌딩 화장실,37.4733373,126.87804550000001,서울특별시 금천구 독산1동 148-17,공중화장실,289809,경보 및 피난설비,
32994,30316,효연빌딩 화장실,37.4761203,126.87561559999999,서울특별시 금천구 가산동 151-30,공중화장실,289823,경보 및 피난설비,
32996,30317,건국빌딩 화장실,37.4711625,126.88011470000001,서울특별시 금천구 독산1동 288-1,공중화장실,289842,경보 및 피난설비,
33022,30320,가산동 주민센터 화장실,37.47686820000001,126.8830013,서울특별시 금천구 가산동 144-3,공중화장실,289870,경보 및 피난설비,
33031,30321,독산1동 주민센터 화장실,37.4701912,126.8882753,서울특별시 금천구 독산동 289-5,공중화장실,289882,경보 및 피난설비,
33052,30324,독산3동 주민센터 화장실,37.475137,126.8944592,서울특별시 금천구 독산동 973-17,공중화장실,289910,경보 및 피난설비,
33062,30325,독산4동 주민센터 화장실,37.4674311,126.8933803,서울특별시 금천구 독산동 1022,공중화장실,289923,경보 및 피난설비,
33072,30326,시흥1동 주민센터 화장실,37.4535401,126.8944932,서울특별시 금천구 시흥동 886-6,공중화장실,289931,경보 및 피난설비,
33084,30328,시흥3동 주민센터 화장실,37.4402328,126.89704809999999,서울특별시 금천구 시흥동 956-3,공중화장실,289951,경보 및 피난설비,
33092,30329,시흥4동 주민센터 화장실,37.45896629999999,126.89741609999999,서울특별시 금천구 시흥동 812-38,공중화장실,289963,경보 및 피난설비,
33102,30330,시흥5동 주민센터 화장실,37.4523731,126.89954080000001,서울특별시 금천구 시흥동 832-14,공중화장실,289975,경보 및 피난설비,
33199,30347,1호선 금천구청역 화장실,37.4558127,126.8856088,서울특별시 금천구 시흥동 113-55,공중화장실,290071,경보 및 피난설비,
33208,30348,1호선 독산역 화장실,37.465657,126.88103829999999,서울특별시 금천구 가산동 717,공중화장실,290082,경보 및 피난설비,
33220,30350,가산우체국 화장실,37.478413700000004,126.88504409999999,서울특별시 금천구 가산동 146-61,공중화장실,290102,경보 및 피난설비,
33233,30351,구로세관 화장실,37.471919299999996,126.8758764,서울특별시 금천구 가산동 319-25,공중화장실,290115,경보 및 피난설비,
33250,30354,금천우체국 화장실,37.4350456,126.8947281,서울특별시 금천구 시흥동 967-1,공중화장실,290143,경보 및 피난설비,
33272,30357,kt 금천전화국 화장실,37.446391799999994,126.8942675,서울특별시 금천구 시흥동 985-14,공중화장실,290158,경보 및 피난설비,
33283,30359,성부주유소 화장실,37.47855300000001,126.89215,서울특별시 금천구 가산동 142-13,공중화장실,290185,경보 및 피난설비,
33345,30370,SK네트웍스㈜ 이가주유소 화장실,37.472947,126.8979,서울특별시 금천구 독산1동 150-6,공중화장실,290256,경보 및 피난설비,
33443,30386,재능유통 화장실,37.4817722,126.86427990000001,서울특별시 금천구 가산동 459-11,공중화장실,290370,경보 및 피난설비,
33452,30387,시흥빌딩 화장실,37.447970700000006,126.885065,서울특별시 금천구 시흥1동 986-4,공중화장실,290388,경보 및 피난설비,
